{
  "type": "FeatureCollection",
  "features": [
    {
      "type": "Feature",
      "geometry": {
        "type": "Point",
        "coordinates": [
          -105.55502593517305,
          39.6562371586386
        ]
      },
      "properties": {
        "record_class": "ELDER_TREE_CANDIDATE",
        "verification_status": "modeled remote-sensing candidate only",
        "source_class": "MODELED_CHMV2",
        "source_name": "WRI/Meta CHMv2",
        "source_url": "https://dataforgood-fb-data.s3.amazonaws.com/forests/v2/global/dinov3_global_chm_v2_ml3/chm/0231010211.tif",
        "source_license": "CC BY 4.0",
        "quadkey": "0231010211",
        "method_version": "earthline-elder-tree-aoi-chmv2-v0.3-local-relative",
        "screen_rank": 23,
        "screen_reference_peak_count": 1532,
        "local_canopy_floor_m": 5.0,
        "raw_structural_evidence_score": 35.184,
        "elder_tree_confidence_pct": 99,
        "confidence_pct": 99,
        "confidence_definition": "Earthline Elder Tree Confidence is a local percentile: how strongly this structure ranks against other detected tree/canopy structures in the same analyzed source tile/AOI. It is not the probability that the tree is ancient, veteran, or a mycorrhizal hub.",
        "height_m": 22.0,
        "emergent_height_m": 8.0,
        "crown_area_proxy_m2": 818.8,
        "open_context_fraction": 0.186,
        "evidence_limit": "Candidate only; modeled canopy structure is not proof of age or mycorrhizal hub status."
      }
    },
    {
      "type": "Feature",
      "geometry": {
        "type": "Point",
        "coordinates": [
          -105.61393797397614,
          39.637277873435096
        ]
      },
      "properties": {
        "record_class": "ELDER_TREE_CANDIDATE",
        "verification_status": "modeled remote-sensing candidate only",
        "source_class": "MODELED_CHMV2",
        "source_name": "WRI/Meta CHMv2",
        "source_url": "https://dataforgood-fb-data.s3.amazonaws.com/forests/v2/global/dinov3_global_chm_v2_ml3/chm/0231010213.tif",
        "source_license": "CC BY 4.0",
        "quadkey": "0231010213",
        "method_version": "earthline-elder-tree-aoi-chmv2-v0.3-local-relative",
        "screen_rank": 7,
        "screen_reference_peak_count": 710,
        "local_canopy_floor_m": 4.0,
        "raw_structural_evidence_score": 35.4005,
        "elder_tree_confidence_pct": 99,
        "confidence_pct": 99,
        "confidence_definition": "Earthline Elder Tree Confidence is a local percentile: how strongly this structure ranks against other detected tree/canopy structures in the same analyzed source tile/AOI. It is not the probability that the tree is ancient, veteran, or a mycorrhizal hub.",
        "height_m": 22.0,
        "emergent_height_m": 9.0,
        "crown_area_proxy_m2": 1032.7,
        "open_context_fraction": 0.035,
        "evidence_limit": "Candidate only; modeled canopy structure is not proof of age or mycorrhizal hub status."
      }
    },
    {
      "type": "Feature",
      "geometry": {
        "type": "Point",
        "coordinates": [
          -105.61556875705719,
          39.63939297940638
        ]
      },
      "properties": {
        "record_class": "ELDER_TREE_CANDIDATE",
        "verification_status": "modeled remote-sensing candidate only",
        "source_class": "MODELED_CHMV2",
        "source_name": "WRI/Meta CHMv2",
        "source_url": "https://dataforgood-fb-data.s3.amazonaws.com/forests/v2/global/dinov3_global_chm_v2_ml3/chm/0231010213.tif",
        "source_license": "CC BY 4.0",
        "quadkey": "0231010213",
        "method_version": "earthline-elder-tree-aoi-chmv2-v0.3-local-relative",
        "screen_rank": 24,
        "screen_reference_peak_count": 710,
        "local_canopy_floor_m": 4.0,
        "raw_structural_evidence_score": 34.9068,
        "elder_tree_confidence_pct": 97,
        "confidence_pct": 97,
        "confidence_definition": "Earthline Elder Tree Confidence is a local percentile: how strongly this structure ranks against other detected tree/canopy structures in the same analyzed source tile/AOI. It is not the probability that the tree is ancient, veteran, or a mycorrhizal hub.",
        "height_m": 21.0,
        "emergent_height_m": 8.0,
        "crown_area_proxy_m2": 940.0,
        "open_context_fraction": 0.161,
        "evidence_limit": "Candidate only; modeled canopy structure is not proof of age or mycorrhizal hub status."
      }
    },
    {
      "type": "Feature",
      "geometry": {
        "type": "Point",
        "coordinates": [
          -105.62759578227995,
          39.67237530210466
        ]
      },
      "properties": {
        "record_class": "ELDER_TREE_CANDIDATE",
        "verification_status": "modeled remote-sensing candidate only",
        "source_class": "MODELED_CHMV2",
        "source_name": "WRI/Meta CHMv2",
        "source_url": "https://dataforgood-fb-data.s3.amazonaws.com/forests/v2/global/dinov3_global_chm_v2_ml3/chm/0231010211.tif",
        "source_license": "CC BY 4.0",
        "quadkey": "0231010211",
        "method_version": "earthline-elder-tree-aoi-chmv2-v0.3-local-relative",
        "screen_rank": 17,
        "screen_reference_peak_count": 1532,
        "local_canopy_floor_m": 5.0,
        "raw_structural_evidence_score": 30.521,
        "elder_tree_confidence_pct": 99,
        "confidence_pct": 99,
        "confidence_definition": "Earthline Elder Tree Confidence is a local percentile: how strongly this structure ranks against other detected tree/canopy structures in the same analyzed source tile/AOI. It is not the probability that the tree is ancient, veteran, or a mycorrhizal hub.",
        "height_m": 20.0,
        "emergent_height_m": 4.0,
        "crown_area_proxy_m2": 875.8,
        "open_context_fraction": 0.035,
        "evidence_limit": "Candidate only; modeled canopy structure is not proof of age or mycorrhizal hub status."
      }
    },
    {
      "type": "Feature",
      "geometry": {
        "type": "Point",
        "coordinates": [
          -105.62116920948027,
          39.63131226517511
        ]
      },
      "properties": {
        "record_class": "ELDER_TREE_CANDIDATE",
        "verification_status": "modeled remote-sensing candidate only",
        "source_class": "MODELED_CHMV2",
        "source_name": "WRI/Meta CHMv2",
        "source_url": "https://dataforgood-fb-data.s3.amazonaws.com/forests/v2/global/dinov3_global_chm_v2_ml3/chm/0231010213.tif",
        "source_license": "CC BY 4.0",
        "quadkey": "0231010213",
        "method_version": "earthline-elder-tree-aoi-chmv2-v0.3-local-relative",
        "screen_rank": 12,
        "screen_reference_peak_count": 710,
        "local_canopy_floor_m": 4.0,
        "raw_structural_evidence_score": 34.2093,
        "elder_tree_confidence_pct": 98,
        "confidence_pct": 98,
        "confidence_definition": "Earthline Elder Tree Confidence is a local percentile: how strongly this structure ranks against other detected tree/canopy structures in the same analyzed source tile/AOI. It is not the probability that the tree is ancient, veteran, or a mycorrhizal hub.",
        "height_m": 20.0,
        "emergent_height_m": 9.0,
        "crown_area_proxy_m2": 766.0,
        "open_context_fraction": 0.173,
        "evidence_limit": "Candidate only; modeled canopy structure is not proof of age or mycorrhizal hub status."
      }
    },
    {
      "type": "Feature",
      "geometry": {
        "type": "Point",
        "coordinates": [
          -105.58534562587738,
          39.60436146759054
        ]
      },
      "properties": {
        "record_class": "ELDER_TREE_CANDIDATE",
        "verification_status": "modeled remote-sensing candidate only",
        "source_class": "MODELED_CHMV2",
        "source_name": "WRI/Meta CHMv2",
        "source_url": "https://dataforgood-fb-data.s3.amazonaws.com/forests/v2/global/dinov3_global_chm_v2_ml3/chm/0231010213.tif",
        "source_license": "CC BY 4.0",
        "quadkey": "0231010213",
        "method_version": "earthline-elder-tree-aoi-chmv2-v0.3-local-relative",
        "screen_rank": 15,
        "screen_reference_peak_count": 710,
        "local_canopy_floor_m": 4.0,
        "raw_structural_evidence_score": 33.3291,
        "elder_tree_confidence_pct": 98,
        "confidence_pct": 98,
        "confidence_definition": "Earthline Elder Tree Confidence is a local percentile: how strongly this structure ranks against other detected tree/canopy structures in the same analyzed source tile/AOI. It is not the probability that the tree is ancient, veteran, or a mycorrhizal hub.",
        "height_m": 20.0,
        "emergent_height_m": 7.0,
        "crown_area_proxy_m2": 1009.9,
        "open_context_fraction": 0.077,
        "evidence_limit": "Candidate only; modeled canopy structure is not proof of age or mycorrhizal hub status."
      }
    },
    {
      "type": "Feature",
      "geometry": {
        "type": "Point",
        "coordinates": [
          -105.61510741710663,
          39.63959952925717
        ]
      },
      "properties": {
        "record_class": "ELDER_TREE_CANDIDATE",
        "verification_status": "modeled remote-sensing candidate only",
        "source_class": "MODELED_CHMV2",
        "source_name": "WRI/Meta CHMv2",
        "source_url": "https://dataforgood-fb-data.s3.amazonaws.com/forests/v2/global/dinov3_global_chm_v2_ml3/chm/0231010211.tif",
        "source_license": "CC BY 4.0",
        "quadkey": "0231010211",
        "method_version": "earthline-elder-tree-aoi-chmv2-v0.3-local-relative",
        "screen_rank": 6,
        "screen_reference_peak_count": 1532,
        "local_canopy_floor_m": 5.0,
        "raw_structural_evidence_score": 34.2332,
        "elder_tree_confidence_pct": 100,
        "confidence_pct": 100,
        "confidence_definition": "Earthline Elder Tree Confidence is a local percentile: how strongly this structure ranks against other detected tree/canopy structures in the same analyzed source tile/AOI. It is not the probability that the tree is ancient, veteran, or a mycorrhizal hub.",
        "height_m": 19.0,
        "emergent_height_m": 8.0,
        "crown_area_proxy_m2": 791.7,
        "open_context_fraction": 0.338,
        "evidence_limit": "Candidate only; modeled canopy structure is not proof of age or mycorrhizal hub status."
      }
    },
    {
      "type": "Feature",
      "geometry": {
        "type": "Point",
        "coordinates": [
          -105.61142742633818,
          39.65899594151737
        ]
      },
      "properties": {
        "record_class": "ELDER_TREE_CANDIDATE",
        "verification_status": "modeled remote-sensing candidate only",
        "source_class": "MODELED_CHMV2",
        "source_name": "WRI/Meta CHMv2",
        "source_url": "https://dataforgood-fb-data.s3.amazonaws.com/forests/v2/global/dinov3_global_chm_v2_ml3/chm/0231010211.tif",
        "source_license": "CC BY 4.0",
        "quadkey": "0231010211",
        "method_version": "earthline-elder-tree-aoi-chmv2-v0.3-local-relative",
        "screen_rank": 8,
        "screen_reference_peak_count": 1532,
        "local_canopy_floor_m": 5.0,
        "raw_structural_evidence_score": 32.2771,
        "elder_tree_confidence_pct": 100,
        "confidence_pct": 100,
        "confidence_definition": "Earthline Elder Tree Confidence is a local percentile: how strongly this structure ranks against other detected tree/canopy structures in the same analyzed source tile/AOI. It is not the probability that the tree is ancient, veteran, or a mycorrhizal hub.",
        "height_m": 19.0,
        "emergent_height_m": 6.0,
        "crown_area_proxy_m2": 938.6,
        "open_context_fraction": 0.132,
        "evidence_limit": "Candidate only; modeled canopy structure is not proof of age or mycorrhizal hub status."
      }
    },
    {
      "type": "Feature",
      "geometry": {
        "type": "Point",
        "coordinates": [
          -105.61417400836945,
          39.6409131718707
        ]
      },
      "properties": {
        "record_class": "ELDER_TREE_CANDIDATE",
        "verification_status": "modeled remote-sensing candidate only",
        "source_class": "MODELED_CHMV2",
        "source_name": "WRI/Meta CHMv2",
        "source_url": "https://dataforgood-fb-data.s3.amazonaws.com/forests/v2/global/dinov3_global_chm_v2_ml3/chm/0231010211.tif",
        "source_license": "CC BY 4.0",
        "quadkey": "0231010211",
        "method_version": "earthline-elder-tree-aoi-chmv2-v0.3-local-relative",
        "screen_rank": 9,
        "screen_reference_peak_count": 1532,
        "local_canopy_floor_m": 5.0,
        "raw_structural_evidence_score": 34.4962,
        "elder_tree_confidence_pct": 99,
        "confidence_pct": 99,
        "confidence_definition": "Earthline Elder Tree Confidence is a local percentile: how strongly this structure ranks against other detected tree/canopy structures in the same analyzed source tile/AOI. It is not the probability that the tree is ancient, veteran, or a mycorrhizal hub.",
        "height_m": 19.0,
        "emergent_height_m": 8.0,
        "crown_area_proxy_m2": 804.5,
        "open_context_fraction": 0.267,
        "evidence_limit": "Candidate only; modeled canopy structure is not proof of age or mycorrhizal hub status."
      }
    },
    {
      "type": "Feature",
      "geometry": {
        "type": "Point",
        "coordinates": [
          -105.62470972537993,
          39.642573778710855
        ]
      },
      "properties": {
        "record_class": "ELDER_TREE_CANDIDATE",
        "verification_status": "modeled remote-sensing candidate only",
        "source_class": "MODELED_CHMV2",
        "source_name": "WRI/Meta CHMv2",
        "source_url": "https://dataforgood-fb-data.s3.amazonaws.com/forests/v2/global/dinov3_global_chm_v2_ml3/chm/0231010211.tif",
        "source_license": "CC BY 4.0",
        "quadkey": "0231010211",
        "method_version": "earthline-elder-tree-aoi-chmv2-v0.3-local-relative",
        "screen_rank": 15,
        "screen_reference_peak_count": 1532,
        "local_canopy_floor_m": 5.0,
        "raw_structural_evidence_score": 33.3955,
        "elder_tree_confidence_pct": 99,
        "confidence_pct": 99,
        "confidence_definition": "Earthline Elder Tree Confidence is a local percentile: how strongly this structure ranks against other detected tree/canopy structures in the same analyzed source tile/AOI. It is not the probability that the tree is ancient, veteran, or a mycorrhizal hub.",
        "height_m": 19.0,
        "emergent_height_m": 7.0,
        "crown_area_proxy_m2": 918.6,
        "open_context_fraction": 0.148,
        "evidence_limit": "Candidate only; modeled canopy structure is not proof of age or mycorrhizal hub status."
      }
    },
    {
      "type": "Feature",
      "geometry": {
        "type": "Point",
        "coordinates": [
          -105.61306893825531,
          39.648794503554896
        ]
      },
      "properties": {
        "record_class": "ELDER_TREE_CANDIDATE",
        "verification_status": "modeled remote-sensing candidate only",
        "source_class": "MODELED_CHMV2",
        "source_name": "WRI/Meta CHMv2",
        "source_url": "https://dataforgood-fb-data.s3.amazonaws.com/forests/v2/global/dinov3_global_chm_v2_ml3/chm/0231010211.tif",
        "source_license": "CC BY 4.0",
        "quadkey": "0231010211",
        "method_version": "earthline-elder-tree-aoi-chmv2-v0.3-local-relative",
        "screen_rank": 21,
        "screen_reference_peak_count": 1532,
        "local_canopy_floor_m": 5.0,
        "raw_structural_evidence_score": 33.7402,
        "elder_tree_confidence_pct": 99,
        "confidence_pct": 99,
        "confidence_definition": "Earthline Elder Tree Confidence is a local percentile: how strongly this structure ranks against other detected tree/canopy structures in the same analyzed source tile/AOI. It is not the probability that the tree is ancient, veteran, or a mycorrhizal hub.",
        "height_m": 19.0,
        "emergent_height_m": 8.0,
        "crown_area_proxy_m2": 962.8,
        "open_context_fraction": 0.042,
        "evidence_limit": "Candidate only; modeled canopy structure is not proof of age or mycorrhizal hub status."
      }
    },
    {
      "type": "Feature",
      "geometry": {
        "type": "Point",
        "coordinates": [
          -105.58768451213837,
          39.60540299965432
        ]
      },
      "properties": {
        "record_class": "ELDER_TREE_CANDIDATE",
        "verification_status": "modeled remote-sensing candidate only",
        "source_class": "MODELED_CHMV2",
        "source_name": "WRI/Meta CHMv2",
        "source_url": "https://dataforgood-fb-data.s3.amazonaws.com/forests/v2/global/dinov3_global_chm_v2_ml3/chm/0231010213.tif",
        "source_license": "CC BY 4.0",
        "quadkey": "0231010213",
        "method_version": "earthline-elder-tree-aoi-chmv2-v0.3-local-relative",
        "screen_rank": 2,
        "screen_reference_peak_count": 710,
        "local_canopy_floor_m": 4.0,
        "raw_structural_evidence_score": 34.3811,
        "elder_tree_confidence_pct": 100,
        "confidence_pct": 100,
        "confidence_definition": "Earthline Elder Tree Confidence is a local percentile: how strongly this structure ranks against other detected tree/canopy structures in the same analyzed source tile/AOI. It is not the probability that the tree is ancient, veteran, or a mycorrhizal hub.",
        "height_m": 19.0,
        "emergent_height_m": 8.0,
        "crown_area_proxy_m2": 847.3,
        "open_context_fraction": 0.217,
        "evidence_limit": "Candidate only; modeled canopy structure is not proof of age or mycorrhizal hub status."
      }
    },
    {
      "type": "Feature",
      "geometry": {
        "type": "Point",
        "coordinates": [
          -105.61824023723602,
          39.635245327850114
        ]
      },
      "properties": {
        "record_class": "ELDER_TREE_CANDIDATE",
        "verification_status": "modeled remote-sensing candidate only",
        "source_class": "MODELED_CHMV2",
        "source_name": "WRI/Meta CHMv2",
        "source_url": "https://dataforgood-fb-data.s3.amazonaws.com/forests/v2/global/dinov3_global_chm_v2_ml3/chm/0231010213.tif",
        "source_license": "CC BY 4.0",
        "quadkey": "0231010213",
        "method_version": "earthline-elder-tree-aoi-chmv2-v0.3-local-relative",
        "screen_rank": 6,
        "screen_reference_peak_count": 710,
        "local_canopy_floor_m": 4.0,
        "raw_structural_evidence_score": 33.8313,
        "elder_tree_confidence_pct": 99,
        "confidence_pct": 99,
        "confidence_definition": "Earthline Elder Tree Confidence is a local percentile: how strongly this structure ranks against other detected tree/canopy structures in the same analyzed source tile/AOI. It is not the probability that the tree is ancient, veteran, or a mycorrhizal hub.",
        "height_m": 19.0,
        "emergent_height_m": 8.0,
        "crown_area_proxy_m2": 845.9,
        "open_context_fraction": 0.127,
        "evidence_limit": "Candidate only; modeled canopy structure is not proof of age or mycorrhizal hub status."
      }
    },
    {
      "type": "Feature",
      "geometry": {
        "type": "Point",
        "coordinates": [
          -105.58145105838774,
          39.63701348064077
        ]
      },
      "properties": {
        "record_class": "ELDER_TREE_CANDIDATE",
        "verification_status": "modeled remote-sensing candidate only",
        "source_class": "MODELED_CHMV2",
        "source_name": "WRI/Meta CHMv2",
        "source_url": "https://dataforgood-fb-data.s3.amazonaws.com/forests/v2/global/dinov3_global_chm_v2_ml3/chm/0231010213.tif",
        "source_license": "CC BY 4.0",
        "quadkey": "0231010213",
        "method_version": "earthline-elder-tree-aoi-chmv2-v0.3-local-relative",
        "screen_rank": 14,
        "screen_reference_peak_count": 710,
        "local_canopy_floor_m": 4.0,
        "raw_structural_evidence_score": 33.3086,
        "elder_tree_confidence_pct": 98,
        "confidence_pct": 98,
        "confidence_definition": "Earthline Elder Tree Confidence is a local percentile: how strongly this structure ranks against other detected tree/canopy structures in the same analyzed source tile/AOI. It is not the probability that the tree is ancient, veteran, or a mycorrhizal hub.",
        "height_m": 19.0,
        "emergent_height_m": 7.0,
        "crown_area_proxy_m2": 900.1,
        "open_context_fraction": 0.191,
        "evidence_limit": "Candidate only; modeled canopy structure is not proof of age or mycorrhizal hub status."
      }
    },
    {
      "type": "Feature",
      "geometry": {
        "type": "Point",
        "coordinates": [
          -105.5620104074478,
          39.611081553672406
        ]
      },
      "properties": {
        "record_class": "ELDER_TREE_CANDIDATE",
        "verification_status": "modeled remote-sensing candidate only",
        "source_class": "MODELED_CHMV2",
        "source_name": "WRI/Meta CHMv2",
        "source_url": "https://dataforgood-fb-data.s3.amazonaws.com/forests/v2/global/dinov3_global_chm_v2_ml3/chm/0231010213.tif",
        "source_license": "CC BY 4.0",
        "quadkey": "0231010213",
        "method_version": "earthline-elder-tree-aoi-chmv2-v0.3-local-relative",
        "screen_rank": 16,
        "screen_reference_peak_count": 710,
        "local_canopy_floor_m": 4.0,
        "raw_structural_evidence_score": 32.8758,
        "elder_tree_confidence_pct": 98,
        "confidence_pct": 98,
        "confidence_definition": "Earthline Elder Tree Confidence is a local percentile: how strongly this structure ranks against other detected tree/canopy structures in the same analyzed source tile/AOI. It is not the probability that the tree is ancient, veteran, or a mycorrhizal hub.",
        "height_m": 19.0,
        "emergent_height_m": 7.0,
        "crown_area_proxy_m2": 858.7,
        "open_context_fraction": 0.101,
        "evidence_limit": "Candidate only; modeled canopy structure is not proof of age or mycorrhizal hub status."
      }
    },
    {
      "type": "Feature",
      "geometry": {
        "type": "Point",
        "coordinates": [
          -105.55319130420686,
          39.670847543193375
        ]
      },
      "properties": {
        "record_class": "ELDER_TREE_CANDIDATE",
        "verification_status": "modeled remote-sensing candidate only",
        "source_class": "MODELED_CHMV2",
        "source_name": "WRI/Meta CHMv2",
        "source_url": "https://dataforgood-fb-data.s3.amazonaws.com/forests/v2/global/dinov3_global_chm_v2_ml3/chm/0231010211.tif",
        "source_license": "CC BY 4.0",
        "quadkey": "0231010211",
        "method_version": "earthline-elder-tree-aoi-chmv2-v0.3-local-relative",
        "screen_rank": 20,
        "screen_reference_peak_count": 1532,
        "local_canopy_floor_m": 5.0,
        "raw_structural_evidence_score": 32.9598,
        "elder_tree_confidence_pct": 99,
        "confidence_pct": 99,
        "confidence_definition": "Earthline Elder Tree Confidence is a local percentile: how strongly this structure ranks against other detected tree/canopy structures in the same analyzed source tile/AOI. It is not the probability that the tree is ancient, veteran, or a mycorrhizal hub.",
        "height_m": 18.0,
        "emergent_height_m": 7.0,
        "crown_area_proxy_m2": 794.5,
        "open_context_fraction": 0.246,
        "evidence_limit": "Candidate only; modeled canopy structure is not proof of age or mycorrhizal hub status."
      }
    },
    {
      "type": "Feature",
      "geometry": {
        "type": "Point",
        "coordinates": [
          -105.61737120151518,
          39.63904597426839
        ]
      },
      "properties": {
        "record_class": "ELDER_TREE_CANDIDATE",
        "verification_status": "modeled remote-sensing candidate only",
        "source_class": "MODELED_CHMV2",
        "source_name": "WRI/Meta CHMv2",
        "source_url": "https://dataforgood-fb-data.s3.amazonaws.com/forests/v2/global/dinov3_global_chm_v2_ml3/chm/0231010213.tif",
        "source_license": "CC BY 4.0",
        "quadkey": "0231010213",
        "method_version": "earthline-elder-tree-aoi-chmv2-v0.3-local-relative",
        "screen_rank": 9,
        "screen_reference_peak_count": 710,
        "local_canopy_floor_m": 4.0,
        "raw_structural_evidence_score": 32.8998,
        "elder_tree_confidence_pct": 99,
        "confidence_pct": 99,
        "confidence_definition": "Earthline Elder Tree Confidence is a local percentile: how strongly this structure ranks against other detected tree/canopy structures in the same analyzed source tile/AOI. It is not the probability that the tree is ancient, veteran, or a mycorrhizal hub.",
        "height_m": 18.0,
        "emergent_height_m": 8.0,
        "crown_area_proxy_m2": 763.1,
        "open_context_fraction": 0.242,
        "evidence_limit": "Candidate only; modeled canopy structure is not proof of age or mycorrhizal hub status."
      }
    },
    {
      "type": "Feature",
      "geometry": {
        "type": "Point",
        "coordinates": [
          -105.5587488412857,
          39.61036246123273
        ]
      },
      "properties": {
        "record_class": "ELDER_TREE_CANDIDATE",
        "verification_status": "modeled remote-sensing candidate only",
        "source_class": "MODELED_CHMV2",
        "source_name": "WRI/Meta CHMv2",
        "source_url": "https://dataforgood-fb-data.s3.amazonaws.com/forests/v2/global/dinov3_global_chm_v2_ml3/chm/0231010213.tif",
        "source_license": "CC BY 4.0",
        "quadkey": "0231010213",
        "method_version": "earthline-elder-tree-aoi-chmv2-v0.3-local-relative",
        "screen_rank": 17,
        "screen_reference_peak_count": 710,
        "local_canopy_floor_m": 4.0,
        "raw_structural_evidence_score": 32.3856,
        "elder_tree_confidence_pct": 98,
        "confidence_pct": 98,
        "confidence_definition": "Earthline Elder Tree Confidence is a local percentile: how strongly this structure ranks against other detected tree/canopy structures in the same analyzed source tile/AOI. It is not the probability that the tree is ancient, veteran, or a mycorrhizal hub.",
        "height_m": 18.0,
        "emergent_height_m": 6.0,
        "crown_area_proxy_m2": 1009.9,
        "open_context_fraction": 0.136,
        "evidence_limit": "Candidate only; modeled canopy structure is not proof of age or mycorrhizal hub status."
      }
    },
    {
      "type": "Feature",
      "geometry": {
        "type": "Point",
        "coordinates": [
          -105.5664199590683,
          39.61145349510701
        ]
      },
      "properties": {
        "record_class": "ELDER_TREE_CANDIDATE",
        "verification_status": "modeled remote-sensing candidate only",
        "source_class": "MODELED_CHMV2",
        "source_name": "WRI/Meta CHMv2",
        "source_url": "https://dataforgood-fb-data.s3.amazonaws.com/forests/v2/global/dinov3_global_chm_v2_ml3/chm/0231010213.tif",
        "source_license": "CC BY 4.0",
        "quadkey": "0231010213",
        "method_version": "earthline-elder-tree-aoi-chmv2-v0.3-local-relative",
        "screen_rank": 19,
        "screen_reference_peak_count": 710,
        "local_canopy_floor_m": 4.0,
        "raw_structural_evidence_score": 31.9967,
        "elder_tree_confidence_pct": 97,
        "confidence_pct": 97,
        "confidence_definition": "Earthline Elder Tree Confidence is a local percentile: how strongly this structure ranks against other detected tree/canopy structures in the same analyzed source tile/AOI. It is not the probability that the tree is ancient, veteran, or a mycorrhizal hub.",
        "height_m": 18.0,
        "emergent_height_m": 6.0,
        "crown_area_proxy_m2": 1185.4,
        "open_context_fraction": 0.016,
        "evidence_limit": "Candidate only; modeled canopy structure is not proof of age or mycorrhizal hub status."
      }
    },
    {
      "type": "Feature",
      "geometry": {
        "type": "Point",
        "coordinates": [
          -105.61116993427277,
          39.64066531668361
        ]
      },
      "properties": {
        "record_class": "ELDER_TREE_CANDIDATE",
        "verification_status": "modeled remote-sensing candidate only",
        "source_class": "MODELED_CHMV2",
        "source_name": "WRI/Meta CHMv2",
        "source_url": "https://dataforgood-fb-data.s3.amazonaws.com/forests/v2/global/dinov3_global_chm_v2_ml3/chm/0231010211.tif",
        "source_license": "CC BY 4.0",
        "quadkey": "0231010211",
        "method_version": "earthline-elder-tree-aoi-chmv2-v0.3-local-relative",
        "screen_rank": 3,
        "screen_reference_peak_count": 1532,
        "local_canopy_floor_m": 5.0,
        "raw_structural_evidence_score": 31.6879,
        "elder_tree_confidence_pct": 100,
        "confidence_pct": 100,
        "confidence_definition": "Earthline Elder Tree Confidence is a local percentile: how strongly this structure ranks against other detected tree/canopy structures in the same analyzed source tile/AOI. It is not the probability that the tree is ancient, veteran, or a mycorrhizal hub.",
        "height_m": 17.0,
        "emergent_height_m": 5.0,
        "crown_area_proxy_m2": 924.3,
        "open_context_fraction": 0.278,
        "evidence_limit": "Candidate only; modeled canopy structure is not proof of age or mycorrhizal hub status."
      }
    },
    {
      "type": "Feature",
      "geometry": {
        "type": "Point",
        "coordinates": [
          -105.61191022396088,
          39.640698364093204
        ]
      },
      "properties": {
        "record_class": "ELDER_TREE_CANDIDATE",
        "verification_status": "modeled remote-sensing candidate only",
        "source_class": "MODELED_CHMV2",
        "source_name": "WRI/Meta CHMv2",
        "source_url": "https://dataforgood-fb-data.s3.amazonaws.com/forests/v2/global/dinov3_global_chm_v2_ml3/chm/0231010211.tif",
        "source_license": "CC BY 4.0",
        "quadkey": "0231010211",
        "method_version": "earthline-elder-tree-aoi-chmv2-v0.3-local-relative",
        "screen_rank": 4,
        "screen_reference_peak_count": 1532,
        "local_canopy_floor_m": 5.0,
        "raw_structural_evidence_score": 33.2433,
        "elder_tree_confidence_pct": 100,
        "confidence_pct": 100,
        "confidence_definition": "Earthline Elder Tree Confidence is a local percentile: how strongly this structure ranks against other detected tree/canopy structures in the same analyzed source tile/AOI. It is not the probability that the tree is ancient, veteran, or a mycorrhizal hub.",
        "height_m": 17.0,
        "emergent_height_m": 8.0,
        "crown_area_proxy_m2": 823.0,
        "open_context_fraction": 0.291,
        "evidence_limit": "Candidate only; modeled canopy structure is not proof of age or mycorrhizal hub status."
      }
    },
    {
      "type": "Feature",
      "geometry": {
        "type": "Point",
        "coordinates": [
          -105.61210334300995,
          39.65916939424653
        ]
      },
      "properties": {
        "record_class": "ELDER_TREE_CANDIDATE",
        "verification_status": "modeled remote-sensing candidate only",
        "source_class": "MODELED_CHMV2",
        "source_name": "WRI/Meta CHMv2",
        "source_url": "https://dataforgood-fb-data.s3.amazonaws.com/forests/v2/global/dinov3_global_chm_v2_ml3/chm/0231010211.tif",
        "source_license": "CC BY 4.0",
        "quadkey": "0231010211",
        "method_version": "earthline-elder-tree-aoi-chmv2-v0.3-local-relative",
        "screen_rank": 10,
        "screen_reference_peak_count": 1532,
        "local_canopy_floor_m": 5.0,
        "raw_structural_evidence_score": 33.1032,
        "elder_tree_confidence_pct": 99,
        "confidence_pct": 99,
        "confidence_definition": "Earthline Elder Tree Confidence is a local percentile: how strongly this structure ranks against other detected tree/canopy structures in the same analyzed source tile/AOI. It is not the probability that the tree is ancient, veteran, or a mycorrhizal hub.",
        "height_m": 17.0,
        "emergent_height_m": 7.0,
        "crown_area_proxy_m2": 873.0,
        "open_context_fraction": 0.3,
        "evidence_limit": "Candidate only; modeled canopy structure is not proof of age or mycorrhizal hub status."
      }
    },
    {
      "type": "Feature",
      "geometry": {
        "type": "Point",
        "coordinates": [
          -105.62223136425017,
          39.645919656448704
        ]
      },
      "properties": {
        "record_class": "ELDER_TREE_CANDIDATE",
        "verification_status": "modeled remote-sensing candidate only",
        "source_class": "MODELED_CHMV2",
        "source_name": "WRI/Meta CHMv2",
        "source_url": "https://dataforgood-fb-data.s3.amazonaws.com/forests/v2/global/dinov3_global_chm_v2_ml3/chm/0231010211.tif",
        "source_license": "CC BY 4.0",
        "quadkey": "0231010211",
        "method_version": "earthline-elder-tree-aoi-chmv2-v0.3-local-relative",
        "screen_rank": 13,
        "screen_reference_peak_count": 1532,
        "local_canopy_floor_m": 5.0,
        "raw_structural_evidence_score": 32.1438,
        "elder_tree_confidence_pct": 99,
        "confidence_pct": 99,
        "confidence_definition": "Earthline Elder Tree Confidence is a local percentile: how strongly this structure ranks against other detected tree/canopy structures in the same analyzed source tile/AOI. It is not the probability that the tree is ancient, veteran, or a mycorrhizal hub.",
        "height_m": 17.0,
        "emergent_height_m": 7.0,
        "crown_area_proxy_m2": 805.9,
        "open_context_fraction": 0.272,
        "evidence_limit": "Candidate only; modeled canopy structure is not proof of age or mycorrhizal hub status."
      }
    },
    {
      "type": "Feature",
      "geometry": {
        "type": "Point",
        "coordinates": [
          -105.61231791973114,
          39.65664189715088
        ]
      },
      "properties": {
        "record_class": "ELDER_TREE_CANDIDATE",
        "verification_status": "modeled remote-sensing candidate only",
        "source_class": "MODELED_CHMV2",
        "source_name": "WRI/Meta CHMv2",
        "source_url": "https://dataforgood-fb-data.s3.amazonaws.com/forests/v2/global/dinov3_global_chm_v2_ml3/chm/0231010211.tif",
        "source_license": "CC BY 4.0",
        "quadkey": "0231010211",
        "method_version": "earthline-elder-tree-aoi-chmv2-v0.3-local-relative",
        "screen_rank": 19,
        "screen_reference_peak_count": 1532,
        "local_canopy_floor_m": 5.0,
        "raw_structural_evidence_score": 31.9597,
        "elder_tree_confidence_pct": 99,
        "confidence_pct": 99,
        "confidence_definition": "Earthline Elder Tree Confidence is a local percentile: how strongly this structure ranks against other detected tree/canopy structures in the same analyzed source tile/AOI. It is not the probability that the tree is ancient, veteran, or a mycorrhizal hub.",
        "height_m": 17.0,
        "emergent_height_m": 6.0,
        "crown_area_proxy_m2": 887.2,
        "open_context_fraction": 0.122,
        "evidence_limit": "Candidate only; modeled canopy structure is not proof of age or mycorrhizal hub status."
      }
    },
    {
      "type": "Feature",
      "geometry": {
        "type": "Point",
        "coordinates": [
          -105.58166563510892,
          39.60416307875463
        ]
      },
      "properties": {
        "record_class": "ELDER_TREE_CANDIDATE",
        "verification_status": "modeled remote-sensing candidate only",
        "source_class": "MODELED_CHMV2",
        "source_name": "WRI/Meta CHMv2",
        "source_url": "https://dataforgood-fb-data.s3.amazonaws.com/forests/v2/global/dinov3_global_chm_v2_ml3/chm/0231010213.tif",
        "source_license": "CC BY 4.0",
        "quadkey": "0231010213",
        "method_version": "earthline-elder-tree-aoi-chmv2-v0.3-local-relative",
        "screen_rank": 4,
        "screen_reference_peak_count": 710,
        "local_canopy_floor_m": 4.0,
        "raw_structural_evidence_score": 32.537,
        "elder_tree_confidence_pct": 100,
        "confidence_pct": 100,
        "confidence_definition": "Earthline Elder Tree Confidence is a local percentile: how strongly this structure ranks against other detected tree/canopy structures in the same analyzed source tile/AOI. It is not the probability that the tree is ancient, veteran, or a mycorrhizal hub.",
        "height_m": 17.0,
        "emergent_height_m": 7.0,
        "crown_area_proxy_m2": 834.5,
        "open_context_fraction": 0.287,
        "evidence_limit": "Candidate only; modeled canopy structure is not proof of age or mycorrhizal hub status."
      }
    },
    {
      "type": "Feature",
      "geometry": {
        "type": "Point",
        "coordinates": [
          -105.58418691158293,
          39.604601186675616
        ]
      },
      "properties": {
        "record_class": "ELDER_TREE_CANDIDATE",
        "verification_status": "modeled remote-sensing candidate only",
        "source_class": "MODELED_CHMV2",
        "source_name": "WRI/Meta CHMv2",
        "source_url": "https://dataforgood-fb-data.s3.amazonaws.com/forests/v2/global/dinov3_global_chm_v2_ml3/chm/0231010213.tif",
        "source_license": "CC BY 4.0",
        "quadkey": "0231010213",
        "method_version": "earthline-elder-tree-aoi-chmv2-v0.3-local-relative",
        "screen_rank": 5,
        "screen_reference_peak_count": 710,
        "local_canopy_floor_m": 4.0,
        "raw_structural_evidence_score": 32.3569,
        "elder_tree_confidence_pct": 99,
        "confidence_pct": 99,
        "confidence_definition": "Earthline Elder Tree Confidence is a local percentile: how strongly this structure ranks against other detected tree/canopy structures in the same analyzed source tile/AOI. It is not the probability that the tree is ancient, veteran, or a mycorrhizal hub.",
        "height_m": 17.0,
        "emergent_height_m": 7.0,
        "crown_area_proxy_m2": 835.9,
        "open_context_fraction": 0.204,
        "evidence_limit": "Candidate only; modeled canopy structure is not proof of age or mycorrhizal hub status."
      }
    },
    {
      "type": "Feature",
      "geometry": {
        "type": "Point",
        "coordinates": [
          -105.62536418437958,
          39.62954396665414
        ]
      },
      "properties": {
        "record_class": "ELDER_TREE_CANDIDATE",
        "verification_status": "modeled remote-sensing candidate only",
        "source_class": "MODELED_CHMV2",
        "source_name": "WRI/Meta CHMv2",
        "source_url": "https://dataforgood-fb-data.s3.amazonaws.com/forests/v2/global/dinov3_global_chm_v2_ml3/chm/0231010213.tif",
        "source_license": "CC BY 4.0",
        "quadkey": "0231010213",
        "method_version": "earthline-elder-tree-aoi-chmv2-v0.3-local-relative",
        "screen_rank": 8,
        "screen_reference_peak_count": 710,
        "local_canopy_floor_m": 4.0,
        "raw_structural_evidence_score": 32.2104,
        "elder_tree_confidence_pct": 99,
        "confidence_pct": 99,
        "confidence_definition": "Earthline Elder Tree Confidence is a local percentile: how strongly this structure ranks against other detected tree/canopy structures in the same analyzed source tile/AOI. It is not the probability that the tree is ancient, veteran, or a mycorrhizal hub.",
        "height_m": 17.0,
        "emergent_height_m": 6.0,
        "crown_area_proxy_m2": 960.0,
        "open_context_fraction": 0.223,
        "evidence_limit": "Candidate only; modeled canopy structure is not proof of age or mycorrhizal hub status."
      }
    },
    {
      "type": "Feature",
      "geometry": {
        "type": "Point",
        "coordinates": [
          -105.55682837963103,
          39.61889190416041
        ]
      },
      "properties": {
        "record_class": "ELDER_TREE_CANDIDATE",
        "verification_status": "modeled remote-sensing candidate only",
        "source_class": "MODELED_CHMV2",
        "source_name": "WRI/Meta CHMv2",
        "source_url": "https://dataforgood-fb-data.s3.amazonaws.com/forests/v2/global/dinov3_global_chm_v2_ml3/chm/0231010213.tif",
        "source_license": "CC BY 4.0",
        "quadkey": "0231010213",
        "method_version": "earthline-elder-tree-aoi-chmv2-v0.3-local-relative",
        "screen_rank": 18,
        "screen_reference_peak_count": 710,
        "local_canopy_floor_m": 4.0,
        "raw_structural_evidence_score": 31.0312,
        "elder_tree_confidence_pct": 98,
        "confidence_pct": 98,
        "confidence_definition": "Earthline Elder Tree Confidence is a local percentile: how strongly this structure ranks against other detected tree/canopy structures in the same analyzed source tile/AOI. It is not the probability that the tree is ancient, veteran, or a mycorrhizal hub.",
        "height_m": 17.0,
        "emergent_height_m": 9.0,
        "crown_area_proxy_m2": 676.1,
        "open_context_fraction": 0.253,
        "evidence_limit": "Candidate only; modeled canopy structure is not proof of age or mycorrhizal hub status."
      }
    },
    {
      "type": "Feature",
      "geometry": {
        "type": "Point",
        "coordinates": [
          -105.62719881534575,
          39.62780041311433
        ]
      },
      "properties": {
        "record_class": "ELDER_TREE_CANDIDATE",
        "verification_status": "modeled remote-sensing candidate only",
        "source_class": "MODELED_CHMV2",
        "source_name": "WRI/Meta CHMv2",
        "source_url": "https://dataforgood-fb-data.s3.amazonaws.com/forests/v2/global/dinov3_global_chm_v2_ml3/chm/0231010213.tif",
        "source_license": "CC BY 4.0",
        "quadkey": "0231010213",
        "method_version": "earthline-elder-tree-aoi-chmv2-v0.3-local-relative",
        "screen_rank": 21,
        "screen_reference_peak_count": 710,
        "local_canopy_floor_m": 4.0,
        "raw_structural_evidence_score": 31.0025,
        "elder_tree_confidence_pct": 97,
        "confidence_pct": 97,
        "confidence_definition": "Earthline Elder Tree Confidence is a local percentile: how strongly this structure ranks against other detected tree/canopy structures in the same analyzed source tile/AOI. It is not the probability that the tree is ancient, veteran, or a mycorrhizal hub.",
        "height_m": 17.0,
        "emergent_height_m": 10.0,
        "crown_area_proxy_m2": 666.1,
        "open_context_fraction": 0.314,
        "evidence_limit": "Candidate only; modeled canopy structure is not proof of age or mycorrhizal hub status."
      }
    },
    {
      "type": "Feature",
      "geometry": {
        "type": "Point",
        "coordinates": [
          -105.61540782451628,
          39.64571312547416
        ]
      },
      "properties": {
        "record_class": "ELDER_TREE_CANDIDATE",
        "verification_status": "modeled remote-sensing candidate only",
        "source_class": "MODELED_CHMV2",
        "source_name": "WRI/Meta CHMv2",
        "source_url": "https://dataforgood-fb-data.s3.amazonaws.com/forests/v2/global/dinov3_global_chm_v2_ml3/chm/0231010211.tif",
        "source_license": "CC BY 4.0",
        "quadkey": "0231010211",
        "method_version": "earthline-elder-tree-aoi-chmv2-v0.3-local-relative",
        "screen_rank": 1,
        "screen_reference_peak_count": 1532,
        "local_canopy_floor_m": 5.0,
        "raw_structural_evidence_score": 31.4195,
        "elder_tree_confidence_pct": 100,
        "confidence_pct": 100,
        "confidence_definition": "Earthline Elder Tree Confidence is a local percentile: how strongly this structure ranks against other detected tree/canopy structures in the same analyzed source tile/AOI. It is not the probability that the tree is ancient, veteran, or a mycorrhizal hub.",
        "height_m": 16.0,
        "emergent_height_m": 5.0,
        "crown_area_proxy_m2": 811.6,
        "open_context_fraction": 0.33,
        "evidence_limit": "Candidate only; modeled canopy structure is not proof of age or mycorrhizal hub status."
      }
    },
    {
      "type": "Feature",
      "geometry": {
        "type": "Point",
        "coordinates": [
          -105.61199605464935,
          39.65754222534168
        ]
      },
      "properties": {
        "record_class": "ELDER_TREE_CANDIDATE",
        "verification_status": "modeled remote-sensing candidate only",
        "source_class": "MODELED_CHMV2",
        "source_name": "WRI/Meta CHMv2",
        "source_url": "https://dataforgood-fb-data.s3.amazonaws.com/forests/v2/global/dinov3_global_chm_v2_ml3/chm/0231010211.tif",
        "source_license": "CC BY 4.0",
        "quadkey": "0231010211",
        "method_version": "earthline-elder-tree-aoi-chmv2-v0.3-local-relative",
        "screen_rank": 2,
        "screen_reference_peak_count": 1532,
        "local_canopy_floor_m": 5.0,
        "raw_structural_evidence_score": 31.6456,
        "elder_tree_confidence_pct": 100,
        "confidence_pct": 100,
        "confidence_definition": "Earthline Elder Tree Confidence is a local percentile: how strongly this structure ranks against other detected tree/canopy structures in the same analyzed source tile/AOI. It is not the probability that the tree is ancient, veteran, or a mycorrhizal hub.",
        "height_m": 16.0,
        "emergent_height_m": 6.0,
        "crown_area_proxy_m2": 847.3,
        "open_context_fraction": 0.211,
        "evidence_limit": "Candidate only; modeled canopy structure is not proof of age or mycorrhizal hub status."
      }
    },
    {
      "type": "Feature",
      "geometry": {
        "type": "Point",
        "coordinates": [
          -105.55676400661467,
          39.65151228069557
        ]
      },
      "properties": {
        "record_class": "ELDER_TREE_CANDIDATE",
        "verification_status": "modeled remote-sensing candidate only",
        "source_class": "MODELED_CHMV2",
        "source_name": "WRI/Meta CHMv2",
        "source_url": "https://dataforgood-fb-data.s3.amazonaws.com/forests/v2/global/dinov3_global_chm_v2_ml3/chm/0231010211.tif",
        "source_license": "CC BY 4.0",
        "quadkey": "0231010211",
        "method_version": "earthline-elder-tree-aoi-chmv2-v0.3-local-relative",
        "screen_rank": 14,
        "screen_reference_peak_count": 1532,
        "local_canopy_floor_m": 5.0,
        "raw_structural_evidence_score": 30.7476,
        "elder_tree_confidence_pct": 99,
        "confidence_pct": 99,
        "confidence_definition": "Earthline Elder Tree Confidence is a local percentile: how strongly this structure ranks against other detected tree/canopy structures in the same analyzed source tile/AOI. It is not the probability that the tree is ancient, veteran, or a mycorrhizal hub.",
        "height_m": 16.0,
        "emergent_height_m": 6.0,
        "crown_area_proxy_m2": 921.5,
        "open_context_fraction": 0.125,
        "evidence_limit": "Candidate only; modeled canopy structure is not proof of age or mycorrhizal hub status."
      }
    },
    {
      "type": "Feature",
      "geometry": {
        "type": "Point",
        "coordinates": [
          -105.60054838657379,
          39.67571147978683
        ]
      },
      "properties": {
        "record_class": "ELDER_TREE_CANDIDATE",
        "verification_status": "modeled remote-sensing candidate only",
        "source_class": "MODELED_CHMV2",
        "source_name": "WRI/Meta CHMv2",
        "source_url": "https://dataforgood-fb-data.s3.amazonaws.com/forests/v2/global/dinov3_global_chm_v2_ml3/chm/0231010211.tif",
        "source_license": "CC BY 4.0",
        "quadkey": "0231010211",
        "method_version": "earthline-elder-tree-aoi-chmv2-v0.3-local-relative",
        "screen_rank": 16,
        "screen_reference_peak_count": 1532,
        "local_canopy_floor_m": 5.0,
        "raw_structural_evidence_score": 31.0032,
        "elder_tree_confidence_pct": 99,
        "confidence_pct": 99,
        "confidence_definition": "Earthline Elder Tree Confidence is a local percentile: how strongly this structure ranks against other detected tree/canopy structures in the same analyzed source tile/AOI. It is not the probability that the tree is ancient, veteran, or a mycorrhizal hub.",
        "height_m": 16.0,
        "emergent_height_m": 5.0,
        "crown_area_proxy_m2": 1019.9,
        "open_context_fraction": 0.17,
        "evidence_limit": "Candidate only; modeled canopy structure is not proof of age or mycorrhizal hub status."
      }
    },
    {
      "type": "Feature",
      "geometry": {
        "type": "Point",
        "coordinates": [
          -105.59744775295256,
          39.656179338657665
        ]
      },
      "properties": {
        "record_class": "ELDER_TREE_CANDIDATE",
        "verification_status": "modeled remote-sensing candidate only",
        "source_class": "MODELED_CHMV2",
        "source_name": "WRI/Meta CHMv2",
        "source_url": "https://dataforgood-fb-data.s3.amazonaws.com/forests/v2/global/dinov3_global_chm_v2_ml3/chm/0231010211.tif",
        "source_license": "CC BY 4.0",
        "quadkey": "0231010211",
        "method_version": "earthline-elder-tree-aoi-chmv2-v0.3-local-relative",
        "screen_rank": 18,
        "screen_reference_peak_count": 1532,
        "local_canopy_floor_m": 5.0,
        "raw_structural_evidence_score": 29.973,
        "elder_tree_confidence_pct": 99,
        "confidence_pct": 99,
        "confidence_definition": "Earthline Elder Tree Confidence is a local percentile: how strongly this structure ranks against other detected tree/canopy structures in the same analyzed source tile/AOI. It is not the probability that the tree is ancient, veteran, or a mycorrhizal hub.",
        "height_m": 16.0,
        "emergent_height_m": 4.0,
        "crown_area_proxy_m2": 947.1,
        "open_context_fraction": 0.133,
        "evidence_limit": "Candidate only; modeled canopy structure is not proof of age or mycorrhizal hub status."
      }
    },
    {
      "type": "Feature",
      "geometry": {
        "type": "Point",
        "coordinates": [
          -105.6284326314926,
          39.672887300235
        ]
      },
      "properties": {
        "record_class": "ELDER_TREE_CANDIDATE",
        "verification_status": "modeled remote-sensing candidate only",
        "source_class": "MODELED_CHMV2",
        "source_name": "WRI/Meta CHMv2",
        "source_url": "https://dataforgood-fb-data.s3.amazonaws.com/forests/v2/global/dinov3_global_chm_v2_ml3/chm/0231010211.tif",
        "source_license": "CC BY 4.0",
        "quadkey": "0231010211",
        "method_version": "earthline-elder-tree-aoi-chmv2-v0.3-local-relative",
        "screen_rank": 22,
        "screen_reference_peak_count": 1532,
        "local_canopy_floor_m": 5.0,
        "raw_structural_evidence_score": 30.2213,
        "elder_tree_confidence_pct": 99,
        "confidence_pct": 99,
        "confidence_definition": "Earthline Elder Tree Confidence is a local percentile: how strongly this structure ranks against other detected tree/canopy structures in the same analyzed source tile/AOI. It is not the probability that the tree is ancient, veteran, or a mycorrhizal hub.",
        "height_m": 16.0,
        "emergent_height_m": 8.0,
        "crown_area_proxy_m2": 680.4,
        "open_context_fraction": 0.303,
        "evidence_limit": "Candidate only; modeled canopy structure is not proof of age or mycorrhizal hub status."
      }
    },
    {
      "type": "Feature",
      "geometry": {
        "type": "Point",
        "coordinates": [
          -105.5561202764511,
          39.66053222197136
        ]
      },
      "properties": {
        "record_class": "ELDER_TREE_CANDIDATE",
        "verification_status": "modeled remote-sensing candidate only",
        "source_class": "MODELED_CHMV2",
        "source_name": "WRI/Meta CHMv2",
        "source_url": "https://dataforgood-fb-data.s3.amazonaws.com/forests/v2/global/dinov3_global_chm_v2_ml3/chm/0231010211.tif",
        "source_license": "CC BY 4.0",
        "quadkey": "0231010211",
        "method_version": "earthline-elder-tree-aoi-chmv2-v0.3-local-relative",
        "screen_rank": 25,
        "screen_reference_peak_count": 1532,
        "local_canopy_floor_m": 5.0,
        "raw_structural_evidence_score": 30.488,
        "elder_tree_confidence_pct": 98,
        "confidence_pct": 98,
        "confidence_definition": "Earthline Elder Tree Confidence is a local percentile: how strongly this structure ranks against other detected tree/canopy structures in the same analyzed source tile/AOI. It is not the probability that the tree is ancient, veteran, or a mycorrhizal hub.",
        "height_m": 16.0,
        "emergent_height_m": 4.0,
        "crown_area_proxy_m2": 878.7,
        "open_context_fraction": 0.274,
        "evidence_limit": "Candidate only; modeled canopy structure is not proof of age or mycorrhizal hub status."
      }
    },
    {
      "type": "Feature",
      "geometry": {
        "type": "Point",
        "coordinates": [
          -105.58314621448517,
          39.604510258844485
        ]
      },
      "properties": {
        "record_class": "ELDER_TREE_CANDIDATE",
        "verification_status": "modeled remote-sensing candidate only",
        "source_class": "MODELED_CHMV2",
        "source_name": "WRI/Meta CHMv2",
        "source_url": "https://dataforgood-fb-data.s3.amazonaws.com/forests/v2/global/dinov3_global_chm_v2_ml3/chm/0231010213.tif",
        "source_license": "CC BY 4.0",
        "quadkey": "0231010213",
        "method_version": "earthline-elder-tree-aoi-chmv2-v0.3-local-relative",
        "screen_rank": 1,
        "screen_reference_peak_count": 710,
        "local_canopy_floor_m": 4.0,
        "raw_structural_evidence_score": 32.4263,
        "elder_tree_confidence_pct": 100,
        "confidence_pct": 100,
        "confidence_definition": "Earthline Elder Tree Confidence is a local percentile: how strongly this structure ranks against other detected tree/canopy structures in the same analyzed source tile/AOI. It is not the probability that the tree is ancient, veteran, or a mycorrhizal hub.",
        "height_m": 16.0,
        "emergent_height_m": 7.0,
        "crown_area_proxy_m2": 803.1,
        "open_context_fraction": 0.286,
        "evidence_limit": "Candidate only; modeled canopy structure is not proof of age or mycorrhizal hub status."
      }
    },
    {
      "type": "Feature",
      "geometry": {
        "type": "Point",
        "coordinates": [
          -105.6177681684494,
          39.638310648103406
        ]
      },
      "properties": {
        "record_class": "ELDER_TREE_CANDIDATE",
        "verification_status": "modeled remote-sensing candidate only",
        "source_class": "MODELED_CHMV2",
        "source_name": "WRI/Meta CHMv2",
        "source_url": "https://dataforgood-fb-data.s3.amazonaws.com/forests/v2/global/dinov3_global_chm_v2_ml3/chm/0231010213.tif",
        "source_license": "CC BY 4.0",
        "quadkey": "0231010213",
        "method_version": "earthline-elder-tree-aoi-chmv2-v0.3-local-relative",
        "screen_rank": 3,
        "screen_reference_peak_count": 710,
        "local_canopy_floor_m": 4.0,
        "raw_structural_evidence_score": 31.6348,
        "elder_tree_confidence_pct": 100,
        "confidence_pct": 100,
        "confidence_definition": "Earthline Elder Tree Confidence is a local percentile: how strongly this structure ranks against other detected tree/canopy structures in the same analyzed source tile/AOI. It is not the probability that the tree is ancient, veteran, or a mycorrhizal hub.",
        "height_m": 16.0,
        "emergent_height_m": 6.0,
        "crown_area_proxy_m2": 935.7,
        "open_context_fraction": 0.198,
        "evidence_limit": "Candidate only; modeled canopy structure is not proof of age or mycorrhizal hub status."
      }
    },
    {
      "type": "Feature",
      "geometry": {
        "type": "Point",
        "coordinates": [
          -105.55759012699126,
          39.61251971614476
        ]
      },
      "properties": {
        "record_class": "ELDER_TREE_CANDIDATE",
        "verification_status": "modeled remote-sensing candidate only",
        "source_class": "MODELED_CHMV2",
        "source_name": "WRI/Meta CHMv2",
        "source_url": "https://dataforgood-fb-data.s3.amazonaws.com/forests/v2/global/dinov3_global_chm_v2_ml3/chm/0231010213.tif",
        "source_license": "CC BY 4.0",
        "quadkey": "0231010213",
        "method_version": "earthline-elder-tree-aoi-chmv2-v0.3-local-relative",
        "screen_rank": 10,
        "screen_reference_peak_count": 710,
        "local_canopy_floor_m": 4.0,
        "raw_structural_evidence_score": 30.6801,
        "elder_tree_confidence_pct": 99,
        "confidence_pct": 99,
        "confidence_definition": "Earthline Elder Tree Confidence is a local percentile: how strongly this structure ranks against other detected tree/canopy structures in the same analyzed source tile/AOI. It is not the probability that the tree is ancient, veteran, or a mycorrhizal hub.",
        "height_m": 16.0,
        "emergent_height_m": 8.0,
        "crown_area_proxy_m2": 716.1,
        "open_context_fraction": 0.24,
        "evidence_limit": "Candidate only; modeled canopy structure is not proof of age or mycorrhizal hub status."
      }
    },
    {
      "type": "Feature",
      "geometry": {
        "type": "Point",
        "coordinates": [
          -105.5831354856491,
          39.63710436577781
        ]
      },
      "properties": {
        "record_class": "ELDER_TREE_CANDIDATE",
        "verification_status": "modeled remote-sensing candidate only",
        "source_class": "MODELED_CHMV2",
        "source_name": "WRI/Meta CHMv2",
        "source_url": "https://dataforgood-fb-data.s3.amazonaws.com/forests/v2/global/dinov3_global_chm_v2_ml3/chm/0231010213.tif",
        "source_license": "CC BY 4.0",
        "quadkey": "0231010213",
        "method_version": "earthline-elder-tree-aoi-chmv2-v0.3-local-relative",
        "screen_rank": 11,
        "screen_reference_peak_count": 710,
        "local_canopy_floor_m": 4.0,
        "raw_structural_evidence_score": 31.6237,
        "elder_tree_confidence_pct": 99,
        "confidence_pct": 99,
        "confidence_definition": "Earthline Elder Tree Confidence is a local percentile: how strongly this structure ranks against other detected tree/canopy structures in the same analyzed source tile/AOI. It is not the probability that the tree is ancient, veteran, or a mycorrhizal hub.",
        "height_m": 16.0,
        "emergent_height_m": 7.0,
        "crown_area_proxy_m2": 764.6,
        "open_context_fraction": 0.356,
        "evidence_limit": "Candidate only; modeled canopy structure is not proof of age or mycorrhizal hub status."
      }
    },
    {
      "type": "Feature",
      "geometry": {
        "type": "Point",
        "coordinates": [
          -105.62024652957918,
          39.63481567642104
        ]
      },
      "properties": {
        "record_class": "ELDER_TREE_CANDIDATE",
        "verification_status": "modeled remote-sensing candidate only",
        "source_class": "MODELED_CHMV2",
        "source_name": "WRI/Meta CHMv2",
        "source_url": "https://dataforgood-fb-data.s3.amazonaws.com/forests/v2/global/dinov3_global_chm_v2_ml3/chm/0231010213.tif",
        "source_license": "CC BY 4.0",
        "quadkey": "0231010213",
        "method_version": "earthline-elder-tree-aoi-chmv2-v0.3-local-relative",
        "screen_rank": 23,
        "screen_reference_peak_count": 710,
        "local_canopy_floor_m": 4.0,
        "raw_structural_evidence_score": 32.3847,
        "elder_tree_confidence_pct": 97,
        "confidence_pct": 97,
        "confidence_definition": "Earthline Elder Tree Confidence is a local percentile: how strongly this structure ranks against other detected tree/canopy structures in the same analyzed source tile/AOI. It is not the probability that the tree is ancient, veteran, or a mycorrhizal hub.",
        "height_m": 16.0,
        "emergent_height_m": 7.0,
        "crown_area_proxy_m2": 791.7,
        "open_context_fraction": 0.303,
        "evidence_limit": "Candidate only; modeled canopy structure is not proof of age or mycorrhizal hub status."
      }
    },
    {
      "type": "Feature",
      "geometry": {
        "type": "Point",
        "coordinates": [
          -105.6118458509445,
          39.63957474330765
        ]
      },
      "properties": {
        "record_class": "ELDER_TREE_CANDIDATE",
        "verification_status": "modeled remote-sensing candidate only",
        "source_class": "MODELED_CHMV2",
        "source_name": "WRI/Meta CHMv2",
        "source_url": "https://dataforgood-fb-data.s3.amazonaws.com/forests/v2/global/dinov3_global_chm_v2_ml3/chm/0231010211.tif",
        "source_license": "CC BY 4.0",
        "quadkey": "0231010211",
        "method_version": "earthline-elder-tree-aoi-chmv2-v0.3-local-relative",
        "screen_rank": 7,
        "screen_reference_peak_count": 1532,
        "local_canopy_floor_m": 5.0,
        "raw_structural_evidence_score": 32.3658,
        "elder_tree_confidence_pct": 100,
        "confidence_pct": 100,
        "confidence_definition": "Earthline Elder Tree Confidence is a local percentile: how strongly this structure ranks against other detected tree/canopy structures in the same analyzed source tile/AOI. It is not the probability that the tree is ancient, veteran, or a mycorrhizal hub.",
        "height_m": 15.0,
        "emergent_height_m": 12.0,
        "crown_area_proxy_m2": 649.0,
        "open_context_fraction": 0.503,
        "evidence_limit": "Candidate only; modeled canopy structure is not proof of age or mycorrhizal hub status."
      }
    },
    {
      "type": "Feature",
      "geometry": {
        "type": "Point",
        "coordinates": [
          -105.61695277690886,
          39.64399476384869
        ]
      },
      "properties": {
        "record_class": "ELDER_TREE_CANDIDATE",
        "verification_status": "modeled remote-sensing candidate only",
        "source_class": "MODELED_CHMV2",
        "source_name": "WRI/Meta CHMv2",
        "source_url": "https://dataforgood-fb-data.s3.amazonaws.com/forests/v2/global/dinov3_global_chm_v2_ml3/chm/0231010211.tif",
        "source_license": "CC BY 4.0",
        "quadkey": "0231010211",
        "method_version": "earthline-elder-tree-aoi-chmv2-v0.3-local-relative",
        "screen_rank": 11,
        "screen_reference_peak_count": 1532,
        "local_canopy_floor_m": 5.0,
        "raw_structural_evidence_score": 31.0418,
        "elder_tree_confidence_pct": 99,
        "confidence_pct": 99,
        "confidence_definition": "Earthline Elder Tree Confidence is a local percentile: how strongly this structure ranks against other detected tree/canopy structures in the same analyzed source tile/AOI. It is not the probability that the tree is ancient, veteran, or a mycorrhizal hub.",
        "height_m": 15.0,
        "emergent_height_m": 7.0,
        "crown_area_proxy_m2": 848.7,
        "open_context_fraction": 0.152,
        "evidence_limit": "Candidate only; modeled canopy structure is not proof of age or mycorrhizal hub status."
      }
    },
    {
      "type": "Feature",
      "geometry": {
        "type": "Point",
        "coordinates": [
          -105.62704861164093,
          39.64115276437386
        ]
      },
      "properties": {
        "record_class": "ELDER_TREE_CANDIDATE",
        "verification_status": "modeled remote-sensing candidate only",
        "source_class": "MODELED_CHMV2",
        "source_name": "WRI/Meta CHMv2",
        "source_url": "https://dataforgood-fb-data.s3.amazonaws.com/forests/v2/global/dinov3_global_chm_v2_ml3/chm/0231010211.tif",
        "source_license": "CC BY 4.0",
        "quadkey": "0231010211",
        "method_version": "earthline-elder-tree-aoi-chmv2-v0.3-local-relative",
        "screen_rank": 12,
        "screen_reference_peak_count": 1532,
        "local_canopy_floor_m": 5.0,
        "raw_structural_evidence_score": 31.3835,
        "elder_tree_confidence_pct": 99,
        "confidence_pct": 99,
        "confidence_definition": "Earthline Elder Tree Confidence is a local percentile: how strongly this structure ranks against other detected tree/canopy structures in the same analyzed source tile/AOI. It is not the probability that the tree is ancient, veteran, or a mycorrhizal hub.",
        "height_m": 15.0,
        "emergent_height_m": 6.0,
        "crown_area_proxy_m2": 803.1,
        "open_context_fraction": 0.272,
        "evidence_limit": "Candidate only; modeled canopy structure is not proof of age or mycorrhizal hub status."
      }
    },
    {
      "type": "Feature",
      "geometry": {
        "type": "Point",
        "coordinates": [
          -105.55178582668306,
          39.617627431013574
        ]
      },
      "properties": {
        "record_class": "ELDER_TREE_CANDIDATE",
        "verification_status": "modeled remote-sensing candidate only",
        "source_class": "MODELED_CHMV2",
        "source_name": "WRI/Meta CHMv2",
        "source_url": "https://dataforgood-fb-data.s3.amazonaws.com/forests/v2/global/dinov3_global_chm_v2_ml3/chm/0231010213.tif",
        "source_license": "CC BY 4.0",
        "quadkey": "0231010213",
        "method_version": "earthline-elder-tree-aoi-chmv2-v0.3-local-relative",
        "screen_rank": 13,
        "screen_reference_peak_count": 710,
        "local_canopy_floor_m": 4.0,
        "raw_structural_evidence_score": 30.7303,
        "elder_tree_confidence_pct": 98,
        "confidence_pct": 98,
        "confidence_definition": "Earthline Elder Tree Confidence is a local percentile: how strongly this structure ranks against other detected tree/canopy structures in the same analyzed source tile/AOI. It is not the probability that the tree is ancient, veteran, or a mycorrhizal hub.",
        "height_m": 15.0,
        "emergent_height_m": 6.0,
        "crown_area_proxy_m2": 837.3,
        "open_context_fraction": 0.129,
        "evidence_limit": "Candidate only; modeled canopy structure is not proof of age or mycorrhizal hub status."
      }
    },
    {
      "type": "Feature",
      "geometry": {
        "type": "Point",
        "coordinates": [
          -105.556463599205,
          39.612213902487866
        ]
      },
      "properties": {
        "record_class": "ELDER_TREE_CANDIDATE",
        "verification_status": "modeled remote-sensing candidate only",
        "source_class": "MODELED_CHMV2",
        "source_name": "WRI/Meta CHMv2",
        "source_url": "https://dataforgood-fb-data.s3.amazonaws.com/forests/v2/global/dinov3_global_chm_v2_ml3/chm/0231010213.tif",
        "source_license": "CC BY 4.0",
        "quadkey": "0231010213",
        "method_version": "earthline-elder-tree-aoi-chmv2-v0.3-local-relative",
        "screen_rank": 20,
        "screen_reference_peak_count": 710,
        "local_canopy_floor_m": 4.0,
        "raw_structural_evidence_score": 30.9364,
        "elder_tree_confidence_pct": 97,
        "confidence_pct": 97,
        "confidence_definition": "Earthline Elder Tree Confidence is a local percentile: how strongly this structure ranks against other detected tree/canopy structures in the same analyzed source tile/AOI. It is not the probability that the tree is ancient, veteran, or a mycorrhizal hub.",
        "height_m": 15.0,
        "emergent_height_m": 5.0,
        "crown_area_proxy_m2": 890.1,
        "open_context_fraction": 0.296,
        "evidence_limit": "Candidate only; modeled canopy structure is not proof of age or mycorrhizal hub status."
      }
    },
    {
      "type": "Feature",
      "geometry": {
        "type": "Point",
        "coordinates": [
          -105.6231540441513,
          39.631874144962204
        ]
      },
      "properties": {
        "record_class": "ELDER_TREE_CANDIDATE",
        "verification_status": "modeled remote-sensing candidate only",
        "source_class": "MODELED_CHMV2",
        "source_name": "WRI/Meta CHMv2",
        "source_url": "https://dataforgood-fb-data.s3.amazonaws.com/forests/v2/global/dinov3_global_chm_v2_ml3/chm/0231010213.tif",
        "source_license": "CC BY 4.0",
        "quadkey": "0231010213",
        "method_version": "earthline-elder-tree-aoi-chmv2-v0.3-local-relative",
        "screen_rank": 22,
        "screen_reference_peak_count": 710,
        "local_canopy_floor_m": 4.0,
        "raw_structural_evidence_score": 29.8839,
        "elder_tree_confidence_pct": 97,
        "confidence_pct": 97,
        "confidence_definition": "Earthline Elder Tree Confidence is a local percentile: how strongly this structure ranks against other detected tree/canopy structures in the same analyzed source tile/AOI. It is not the probability that the tree is ancient, veteran, or a mycorrhizal hub.",
        "height_m": 13.0,
        "emergent_height_m": 5.0,
        "crown_area_proxy_m2": 794.5,
        "open_context_fraction": 0.37,
        "evidence_limit": "Candidate only; modeled canopy structure is not proof of age or mycorrhizal hub status."
      }
    },
    {
      "type": "Feature",
      "geometry": {
        "type": "Point",
        "coordinates": [
          -105.60573041439056,
          39.67686754337112
        ]
      },
      "properties": {
        "record_class": "ELDER_TREE_CANDIDATE",
        "verification_status": "modeled remote-sensing candidate only",
        "source_class": "MODELED_CHMV2",
        "source_name": "WRI/Meta CHMv2",
        "source_url": "https://dataforgood-fb-data.s3.amazonaws.com/forests/v2/global/dinov3_global_chm_v2_ml3/chm/0231010211.tif",
        "source_license": "CC BY 4.0",
        "quadkey": "0231010211",
        "method_version": "earthline-elder-tree-aoi-chmv2-v0.3-local-relative",
        "screen_rank": 5,
        "screen_reference_peak_count": 1532,
        "local_canopy_floor_m": 5.0,
        "raw_structural_evidence_score": 27.9727,
        "elder_tree_confidence_pct": 100,
        "confidence_pct": 100,
        "confidence_definition": "Earthline Elder Tree Confidence is a local percentile: how strongly this structure ranks against other detected tree/canopy structures in the same analyzed source tile/AOI. It is not the probability that the tree is ancient, veteran, or a mycorrhizal hub.",
        "height_m": 12.0,
        "emergent_height_m": 3.0,
        "crown_area_proxy_m2": 1007.1,
        "open_context_fraction": 0.24,
        "evidence_limit": "Candidate only; modeled canopy structure is not proof of age or mycorrhizal hub status."
      }
    }
  ]
}