{
  "type": "FeatureCollection",
  "features": [
    {
      "type": "Feature",
      "geometry": {
        "type": "Point",
        "coordinates": [
          101.40196859836577,
          14.385524175453826
        ]
      },
      "properties": {
        "record_class": "ELDER_TREE_CANDIDATE",
        "verification_status": "modeled remote-sensing candidate only",
        "source_class": "MODELED_CHMV2",
        "source_name": "WRI/Meta CHMv2",
        "source_url": "https://dataforgood-fb-data.s3.amazonaws.com/forests/v2/global/dinov3_global_chm_v2_ml3/chm/1322120220.tif",
        "source_license": "CC BY 4.0",
        "quadkey": "1322120220",
        "method_version": "earthline-elder-tree-aoi-chmv2-v0.1",
        "screen_rank": 2,
        "raw_structural_evidence_score": 63.3811,
        "confidence_pct": 95,
        "confidence_definition": "Earthline relative structural-evidence confidence within the analyzed candidate set; modeled candidates are capped at 95 and the value is not a probability of tree age or ancient/veteran status.",
        "height_m": 59.0,
        "emergent_height_m": 26.0,
        "crown_area_proxy_m2": 834.5,
        "open_context_fraction": 0.0,
        "evidence_limit": "Candidate only; modeled canopy structure is not proof of age or mycorrhizal hub status."
      }
    },
    {
      "type": "Feature",
      "geometry": {
        "type": "Point",
        "coordinates": [
          101.38486683368683,
          14.369508845813241
        ]
      },
      "properties": {
        "record_class": "ELDER_TREE_CANDIDATE",
        "verification_status": "modeled remote-sensing candidate only",
        "source_class": "MODELED_CHMV2",
        "source_name": "WRI/Meta CHMv2",
        "source_url": "https://dataforgood-fb-data.s3.amazonaws.com/forests/v2/global/dinov3_global_chm_v2_ml3/chm/1322120220.tif",
        "source_license": "CC BY 4.0",
        "quadkey": "1322120220",
        "method_version": "earthline-elder-tree-aoi-chmv2-v0.1",
        "screen_rank": 1,
        "raw_structural_evidence_score": 57.4731,
        "confidence_pct": 92,
        "confidence_definition": "Earthline relative structural-evidence confidence within the analyzed candidate set; modeled candidates are capped at 95 and the value is not a probability of tree age or ancient/veteran status.",
        "height_m": 58.0,
        "emergent_height_m": 18.0,
        "crown_area_proxy_m2": 803.1,
        "open_context_fraction": 0.0,
        "evidence_limit": "Candidate only; modeled canopy structure is not proof of age or mycorrhizal hub status."
      }
    },
    {
      "type": "Feature",
      "geometry": {
        "type": "Point",
        "coordinates": [
          101.39214098453522,
          14.377022994761884
        ]
      },
      "properties": {
        "record_class": "ELDER_TREE_CANDIDATE",
        "verification_status": "modeled remote-sensing candidate only",
        "source_class": "MODELED_CHMV2",
        "source_name": "WRI/Meta CHMv2",
        "source_url": "https://dataforgood-fb-data.s3.amazonaws.com/forests/v2/global/dinov3_global_chm_v2_ml3/chm/1322120220.tif",
        "source_license": "CC BY 4.0",
        "quadkey": "1322120220",
        "method_version": "earthline-elder-tree-aoi-chmv2-v0.1",
        "screen_rank": 3,
        "raw_structural_evidence_score": 51.138,
        "confidence_pct": 75,
        "confidence_definition": "Earthline relative structural-evidence confidence within the analyzed candidate set; modeled candidates are capped at 95 and the value is not a probability of tree age or ancient/veteran status.",
        "height_m": 55.0,
        "emergent_height_m": 11.0,
        "crown_area_proxy_m2": 1172.5,
        "open_context_fraction": 0.0,
        "evidence_limit": "Candidate only; modeled canopy structure is not proof of age or mycorrhizal hub status."
      }
    },
    {
      "type": "Feature",
      "geometry": {
        "type": "Point",
        "coordinates": [
          101.39083206653594,
          14.368885253640597
        ]
      },
      "properties": {
        "record_class": "ELDER_TREE_CANDIDATE",
        "verification_status": "modeled remote-sensing candidate only",
        "source_class": "MODELED_CHMV2",
        "source_name": "WRI/Meta CHMv2",
        "source_url": "https://dataforgood-fb-data.s3.amazonaws.com/forests/v2/global/dinov3_global_chm_v2_ml3/chm/1322120220.tif",
        "source_license": "CC BY 4.0",
        "quadkey": "1322120220",
        "method_version": "earthline-elder-tree-aoi-chmv2-v0.1",
        "screen_rank": 7,
        "raw_structural_evidence_score": 56.9764,
        "confidence_pct": 86,
        "confidence_definition": "Earthline relative structural-evidence confidence within the analyzed candidate set; modeled candidates are capped at 95 and the value is not a probability of tree age or ancient/veteran status.",
        "height_m": 52.0,
        "emergent_height_m": 21.0,
        "crown_area_proxy_m2": 855.9,
        "open_context_fraction": 0.0,
        "evidence_limit": "Candidate only; modeled canopy structure is not proof of age or mycorrhizal hub status."
      }
    },
    {
      "type": "Feature",
      "geometry": {
        "type": "Point",
        "coordinates": [
          101.43792092800138,
          14.393391116801888
        ]
      },
      "properties": {
        "record_class": "ELDER_TREE_CANDIDATE",
        "verification_status": "modeled remote-sensing candidate only",
        "source_class": "MODELED_CHMV2",
        "source_name": "WRI/Meta CHMv2",
        "source_url": "https://dataforgood-fb-data.s3.amazonaws.com/forests/v2/global/dinov3_global_chm_v2_ml3/chm/1322120220.tif",
        "source_license": "CC BY 4.0",
        "quadkey": "1322120220",
        "method_version": "earthline-elder-tree-aoi-chmv2-v0.1",
        "screen_rank": 4,
        "raw_structural_evidence_score": 51.9118,
        "confidence_pct": 78,
        "confidence_definition": "Earthline relative structural-evidence confidence within the analyzed candidate set; modeled candidates are capped at 95 and the value is not a probability of tree age or ancient/veteran status.",
        "height_m": 50.0,
        "emergent_height_m": 15.0,
        "crown_area_proxy_m2": 908.6,
        "open_context_fraction": 0.0,
        "evidence_limit": "Candidate only; modeled canopy structure is not proof of age or mycorrhizal hub status."
      }
    },
    {
      "type": "Feature",
      "geometry": {
        "type": "Point",
        "coordinates": [
          101.38500630855559,
          14.372107127816049
        ]
      },
      "properties": {
        "record_class": "ELDER_TREE_CANDIDATE",
        "verification_status": "modeled remote-sensing candidate only",
        "source_class": "MODELED_CHMV2",
        "source_name": "WRI/Meta CHMv2",
        "source_url": "https://dataforgood-fb-data.s3.amazonaws.com/forests/v2/global/dinov3_global_chm_v2_ml3/chm/1322120220.tif",
        "source_license": "CC BY 4.0",
        "quadkey": "1322120220",
        "method_version": "earthline-elder-tree-aoi-chmv2-v0.1",
        "screen_rank": 5,
        "raw_structural_evidence_score": 57.4413,
        "confidence_pct": 89,
        "confidence_definition": "Earthline relative structural-evidence confidence within the analyzed candidate set; modeled candidates are capped at 95 and the value is not a probability of tree age or ancient/veteran status.",
        "height_m": 50.0,
        "emergent_height_m": 28.0,
        "crown_area_proxy_m2": 674.7,
        "open_context_fraction": 0.0,
        "evidence_limit": "Candidate only; modeled canopy structure is not proof of age or mycorrhizal hub status."
      }
    },
    {
      "type": "Feature",
      "geometry": {
        "type": "Point",
        "coordinates": [
          101.38430893421173,
          14.310394982868473
        ]
      },
      "properties": {
        "record_class": "ELDER_TREE_CANDIDATE",
        "verification_status": "modeled remote-sensing candidate only",
        "source_class": "MODELED_CHMV2",
        "source_name": "WRI/Meta CHMv2",
        "source_url": "https://dataforgood-fb-data.s3.amazonaws.com/forests/v2/global/dinov3_global_chm_v2_ml3/chm/1322120220.tif",
        "source_license": "CC BY 4.0",
        "quadkey": "1322120220",
        "method_version": "earthline-elder-tree-aoi-chmv2-v0.1",
        "screen_rank": 6,
        "raw_structural_evidence_score": 55.2541,
        "confidence_pct": 83,
        "confidence_definition": "Earthline relative structural-evidence confidence within the analyzed candidate set; modeled candidates are capped at 95 and the value is not a probability of tree age or ancient/veteran status.",
        "height_m": 50.0,
        "emergent_height_m": 22.0,
        "crown_area_proxy_m2": 756.0,
        "open_context_fraction": 0.0,
        "evidence_limit": "Candidate only; modeled canopy structure is not proof of age or mycorrhizal hub status."
      }
    },
    {
      "type": "Feature",
      "geometry": {
        "type": "Point",
        "coordinates": [
          101.38340771198271,
          14.370953494333131
        ]
      },
      "properties": {
        "record_class": "ELDER_TREE_CANDIDATE",
        "verification_status": "modeled remote-sensing candidate only",
        "source_class": "MODELED_CHMV2",
        "source_name": "WRI/Meta CHMv2",
        "source_url": "https://dataforgood-fb-data.s3.amazonaws.com/forests/v2/global/dinov3_global_chm_v2_ml3/chm/1322120220.tif",
        "source_license": "CC BY 4.0",
        "quadkey": "1322120220",
        "method_version": "earthline-elder-tree-aoi-chmv2-v0.1",
        "screen_rank": 9,
        "raw_structural_evidence_score": 54.0869,
        "confidence_pct": 80,
        "confidence_definition": "Earthline relative structural-evidence confidence within the analyzed candidate set; modeled candidates are capped at 95 and the value is not a probability of tree age or ancient/veteran status.",
        "height_m": 50.0,
        "emergent_height_m": 18.0,
        "crown_area_proxy_m2": 1088.4,
        "open_context_fraction": 0.0,
        "evidence_limit": "Candidate only; modeled canopy structure is not proof of age or mycorrhizal hub status."
      }
    },
    {
      "type": "Feature",
      "geometry": {
        "type": "Point",
        "coordinates": [
          101.3877099752426,
          14.367554917861296
        ]
      },
      "properties": {
        "record_class": "ELDER_TREE_CANDIDATE",
        "verification_status": "modeled remote-sensing candidate only",
        "source_class": "MODELED_CHMV2",
        "source_name": "WRI/Meta CHMv2",
        "source_url": "https://dataforgood-fb-data.s3.amazonaws.com/forests/v2/global/dinov3_global_chm_v2_ml3/chm/1322120220.tif",
        "source_license": "CC BY 4.0",
        "quadkey": "1322120220",
        "method_version": "earthline-elder-tree-aoi-chmv2-v0.1",
        "screen_rank": 8,
        "raw_structural_evidence_score": 47.5017,
        "confidence_pct": 72,
        "confidence_definition": "Earthline relative structural-evidence confidence within the analyzed candidate set; modeled candidates are capped at 95 and the value is not a probability of tree age or ancient/veteran status.",
        "height_m": 44.0,
        "emergent_height_m": 12.0,
        "crown_area_proxy_m2": 1142.6,
        "open_context_fraction": 0.0,
        "evidence_limit": "Candidate only; modeled canopy structure is not proof of age or mycorrhizal hub status."
      }
    },
    {
      "type": "Feature",
      "geometry": {
        "type": "Point",
        "coordinates": [
          101.3900703191757,
          14.373385471480423
        ]
      },
      "properties": {
        "record_class": "ELDER_TREE_CANDIDATE",
        "verification_status": "modeled remote-sensing candidate only",
        "source_class": "MODELED_CHMV2",
        "source_name": "WRI/Meta CHMv2",
        "source_url": "https://dataforgood-fb-data.s3.amazonaws.com/forests/v2/global/dinov3_global_chm_v2_ml3/chm/1322120220.tif",
        "source_license": "CC BY 4.0",
        "quadkey": "1322120220",
        "method_version": "earthline-elder-tree-aoi-chmv2-v0.1",
        "screen_rank": 10,
        "raw_structural_evidence_score": 43.1638,
        "confidence_pct": 66,
        "confidence_definition": "Earthline relative structural-evidence confidence within the analyzed candidate set; modeled candidates are capped at 95 and the value is not a probability of tree age or ancient/veteran status.",
        "height_m": 43.0,
        "emergent_height_m": 7.0,
        "crown_area_proxy_m2": 1211.0,
        "open_context_fraction": 0.0,
        "evidence_limit": "Candidate only; modeled canopy structure is not proof of age or mycorrhizal hub status."
      }
    },
    {
      "type": "Feature",
      "geometry": {
        "type": "Point",
        "coordinates": [
          101.47534310817717,
          14.385243579297022
        ]
      },
      "properties": {
        "record_class": "ELDER_TREE_CANDIDATE",
        "verification_status": "modeled remote-sensing candidate only",
        "source_class": "MODELED_CHMV2",
        "source_name": "WRI/Meta CHMv2",
        "source_url": "https://dataforgood-fb-data.s3.amazonaws.com/forests/v2/global/dinov3_global_chm_v2_ml3/chm/1322120220.tif",
        "source_license": "CC BY 4.0",
        "quadkey": "1322120220",
        "method_version": "earthline-elder-tree-aoi-chmv2-v0.1",
        "screen_rank": 12,
        "raw_structural_evidence_score": 42.2021,
        "confidence_pct": 63,
        "confidence_definition": "Earthline relative structural-evidence confidence within the analyzed candidate set; modeled candidates are capped at 95 and the value is not a probability of tree age or ancient/veteran status.",
        "height_m": 40.0,
        "emergent_height_m": 8.5,
        "crown_area_proxy_m2": 797.4,
        "open_context_fraction": 0.0,
        "evidence_limit": "Candidate only; modeled canopy structure is not proof of age or mycorrhizal hub status."
      }
    },
    {
      "type": "Feature",
      "geometry": {
        "type": "Point",
        "coordinates": [
          101.3972908258438,
          14.388049525003774
        ]
      },
      "properties": {
        "record_class": "ELDER_TREE_CANDIDATE",
        "verification_status": "modeled remote-sensing candidate only",
        "source_class": "MODELED_CHMV2",
        "source_name": "WRI/Meta CHMv2",
        "source_url": "https://dataforgood-fb-data.s3.amazonaws.com/forests/v2/global/dinov3_global_chm_v2_ml3/chm/1322120220.tif",
        "source_license": "CC BY 4.0",
        "quadkey": "1322120220",
        "method_version": "earthline-elder-tree-aoi-chmv2-v0.1",
        "screen_rank": 11,
        "raw_structural_evidence_score": 43.2245,
        "confidence_pct": 69,
        "confidence_definition": "Earthline relative structural-evidence confidence within the analyzed candidate set; modeled candidates are capped at 95 and the value is not a probability of tree age or ancient/veteran status.",
        "height_m": 39.0,
        "emergent_height_m": 11.0,
        "crown_area_proxy_m2": 791.7,
        "open_context_fraction": 0.0,
        "evidence_limit": "Candidate only; modeled canopy structure is not proof of age or mycorrhizal hub status."
      }
    }
  ]
}