{
  "type": "FeatureCollection",
  "features": [
    {
      "type": "Feature",
      "geometry": {
        "type": "Point",
        "coordinates": [
          -73.20924818515778,
          44.50332740834088
        ]
      },
      "properties": {
        "record_class": "LIDAR_CONFIRMED_ELDER_TREE_CANDIDATE",
        "verification_status": "measured LiDAR structural candidate",
        "source_class": "LIDAR",
        "source_name": "WRI/Meta CHMv2 candidate + USGS 3DEP 2023 QL1 confirmation",
        "source_url": "https://dataforgood-fb-data.s3.amazonaws.com/forests/v2/global/dinov3_global_chm_v2_ml3/chm/0302321131.tif",
        "source_license": "CC BY 4.0",
        "quadkey": "0302321131",
        "method_version": "earthline-elder-tree-aoi-chmv2-v0.4-local-evidence-index",
        "screen_rank": 2,
        "screen_reference_peak_count": 1158,
        "local_canopy_floor_m": 4,
        "raw_structural_evidence_score": 40.5301,
        "elder_tree_confidence_pct": 94,
        "confidence_pct": 94,
        "confidence_definition": "Earthline Elder Tree Confidence is a local relative structural-evidence index built from height rank, local prominence rank, and open-grown context in the analyzed area. It is not the probability that the tree is ancient, veteran, or a mycorrhizal hub.",
        "height_m": 29.76,
        "emergent_height_m": 11,
        "crown_area_proxy_m2": 787.4,
        "open_context_fraction": 0.236,
        "evidence_limit": "LiDAR confirms canopy structure at this GPS candidate; it does not verify tree age, ancient/veteran status, or mycorrhizal-hub status.",
        "lidar_source_name": "USGS 3DEP public EPT",
        "lidar_source_url": "https://usgs-lidar-public.s3.us-west-2.amazonaws.com/VT_Statewide_1_A23/ept.json",
        "lidar_source_ql": "QL 1",
        "lidar_source_workunit": "VT_Statewide_1_A23",
        "lidar_collect_start": 1679529600000,
        "lidar_collect_end": 1683676800000,
        "lidar_point_count_within_8m": 1527,
        "lidar_canopy_evidence_points_within_8m": 699,
        "lidar_measured_local_canopy_height_m": 29.76,
        "lidar_method_version": "earthline-usgs-3dep-elder-refinement-v0.2-exact-workunit",
        "lidar_evidence_limit": "Measured LiDAR confirmation requires usable canopy returns within 8 m of the candidate GPS point, using the surrounding 20 m for ground reference. It confirms structure only, not tree age, ancient/veteran status, or mycorrhizal-hub status.",
        "modeled_source_name": "WRI/Meta CHMv2",
        "modeled_source_url": "https://dataforgood-fb-data.s3.amazonaws.com/forests/v2/global/dinov3_global_chm_v2_ml3/chm/0302321131.tif",
        "modeled_height_m": 29,
        "height_source": "USGS 3DEP 2023 QL1 measured local canopy"
      }
    },
    {
      "type": "Feature",
      "geometry": {
        "type": "Point",
        "coordinates": [
          -73.20689857006074,
          44.495789789361815
        ]
      },
      "properties": {
        "record_class": "LIDAR_CONFIRMED_ELDER_TREE_CANDIDATE",
        "verification_status": "measured LiDAR structural candidate",
        "source_class": "LIDAR",
        "source_name": "WRI/Meta CHMv2 candidate + USGS 3DEP 2023 QL1 confirmation",
        "source_url": "https://dataforgood-fb-data.s3.amazonaws.com/forests/v2/global/dinov3_global_chm_v2_ml3/chm/0302321131.tif",
        "source_license": "CC BY 4.0",
        "quadkey": "0302321131",
        "method_version": "earthline-elder-tree-aoi-chmv2-v0.4-local-evidence-index",
        "screen_rank": 12,
        "screen_reference_peak_count": 1158,
        "local_canopy_floor_m": 4,
        "raw_structural_evidence_score": 36.7052,
        "elder_tree_confidence_pct": 92,
        "confidence_pct": 92,
        "confidence_definition": "Earthline Elder Tree Confidence is a local relative structural-evidence index built from height rank, local prominence rank, and open-grown context in the analyzed area. It is not the probability that the tree is ancient, veteran, or a mycorrhizal hub.",
        "height_m": 30.18,
        "emergent_height_m": 5,
        "crown_area_proxy_m2": 908.6,
        "open_context_fraction": 0.274,
        "evidence_limit": "LiDAR confirms canopy structure at this GPS candidate; it does not verify tree age, ancient/veteran status, or mycorrhizal-hub status.",
        "lidar_source_name": "USGS 3DEP public EPT",
        "lidar_source_url": "https://usgs-lidar-public.s3.us-west-2.amazonaws.com/VT_Statewide_1_A23/ept.json",
        "lidar_source_ql": "QL 1",
        "lidar_source_workunit": "VT_Statewide_1_A23",
        "lidar_collect_start": 1679529600000,
        "lidar_collect_end": 1683676800000,
        "lidar_point_count_within_8m": 1555,
        "lidar_canopy_evidence_points_within_8m": 579,
        "lidar_measured_local_canopy_height_m": 30.18,
        "lidar_method_version": "earthline-usgs-3dep-elder-refinement-v0.2-exact-workunit",
        "lidar_evidence_limit": "Measured LiDAR confirmation requires usable canopy returns within 8 m of the candidate GPS point, using the surrounding 20 m for ground reference. It confirms structure only, not tree age, ancient/veteran status, or mycorrhizal-hub status.",
        "modeled_source_name": "WRI/Meta CHMv2",
        "modeled_source_url": "https://dataforgood-fb-data.s3.amazonaws.com/forests/v2/global/dinov3_global_chm_v2_ml3/chm/0302321131.tif",
        "modeled_height_m": 29,
        "height_source": "USGS 3DEP 2023 QL1 measured local canopy"
      }
    },
    {
      "type": "Feature",
      "geometry": {
        "type": "Point",
        "coordinates": [
          -73.20929110050201,
          44.49986098987354
        ]
      },
      "properties": {
        "record_class": "LIDAR_CONFIRMED_ELDER_TREE_CANDIDATE",
        "verification_status": "measured LiDAR structural candidate",
        "source_class": "LIDAR",
        "source_name": "WRI/Meta CHMv2 candidate + USGS 3DEP 2023 QL1 confirmation",
        "source_url": "https://dataforgood-fb-data.s3.amazonaws.com/forests/v2/global/dinov3_global_chm_v2_ml3/chm/0302321131.tif",
        "source_license": "CC BY 4.0",
        "quadkey": "0302321131",
        "method_version": "earthline-elder-tree-aoi-chmv2-v0.4-local-evidence-index",
        "screen_rank": 6,
        "screen_reference_peak_count": 1158,
        "local_canopy_floor_m": 4,
        "raw_structural_evidence_score": 36.3841,
        "elder_tree_confidence_pct": 93,
        "confidence_pct": 93,
        "confidence_definition": "Earthline Elder Tree Confidence is a local relative structural-evidence index built from height rank, local prominence rank, and open-grown context in the analyzed area. It is not the probability that the tree is ancient, veteran, or a mycorrhizal hub.",
        "height_m": 29.59,
        "emergent_height_m": 6,
        "crown_area_proxy_m2": 1138.3,
        "open_context_fraction": 0.114,
        "evidence_limit": "LiDAR confirms canopy structure at this GPS candidate; it does not verify tree age, ancient/veteran status, or mycorrhizal-hub status.",
        "lidar_source_name": "USGS 3DEP public EPT",
        "lidar_source_url": "https://usgs-lidar-public.s3.us-west-2.amazonaws.com/VT_Statewide_1_A23/ept.json",
        "lidar_source_ql": "QL 1",
        "lidar_source_workunit": "VT_Statewide_1_A23",
        "lidar_collect_start": 1679529600000,
        "lidar_collect_end": 1683676800000,
        "lidar_point_count_within_8m": 1531,
        "lidar_canopy_evidence_points_within_8m": 810,
        "lidar_measured_local_canopy_height_m": 29.59,
        "lidar_method_version": "earthline-usgs-3dep-elder-refinement-v0.2-exact-workunit",
        "lidar_evidence_limit": "Measured LiDAR confirmation requires usable canopy returns within 8 m of the candidate GPS point, using the surrounding 20 m for ground reference. It confirms structure only, not tree age, ancient/veteran status, or mycorrhizal-hub status.",
        "modeled_source_name": "WRI/Meta CHMv2",
        "modeled_source_url": "https://dataforgood-fb-data.s3.amazonaws.com/forests/v2/global/dinov3_global_chm_v2_ml3/chm/0302321131.tif",
        "modeled_height_m": 28,
        "height_source": "USGS 3DEP 2023 QL1 measured local canopy"
      }
    },
    {
      "type": "Feature",
      "geometry": {
        "type": "Point",
        "coordinates": [
          -73.21961224079132,
          44.46938896465844
        ]
      },
      "properties": {
        "record_class": "LIDAR_CONFIRMED_ELDER_TREE_CANDIDATE",
        "verification_status": "measured LiDAR structural candidate",
        "source_class": "LIDAR",
        "source_name": "WRI/Meta CHMv2 candidate + USGS 3DEP 2023 QL1 confirmation",
        "source_url": "https://dataforgood-fb-data.s3.amazonaws.com/forests/v2/global/dinov3_global_chm_v2_ml3/chm/0302321131.tif",
        "source_license": "CC BY 4.0",
        "quadkey": "0302321131",
        "method_version": "earthline-elder-tree-aoi-chmv2-v0.4-local-evidence-index",
        "screen_rank": 8,
        "screen_reference_peak_count": 1158,
        "local_canopy_floor_m": 4,
        "raw_structural_evidence_score": 38.5258,
        "elder_tree_confidence_pct": 93,
        "confidence_pct": 93,
        "confidence_definition": "Earthline Elder Tree Confidence is a local relative structural-evidence index built from height rank, local prominence rank, and open-grown context in the analyzed area. It is not the probability that the tree is ancient, veteran, or a mycorrhizal hub.",
        "height_m": 24.78,
        "emergent_height_m": 8,
        "crown_area_proxy_m2": 818.8,
        "open_context_fraction": 0.337,
        "evidence_limit": "LiDAR confirms canopy structure at this GPS candidate; it does not verify tree age, ancient/veteran status, or mycorrhizal-hub status.",
        "lidar_source_name": "USGS 3DEP public EPT",
        "lidar_source_url": "https://usgs-lidar-public.s3.us-west-2.amazonaws.com/VT_Statewide_2_A23/ept.json",
        "lidar_source_ql": "QL 1",
        "lidar_source_workunit": "VT_Statewide_2_A23",
        "lidar_collect_start": 1681430400000,
        "lidar_collect_end": 1683936000000,
        "lidar_point_count_within_8m": 2834,
        "lidar_canopy_evidence_points_within_8m": 2254,
        "lidar_measured_local_canopy_height_m": 24.78,
        "lidar_method_version": "earthline-usgs-3dep-elder-refinement-v0.2-exact-workunit",
        "lidar_evidence_limit": "Measured LiDAR confirmation requires usable canopy returns within 8 m of the candidate GPS point, using the surrounding 20 m for ground reference. It confirms structure only, not tree age, ancient/veteran status, or mycorrhizal-hub status.",
        "modeled_source_name": "WRI/Meta CHMv2",
        "modeled_source_url": "https://dataforgood-fb-data.s3.amazonaws.com/forests/v2/global/dinov3_global_chm_v2_ml3/chm/0302321131.tif",
        "modeled_height_m": 27,
        "height_source": "USGS 3DEP 2023 QL1 measured local canopy"
      }
    },
    {
      "type": "Feature",
      "geometry": {
        "type": "Point",
        "coordinates": [
          -73.19840133190155,
          44.48989675885477
        ]
      },
      "properties": {
        "record_class": "LIDAR_CONFIRMED_ELDER_TREE_CANDIDATE",
        "verification_status": "measured LiDAR structural candidate",
        "source_class": "LIDAR",
        "source_name": "WRI/Meta CHMv2 candidate + USGS 3DEP 2023 QL1 confirmation",
        "source_url": "https://dataforgood-fb-data.s3.amazonaws.com/forests/v2/global/dinov3_global_chm_v2_ml3/chm/0302321131.tif",
        "source_license": "CC BY 4.0",
        "quadkey": "0302321131",
        "method_version": "earthline-elder-tree-aoi-chmv2-v0.4-local-evidence-index",
        "screen_rank": 9,
        "screen_reference_peak_count": 1158,
        "local_canopy_floor_m": 4,
        "raw_structural_evidence_score": 35.3851,
        "elder_tree_confidence_pct": 93,
        "confidence_pct": 93,
        "confidence_definition": "Earthline Elder Tree Confidence is a local relative structural-evidence index built from height rank, local prominence rank, and open-grown context in the analyzed area. It is not the probability that the tree is ancient, veteran, or a mycorrhizal hub.",
        "height_m": 32.65,
        "emergent_height_m": 5,
        "crown_area_proxy_m2": 1131.2,
        "open_context_fraction": 0.102,
        "evidence_limit": "LiDAR confirms canopy structure at this GPS candidate; it does not verify tree age, ancient/veteran status, or mycorrhizal-hub status.",
        "lidar_source_name": "USGS 3DEP public EPT",
        "lidar_source_url": "https://usgs-lidar-public.s3.us-west-2.amazonaws.com/VT_Statewide_1_A23/ept.json",
        "lidar_source_ql": "QL 1",
        "lidar_source_workunit": "VT_Statewide_1_A23",
        "lidar_collect_start": 1679529600000,
        "lidar_collect_end": 1683676800000,
        "lidar_point_count_within_8m": 2075,
        "lidar_canopy_evidence_points_within_8m": 1458,
        "lidar_measured_local_canopy_height_m": 32.65,
        "lidar_method_version": "earthline-usgs-3dep-elder-refinement-v0.2-exact-workunit",
        "lidar_evidence_limit": "Measured LiDAR confirmation requires usable canopy returns within 8 m of the candidate GPS point, using the surrounding 20 m for ground reference. It confirms structure only, not tree age, ancient/veteran status, or mycorrhizal-hub status.",
        "modeled_source_name": "WRI/Meta CHMv2",
        "modeled_source_url": "https://dataforgood-fb-data.s3.amazonaws.com/forests/v2/global/dinov3_global_chm_v2_ml3/chm/0302321131.tif",
        "modeled_height_m": 27,
        "height_source": "USGS 3DEP 2023 QL1 measured local canopy"
      }
    },
    {
      "type": "Feature",
      "geometry": {
        "type": "Point",
        "coordinates": [
          -73.21147978305817,
          44.47416634005954
        ]
      },
      "properties": {
        "record_class": "LIDAR_CONFIRMED_ELDER_TREE_CANDIDATE",
        "verification_status": "measured LiDAR structural candidate",
        "source_class": "LIDAR",
        "source_name": "WRI/Meta CHMv2 candidate + USGS 3DEP 2023 QL1 confirmation",
        "source_url": "https://dataforgood-fb-data.s3.amazonaws.com/forests/v2/global/dinov3_global_chm_v2_ml3/chm/0302321131.tif",
        "source_license": "CC BY 4.0",
        "quadkey": "0302321131",
        "method_version": "earthline-elder-tree-aoi-chmv2-v0.4-local-evidence-index",
        "screen_rank": 3,
        "screen_reference_peak_count": 1158,
        "local_canopy_floor_m": 4,
        "raw_structural_evidence_score": 34.7514,
        "elder_tree_confidence_pct": 94,
        "confidence_pct": 94,
        "confidence_definition": "Earthline Elder Tree Confidence is a local relative structural-evidence index built from height rank, local prominence rank, and open-grown context in the analyzed area. It is not the probability that the tree is ancient, veteran, or a mycorrhizal hub.",
        "height_m": 29.01,
        "emergent_height_m": 5,
        "crown_area_proxy_m2": 1138.3,
        "open_context_fraction": 0.122,
        "evidence_limit": "LiDAR confirms canopy structure at this GPS candidate; it does not verify tree age, ancient/veteran status, or mycorrhizal-hub status.",
        "lidar_source_name": "USGS 3DEP public EPT",
        "lidar_source_url": "https://usgs-lidar-public.s3.us-west-2.amazonaws.com/VT_Statewide_2_A23/ept.json",
        "lidar_source_ql": "QL 1",
        "lidar_source_workunit": "VT_Statewide_2_A23",
        "lidar_collect_start": 1681430400000,
        "lidar_collect_end": 1683936000000,
        "lidar_point_count_within_8m": 1627,
        "lidar_canopy_evidence_points_within_8m": 1077,
        "lidar_measured_local_canopy_height_m": 29.01,
        "lidar_method_version": "earthline-usgs-3dep-elder-refinement-v0.2-exact-workunit",
        "lidar_evidence_limit": "Measured LiDAR confirmation requires usable canopy returns within 8 m of the candidate GPS point, using the surrounding 20 m for ground reference. It confirms structure only, not tree age, ancient/veteran status, or mycorrhizal-hub status.",
        "modeled_source_name": "WRI/Meta CHMv2",
        "modeled_source_url": "https://dataforgood-fb-data.s3.amazonaws.com/forests/v2/global/dinov3_global_chm_v2_ml3/chm/0302321131.tif",
        "modeled_height_m": 26,
        "height_source": "USGS 3DEP 2023 QL1 measured local canopy"
      }
    },
    {
      "type": "Feature",
      "geometry": {
        "type": "Point",
        "coordinates": [
          -73.2047528028488,
          44.50295246352503
        ]
      },
      "properties": {
        "record_class": "LIDAR_CONFIRMED_ELDER_TREE_CANDIDATE",
        "verification_status": "measured LiDAR structural candidate",
        "source_class": "LIDAR",
        "source_name": "WRI/Meta CHMv2 candidate + USGS 3DEP 2023 QL1 confirmation",
        "source_url": "https://dataforgood-fb-data.s3.amazonaws.com/forests/v2/global/dinov3_global_chm_v2_ml3/chm/0302321131.tif",
        "source_license": "CC BY 4.0",
        "quadkey": "0302321131",
        "method_version": "earthline-elder-tree-aoi-chmv2-v0.4-local-evidence-index",
        "screen_rank": 7,
        "screen_reference_peak_count": 1158,
        "local_canopy_floor_m": 4,
        "raw_structural_evidence_score": 35.7787,
        "elder_tree_confidence_pct": 93,
        "confidence_pct": 93,
        "confidence_definition": "Earthline Elder Tree Confidence is a local relative structural-evidence index built from height rank, local prominence rank, and open-grown context in the analyzed area. It is not the probability that the tree is ancient, veteran, or a mycorrhizal hub.",
        "height_m": 28.03,
        "emergent_height_m": 6,
        "crown_area_proxy_m2": 1017,
        "open_context_fraction": 0.089,
        "evidence_limit": "LiDAR confirms canopy structure at this GPS candidate; it does not verify tree age, ancient/veteran status, or mycorrhizal-hub status.",
        "lidar_source_name": "USGS 3DEP public EPT",
        "lidar_source_url": "https://usgs-lidar-public.s3.us-west-2.amazonaws.com/VT_Statewide_1_A23/ept.json",
        "lidar_source_ql": "QL 1",
        "lidar_source_workunit": "VT_Statewide_1_A23",
        "lidar_collect_start": 1679529600000,
        "lidar_collect_end": 1683676800000,
        "lidar_point_count_within_8m": 1451,
        "lidar_canopy_evidence_points_within_8m": 764,
        "lidar_measured_local_canopy_height_m": 28.03,
        "lidar_method_version": "earthline-usgs-3dep-elder-refinement-v0.2-exact-workunit",
        "lidar_evidence_limit": "Measured LiDAR confirmation requires usable canopy returns within 8 m of the candidate GPS point, using the surrounding 20 m for ground reference. It confirms structure only, not tree age, ancient/veteran status, or mycorrhizal-hub status.",
        "modeled_source_name": "WRI/Meta CHMv2",
        "modeled_source_url": "https://dataforgood-fb-data.s3.amazonaws.com/forests/v2/global/dinov3_global_chm_v2_ml3/chm/0302321131.tif",
        "modeled_height_m": 26,
        "height_source": "USGS 3DEP 2023 QL1 measured local canopy"
      }
    },
    {
      "type": "Feature",
      "geometry": {
        "type": "Point",
        "coordinates": [
          -73.19113790988922,
          44.492935187907264
        ]
      },
      "properties": {
        "record_class": "LIDAR_CONFIRMED_ELDER_TREE_CANDIDATE",
        "verification_status": "measured LiDAR structural candidate",
        "source_class": "LIDAR",
        "source_name": "WRI/Meta CHMv2 candidate + USGS 3DEP 2023 QL1 confirmation",
        "source_url": "https://dataforgood-fb-data.s3.amazonaws.com/forests/v2/global/dinov3_global_chm_v2_ml3/chm/0302321131.tif",
        "source_license": "CC BY 4.0",
        "quadkey": "0302321131",
        "method_version": "earthline-elder-tree-aoi-chmv2-v0.4-local-evidence-index",
        "screen_rank": 10,
        "screen_reference_peak_count": 1158,
        "local_canopy_floor_m": 4,
        "raw_structural_evidence_score": 32.9822,
        "elder_tree_confidence_pct": 92,
        "confidence_pct": 92,
        "confidence_definition": "Earthline Elder Tree Confidence is a local relative structural-evidence index built from height rank, local prominence rank, and open-grown context in the analyzed area. It is not the probability that the tree is ancient, veteran, or a mycorrhizal hub.",
        "height_m": 30.93,
        "emergent_height_m": 3,
        "crown_area_proxy_m2": 1245.3,
        "open_context_fraction": 0.055,
        "evidence_limit": "LiDAR confirms canopy structure at this GPS candidate; it does not verify tree age, ancient/veteran status, or mycorrhizal-hub status.",
        "lidar_source_name": "USGS 3DEP public EPT",
        "lidar_source_url": "https://usgs-lidar-public.s3.us-west-2.amazonaws.com/VT_Statewide_1_A23/ept.json",
        "lidar_source_ql": "QL 1",
        "lidar_source_workunit": "VT_Statewide_1_A23",
        "lidar_collect_start": 1679529600000,
        "lidar_collect_end": 1683676800000,
        "lidar_point_count_within_8m": 4592,
        "lidar_canopy_evidence_points_within_8m": 3679,
        "lidar_measured_local_canopy_height_m": 30.93,
        "lidar_method_version": "earthline-usgs-3dep-elder-refinement-v0.2-exact-workunit",
        "lidar_evidence_limit": "Measured LiDAR confirmation requires usable canopy returns within 8 m of the candidate GPS point, using the surrounding 20 m for ground reference. It confirms structure only, not tree age, ancient/veteran status, or mycorrhizal-hub status.",
        "modeled_source_name": "WRI/Meta CHMv2",
        "modeled_source_url": "https://dataforgood-fb-data.s3.amazonaws.com/forests/v2/global/dinov3_global_chm_v2_ml3/chm/0302321131.tif",
        "modeled_height_m": 25,
        "height_source": "USGS 3DEP 2023 QL1 measured local canopy"
      }
    },
    {
      "type": "Feature",
      "geometry": {
        "type": "Point",
        "coordinates": [
          -73.1861811876297,
          44.49615712739033
        ]
      },
      "properties": {
        "record_class": "LIDAR_CONFIRMED_ELDER_TREE_CANDIDATE",
        "verification_status": "measured LiDAR structural candidate",
        "source_class": "LIDAR",
        "source_name": "WRI/Meta CHMv2 candidate + USGS 3DEP 2023 QL1 confirmation",
        "source_url": "https://dataforgood-fb-data.s3.amazonaws.com/forests/v2/global/dinov3_global_chm_v2_ml3/chm/0302321131.tif",
        "source_license": "CC BY 4.0",
        "quadkey": "0302321131",
        "method_version": "earthline-elder-tree-aoi-chmv2-v0.4-local-evidence-index",
        "screen_rank": 11,
        "screen_reference_peak_count": 1158,
        "local_canopy_floor_m": 4,
        "raw_structural_evidence_score": 35.1731,
        "elder_tree_confidence_pct": 92,
        "confidence_pct": 92,
        "confidence_definition": "Earthline Elder Tree Confidence is a local relative structural-evidence index built from height rank, local prominence rank, and open-grown context in the analyzed area. It is not the probability that the tree is ancient, veteran, or a mycorrhizal hub.",
        "height_m": 23.44,
        "emergent_height_m": 6,
        "crown_area_proxy_m2": 1118.3,
        "open_context_fraction": 0.103,
        "evidence_limit": "LiDAR confirms canopy structure at this GPS candidate; it does not verify tree age, ancient/veteran status, or mycorrhizal-hub status.",
        "lidar_source_name": "USGS 3DEP public EPT",
        "lidar_source_url": "https://usgs-lidar-public.s3.us-west-2.amazonaws.com/VT_Statewide_1_A23/ept.json",
        "lidar_source_ql": "QL 1",
        "lidar_source_workunit": "VT_Statewide_1_A23",
        "lidar_collect_start": 1679529600000,
        "lidar_collect_end": 1683676800000,
        "lidar_point_count_within_8m": 4750,
        "lidar_canopy_evidence_points_within_8m": 3785,
        "lidar_measured_local_canopy_height_m": 23.44,
        "lidar_method_version": "earthline-usgs-3dep-elder-refinement-v0.2-exact-workunit",
        "lidar_evidence_limit": "Measured LiDAR confirmation requires usable canopy returns within 8 m of the candidate GPS point, using the surrounding 20 m for ground reference. It confirms structure only, not tree age, ancient/veteran status, or mycorrhizal-hub status.",
        "modeled_source_name": "WRI/Meta CHMv2",
        "modeled_source_url": "https://dataforgood-fb-data.s3.amazonaws.com/forests/v2/global/dinov3_global_chm_v2_ml3/chm/0302321131.tif",
        "modeled_height_m": 25,
        "height_source": "USGS 3DEP 2023 QL1 measured local canopy"
      }
    },
    {
      "type": "Feature",
      "geometry": {
        "type": "Point",
        "coordinates": [
          -73.2090014219284,
          44.459304662697704
        ]
      },
      "properties": {
        "record_class": "LIDAR_CONFIRMED_ELDER_TREE_CANDIDATE",
        "verification_status": "measured LiDAR structural candidate",
        "source_class": "LIDAR",
        "source_name": "WRI/Meta CHMv2 candidate + USGS 3DEP 2023 QL1 confirmation",
        "source_url": "https://dataforgood-fb-data.s3.amazonaws.com/forests/v2/global/dinov3_global_chm_v2_ml3/chm/0302321131.tif",
        "source_license": "CC BY 4.0",
        "quadkey": "0302321131",
        "method_version": "earthline-elder-tree-aoi-chmv2-v0.4-local-evidence-index",
        "screen_rank": 1,
        "screen_reference_peak_count": 1158,
        "local_canopy_floor_m": 4,
        "raw_structural_evidence_score": 33.1623,
        "elder_tree_confidence_pct": 95,
        "confidence_pct": 95,
        "confidence_definition": "Earthline Elder Tree Confidence is a local relative structural-evidence index built from height rank, local prominence rank, and open-grown context in the analyzed area. It is not the probability that the tree is ancient, veteran, or a mycorrhizal hub.",
        "height_m": 20.42,
        "emergent_height_m": 5,
        "crown_area_proxy_m2": 801.6,
        "open_context_fraction": 0.177,
        "evidence_limit": "LiDAR confirms canopy structure at this GPS candidate; it does not verify tree age, ancient/veteran status, or mycorrhizal-hub status.",
        "lidar_source_name": "USGS 3DEP public EPT",
        "lidar_source_url": "https://usgs-lidar-public.s3.us-west-2.amazonaws.com/VT_Statewide_2_A23/ept.json",
        "lidar_source_ql": "QL 1",
        "lidar_source_workunit": "VT_Statewide_2_A23",
        "lidar_collect_start": 1681430400000,
        "lidar_collect_end": 1683936000000,
        "lidar_point_count_within_8m": 4157,
        "lidar_canopy_evidence_points_within_8m": 3686,
        "lidar_measured_local_canopy_height_m": 20.42,
        "lidar_method_version": "earthline-usgs-3dep-elder-refinement-v0.2-exact-workunit",
        "lidar_evidence_limit": "Measured LiDAR confirmation requires usable canopy returns within 8 m of the candidate GPS point, using the surrounding 20 m for ground reference. It confirms structure only, not tree age, ancient/veteran status, or mycorrhizal-hub status.",
        "modeled_source_name": "WRI/Meta CHMv2",
        "modeled_source_url": "https://dataforgood-fb-data.s3.amazonaws.com/forests/v2/global/dinov3_global_chm_v2_ml3/chm/0302321131.tif",
        "modeled_height_m": 23,
        "height_source": "USGS 3DEP 2023 QL1 measured local canopy"
      }
    },
    {
      "type": "Feature",
      "geometry": {
        "type": "Point",
        "coordinates": [
          -73.21075022220612,
          44.504345103542484
        ]
      },
      "properties": {
        "record_class": "LIDAR_CONFIRMED_ELDER_TREE_CANDIDATE",
        "verification_status": "measured LiDAR structural candidate",
        "source_class": "LIDAR",
        "source_name": "WRI/Meta CHMv2 candidate + USGS 3DEP 2023 QL1 confirmation",
        "source_url": "https://dataforgood-fb-data.s3.amazonaws.com/forests/v2/global/dinov3_global_chm_v2_ml3/chm/0302321131.tif",
        "source_license": "CC BY 4.0",
        "quadkey": "0302321131",
        "method_version": "earthline-elder-tree-aoi-chmv2-v0.4-local-evidence-index",
        "screen_rank": 5,
        "screen_reference_peak_count": 1158,
        "local_canopy_floor_m": 4,
        "raw_structural_evidence_score": 35.3632,
        "elder_tree_confidence_pct": 93,
        "confidence_pct": 93,
        "confidence_definition": "Earthline Elder Tree Confidence is a local relative structural-evidence index built from height rank, local prominence rank, and open-grown context in the analyzed area. It is not the probability that the tree is ancient, veteran, or a mycorrhizal hub.",
        "height_m": 21.77,
        "emergent_height_m": 9,
        "crown_area_proxy_m2": 740.3,
        "open_context_fraction": 0.413,
        "evidence_limit": "LiDAR confirms canopy structure at this GPS candidate; it does not verify tree age, ancient/veteran status, or mycorrhizal-hub status.",
        "lidar_source_name": "USGS 3DEP public EPT",
        "lidar_source_url": "https://usgs-lidar-public.s3.us-west-2.amazonaws.com/VT_Statewide_1_A23/ept.json",
        "lidar_source_ql": "QL 1",
        "lidar_source_workunit": "VT_Statewide_1_A23",
        "lidar_collect_start": 1679529600000,
        "lidar_collect_end": 1683676800000,
        "lidar_point_count_within_8m": 607,
        "lidar_canopy_evidence_points_within_8m": 607,
        "lidar_measured_local_canopy_height_m": 21.77,
        "lidar_method_version": "earthline-usgs-3dep-elder-refinement-v0.2-exact-workunit",
        "lidar_evidence_limit": "Measured LiDAR confirmation requires usable canopy returns within 8 m of the candidate GPS point, using the surrounding 20 m for ground reference. It confirms structure only, not tree age, ancient/veteran status, or mycorrhizal-hub status.",
        "modeled_source_name": "WRI/Meta CHMv2",
        "modeled_source_url": "https://dataforgood-fb-data.s3.amazonaws.com/forests/v2/global/dinov3_global_chm_v2_ml3/chm/0302321131.tif",
        "modeled_height_m": 23,
        "height_source": "USGS 3DEP 2023 QL1 measured local canopy"
      }
    },
    {
      "type": "Feature",
      "geometry": {
        "type": "Point",
        "coordinates": [
          -73.2092696428299,
          44.45487835220653
        ]
      },
      "properties": {
        "record_class": "LIDAR_CONFIRMED_ELDER_TREE_CANDIDATE",
        "verification_status": "measured LiDAR structural candidate",
        "source_class": "LIDAR",
        "source_name": "WRI/Meta CHMv2 candidate + USGS 3DEP 2023 QL1 confirmation",
        "source_url": "https://dataforgood-fb-data.s3.amazonaws.com/forests/v2/global/dinov3_global_chm_v2_ml3/chm/0302321131.tif",
        "source_license": "CC BY 4.0",
        "quadkey": "0302321131",
        "method_version": "earthline-elder-tree-aoi-chmv2-v0.4-local-evidence-index",
        "screen_rank": 4,
        "screen_reference_peak_count": 1158,
        "local_canopy_floor_m": 4,
        "raw_structural_evidence_score": 27.2854,
        "elder_tree_confidence_pct": 94,
        "confidence_pct": 94,
        "confidence_definition": "Earthline Elder Tree Confidence is a local relative structural-evidence index built from height rank, local prominence rank, and open-grown context in the analyzed area. It is not the probability that the tree is ancient, veteran, or a mycorrhizal hub.",
        "height_m": 17.46,
        "emergent_height_m": 10,
        "crown_area_proxy_m2": 499.2,
        "open_context_fraction": 0.374,
        "evidence_limit": "LiDAR confirms canopy structure at this GPS candidate; it does not verify tree age, ancient/veteran status, or mycorrhizal-hub status.",
        "lidar_source_name": "USGS 3DEP public EPT",
        "lidar_source_url": "https://usgs-lidar-public.s3.us-west-2.amazonaws.com/VT_Statewide_2_A23/ept.json",
        "lidar_source_ql": "QL 1",
        "lidar_source_workunit": "VT_Statewide_2_A23",
        "lidar_collect_start": 1681430400000,
        "lidar_collect_end": 1683936000000,
        "lidar_point_count_within_8m": 1494,
        "lidar_canopy_evidence_points_within_8m": 823,
        "lidar_measured_local_canopy_height_m": 17.46,
        "lidar_method_version": "earthline-usgs-3dep-elder-refinement-v0.2-exact-workunit",
        "lidar_evidence_limit": "Measured LiDAR confirmation requires usable canopy returns within 8 m of the candidate GPS point, using the surrounding 20 m for ground reference. It confirms structure only, not tree age, ancient/veteran status, or mycorrhizal-hub status.",
        "modeled_source_name": "WRI/Meta CHMv2",
        "modeled_source_url": "https://dataforgood-fb-data.s3.amazonaws.com/forests/v2/global/dinov3_global_chm_v2_ml3/chm/0302321131.tif",
        "modeled_height_m": 18,
        "height_source": "USGS 3DEP 2023 QL1 measured local canopy"
      }
    }
  ]
}
