{
  "type": "FeatureCollection",
  "features": [
    {
      "type": "Feature",
      "geometry": {
        "type": "Point",
        "coordinates": [
          105.59903562068939,
          20.30298987292899
        ]
      },
      "properties": {
        "record_class": "ELDER_TREE_CANDIDATE",
        "verification_status": "modeled remote-sensing candidate only",
        "source_class": "MODELED_CHMV2",
        "source_name": "WRI/Meta CHMv2",
        "source_url": "https://dataforgood-fb-data.s3.amazonaws.com/forests/v2/global/dinov3_global_chm_v2_ml3/chm/1322101302.tif",
        "source_license": "CC BY 4.0",
        "quadkey": "1322101302",
        "method_version": "earthline-elder-tree-aoi-chmv2-v0.3-local-relative",
        "screen_rank": 10,
        "screen_reference_peak_count": 767,
        "local_canopy_floor_m": 5.0,
        "raw_structural_evidence_score": 56.7455,
        "elder_tree_confidence_pct": 99,
        "confidence_pct": 99,
        "confidence_definition": "Earthline Elder Tree Confidence is a local percentile: how strongly this structure ranks against other detected tree/canopy structures in the same analyzed source tile/AOI. It is not the probability that the tree is ancient, veteran, or a mycorrhizal hub.",
        "height_m": 54.0,
        "emergent_height_m": 20.0,
        "crown_area_proxy_m2": 935.7,
        "open_context_fraction": 0.0,
        "evidence_limit": "Candidate only; modeled canopy structure is not proof of age or mycorrhizal hub status."
      }
    },
    {
      "type": "Feature",
      "geometry": {
        "type": "Point",
        "coordinates": [
          105.62788546085356,
          20.318766696447277
        ]
      },
      "properties": {
        "record_class": "ELDER_TREE_CANDIDATE",
        "verification_status": "modeled remote-sensing candidate only",
        "source_class": "MODELED_CHMV2",
        "source_name": "WRI/Meta CHMv2",
        "source_url": "https://dataforgood-fb-data.s3.amazonaws.com/forests/v2/global/dinov3_global_chm_v2_ml3/chm/1322101300.tif",
        "source_license": "CC BY 4.0",
        "quadkey": "1322101300",
        "method_version": "earthline-elder-tree-aoi-chmv2-v0.3-local-relative",
        "screen_rank": 2,
        "screen_reference_peak_count": 1320,
        "local_canopy_floor_m": 5.0,
        "raw_structural_evidence_score": 54.9109,
        "elder_tree_confidence_pct": 100,
        "confidence_pct": 100,
        "confidence_definition": "Earthline Elder Tree Confidence is a local percentile: how strongly this structure ranks against other detected tree/canopy structures in the same analyzed source tile/AOI. It is not the probability that the tree is ancient, veteran, or a mycorrhizal hub.",
        "height_m": 52.0,
        "emergent_height_m": 18.0,
        "crown_area_proxy_m2": 951.4,
        "open_context_fraction": 0.0,
        "evidence_limit": "Candidate only; modeled canopy structure is not proof of age or mycorrhizal hub status."
      }
    },
    {
      "type": "Feature",
      "geometry": {
        "type": "Point",
        "coordinates": [
          105.62420547008513,
          20.322046624913504
        ]
      },
      "properties": {
        "record_class": "ELDER_TREE_CANDIDATE",
        "verification_status": "modeled remote-sensing candidate only",
        "source_class": "MODELED_CHMV2",
        "source_name": "WRI/Meta CHMv2",
        "source_url": "https://dataforgood-fb-data.s3.amazonaws.com/forests/v2/global/dinov3_global_chm_v2_ml3/chm/1322101300.tif",
        "source_license": "CC BY 4.0",
        "quadkey": "1322101300",
        "method_version": "earthline-elder-tree-aoi-chmv2-v0.3-local-relative",
        "screen_rank": 12,
        "screen_reference_peak_count": 1320,
        "local_canopy_floor_m": 5.0,
        "raw_structural_evidence_score": 46.7978,
        "elder_tree_confidence_pct": 99,
        "confidence_pct": 99,
        "confidence_definition": "Earthline Elder Tree Confidence is a local percentile: how strongly this structure ranks against other detected tree/canopy structures in the same analyzed source tile/AOI. It is not the probability that the tree is ancient, veteran, or a mycorrhizal hub.",
        "height_m": 46.0,
        "emergent_height_m": 12.0,
        "crown_area_proxy_m2": 791.7,
        "open_context_fraction": 0.0,
        "evidence_limit": "Candidate only; modeled canopy structure is not proof of age or mycorrhizal hub status."
      }
    },
    {
      "type": "Feature",
      "geometry": {
        "type": "Point",
        "coordinates": [
          105.63221991062164,
          20.31955147093574
        ]
      },
      "properties": {
        "record_class": "ELDER_TREE_CANDIDATE",
        "verification_status": "modeled remote-sensing candidate only",
        "source_class": "MODELED_CHMV2",
        "source_name": "WRI/Meta CHMv2",
        "source_url": "https://dataforgood-fb-data.s3.amazonaws.com/forests/v2/global/dinov3_global_chm_v2_ml3/chm/1322101300.tif",
        "source_license": "CC BY 4.0",
        "quadkey": "1322101300",
        "method_version": "earthline-elder-tree-aoi-chmv2-v0.3-local-relative",
        "screen_rank": 3,
        "screen_reference_peak_count": 1320,
        "local_canopy_floor_m": 5.0,
        "raw_structural_evidence_score": 53.795,
        "elder_tree_confidence_pct": 100,
        "confidence_pct": 100,
        "confidence_definition": "Earthline Elder Tree Confidence is a local percentile: how strongly this structure ranks against other detected tree/canopy structures in the same analyzed source tile/AOI. It is not the probability that the tree is ancient, veteran, or a mycorrhizal hub.",
        "height_m": 45.0,
        "emergent_height_m": 22.0,
        "crown_area_proxy_m2": 823.0,
        "open_context_fraction": 0.0,
        "evidence_limit": "Candidate only; modeled canopy structure is not proof of age or mycorrhizal hub status."
      }
    },
    {
      "type": "Feature",
      "geometry": {
        "type": "Point",
        "coordinates": [
          105.60159981250763,
          20.314852825796347
        ]
      },
      "properties": {
        "record_class": "ELDER_TREE_CANDIDATE",
        "verification_status": "modeled remote-sensing candidate only",
        "source_class": "MODELED_CHMV2",
        "source_name": "WRI/Meta CHMv2",
        "source_url": "https://dataforgood-fb-data.s3.amazonaws.com/forests/v2/global/dinov3_global_chm_v2_ml3/chm/1322101300.tif",
        "source_license": "CC BY 4.0",
        "quadkey": "1322101300",
        "method_version": "earthline-elder-tree-aoi-chmv2-v0.3-local-relative",
        "screen_rank": 5,
        "screen_reference_peak_count": 1320,
        "local_canopy_floor_m": 5.0,
        "raw_structural_evidence_score": 47.5108,
        "elder_tree_confidence_pct": 100,
        "confidence_pct": 100,
        "confidence_definition": "Earthline Elder Tree Confidence is a local percentile: how strongly this structure ranks against other detected tree/canopy structures in the same analyzed source tile/AOI. It is not the probability that the tree is ancient, veteran, or a mycorrhizal hub.",
        "height_m": 44.0,
        "emergent_height_m": 13.0,
        "crown_area_proxy_m2": 1124.0,
        "open_context_fraction": 0.0,
        "evidence_limit": "Candidate only; modeled canopy structure is not proof of age or mycorrhizal hub status."
      }
    },
    {
      "type": "Feature",
      "geometry": {
        "type": "Point",
        "coordinates": [
          105.60725390911101,
          20.3435354783243
        ]
      },
      "properties": {
        "record_class": "ELDER_TREE_CANDIDATE",
        "verification_status": "modeled remote-sensing candidate only",
        "source_class": "MODELED_CHMV2",
        "source_name": "WRI/Meta CHMv2",
        "source_url": "https://dataforgood-fb-data.s3.amazonaws.com/forests/v2/global/dinov3_global_chm_v2_ml3/chm/1322101300.tif",
        "source_license": "CC BY 4.0",
        "quadkey": "1322101300",
        "method_version": "earthline-elder-tree-aoi-chmv2-v0.3-local-relative",
        "screen_rank": 4,
        "screen_reference_peak_count": 1320,
        "local_canopy_floor_m": 5.0,
        "raw_structural_evidence_score": 46.3552,
        "elder_tree_confidence_pct": 100,
        "confidence_pct": 100,
        "confidence_definition": "Earthline Elder Tree Confidence is a local percentile: how strongly this structure ranks against other detected tree/canopy structures in the same analyzed source tile/AOI. It is not the probability that the tree is ancient, veteran, or a mycorrhizal hub.",
        "height_m": 42.0,
        "emergent_height_m": 12.0,
        "crown_area_proxy_m2": 1262.4,
        "open_context_fraction": 0.0,
        "evidence_limit": "Candidate only; modeled canopy structure is not proof of age or mycorrhizal hub status."
      }
    },
    {
      "type": "Feature",
      "geometry": {
        "type": "Point",
        "coordinates": [
          105.58341443538664,
          20.305123057859326
        ]
      },
      "properties": {
        "record_class": "ELDER_TREE_CANDIDATE",
        "verification_status": "modeled remote-sensing candidate only",
        "source_class": "MODELED_CHMV2",
        "source_name": "WRI/Meta CHMv2",
        "source_url": "https://dataforgood-fb-data.s3.amazonaws.com/forests/v2/global/dinov3_global_chm_v2_ml3/chm/1322101300.tif",
        "source_license": "CC BY 4.0",
        "quadkey": "1322101300",
        "method_version": "earthline-elder-tree-aoi-chmv2-v0.3-local-relative",
        "screen_rank": 9,
        "screen_reference_peak_count": 1320,
        "local_canopy_floor_m": 5.0,
        "raw_structural_evidence_score": 46.1328,
        "elder_tree_confidence_pct": 99,
        "confidence_pct": 99,
        "confidence_definition": "Earthline Elder Tree Confidence is a local percentile: how strongly this structure ranks against other detected tree/canopy structures in the same analyzed source tile/AOI. It is not the probability that the tree is ancient, veteran, or a mycorrhizal hub.",
        "height_m": 40.0,
        "emergent_height_m": 14.0,
        "crown_area_proxy_m2": 1213.9,
        "open_context_fraction": 0.0,
        "evidence_limit": "Candidate only; modeled canopy structure is not proof of age or mycorrhizal hub status."
      }
    },
    {
      "type": "Feature",
      "geometry": {
        "type": "Point",
        "coordinates": [
          105.58458387851714,
          20.306380818221374
        ]
      },
      "properties": {
        "record_class": "ELDER_TREE_CANDIDATE",
        "verification_status": "modeled remote-sensing candidate only",
        "source_class": "MODELED_CHMV2",
        "source_name": "WRI/Meta CHMv2",
        "source_url": "https://dataforgood-fb-data.s3.amazonaws.com/forests/v2/global/dinov3_global_chm_v2_ml3/chm/1322101300.tif",
        "source_license": "CC BY 4.0",
        "quadkey": "1322101300",
        "method_version": "earthline-elder-tree-aoi-chmv2-v0.3-local-relative",
        "screen_rank": 10,
        "screen_reference_peak_count": 1320,
        "local_canopy_floor_m": 5.0,
        "raw_structural_evidence_score": 44.3882,
        "elder_tree_confidence_pct": 99,
        "confidence_pct": 99,
        "confidence_definition": "Earthline Elder Tree Confidence is a local percentile: how strongly this structure ranks against other detected tree/canopy structures in the same analyzed source tile/AOI. It is not the probability that the tree is ancient, veteran, or a mycorrhizal hub.",
        "height_m": 40.0,
        "emergent_height_m": 10.0,
        "crown_area_proxy_m2": 1029.9,
        "open_context_fraction": 0.04,
        "evidence_limit": "Candidate only; modeled canopy structure is not proof of age or mycorrhizal hub status."
      }
    },
    {
      "type": "Feature",
      "geometry": {
        "type": "Point",
        "coordinates": [
          105.589959025383,
          20.30329174050591
        ]
      },
      "properties": {
        "record_class": "ELDER_TREE_CANDIDATE",
        "verification_status": "modeled remote-sensing candidate only",
        "source_class": "MODELED_CHMV2",
        "source_name": "WRI/Meta CHMv2",
        "source_url": "https://dataforgood-fb-data.s3.amazonaws.com/forests/v2/global/dinov3_global_chm_v2_ml3/chm/1322101302.tif",
        "source_license": "CC BY 4.0",
        "quadkey": "1322101302",
        "method_version": "earthline-elder-tree-aoi-chmv2-v0.3-local-relative",
        "screen_rank": 5,
        "screen_reference_peak_count": 767,
        "local_canopy_floor_m": 5.0,
        "raw_structural_evidence_score": 46.3668,
        "elder_tree_confidence_pct": 99,
        "confidence_pct": 99,
        "confidence_definition": "Earthline Elder Tree Confidence is a local percentile: how strongly this structure ranks against other detected tree/canopy structures in the same analyzed source tile/AOI. It is not the probability that the tree is ancient, veteran, or a mycorrhizal hub.",
        "height_m": 40.0,
        "emergent_height_m": 13.0,
        "crown_area_proxy_m2": 1238.1,
        "open_context_fraction": 0.097,
        "evidence_limit": "Candidate only; modeled canopy structure is not proof of age or mycorrhizal hub status."
      }
    },
    {
      "type": "Feature",
      "geometry": {
        "type": "Point",
        "coordinates": [
          105.61812222003935,
          20.310204346980353
        ]
      },
      "properties": {
        "record_class": "ELDER_TREE_CANDIDATE",
        "verification_status": "modeled remote-sensing candidate only",
        "source_class": "MODELED_CHMV2",
        "source_name": "WRI/Meta CHMv2",
        "source_url": "https://dataforgood-fb-data.s3.amazonaws.com/forests/v2/global/dinov3_global_chm_v2_ml3/chm/1322101300.tif",
        "source_license": "CC BY 4.0",
        "quadkey": "1322101300",
        "method_version": "earthline-elder-tree-aoi-chmv2-v0.3-local-relative",
        "screen_rank": 8,
        "screen_reference_peak_count": 1320,
        "local_canopy_floor_m": 5.0,
        "raw_structural_evidence_score": 43.7184,
        "elder_tree_confidence_pct": 99,
        "confidence_pct": 99,
        "confidence_definition": "Earthline Elder Tree Confidence is a local percentile: how strongly this structure ranks against other detected tree/canopy structures in the same analyzed source tile/AOI. It is not the probability that the tree is ancient, veteran, or a mycorrhizal hub.",
        "height_m": 39.0,
        "emergent_height_m": 10.0,
        "crown_area_proxy_m2": 1171.1,
        "open_context_fraction": 0.0,
        "evidence_limit": "Candidate only; modeled canopy structure is not proof of age or mycorrhizal hub status."
      }
    },
    {
      "type": "Feature",
      "geometry": {
        "type": "Point",
        "coordinates": [
          105.60080587863922,
          20.313534764814346
        ]
      },
      "properties": {
        "record_class": "ELDER_TREE_CANDIDATE",
        "verification_status": "modeled remote-sensing candidate only",
        "source_class": "MODELED_CHMV2",
        "source_name": "WRI/Meta CHMv2",
        "source_url": "https://dataforgood-fb-data.s3.amazonaws.com/forests/v2/global/dinov3_global_chm_v2_ml3/chm/1322101300.tif",
        "source_license": "CC BY 4.0",
        "quadkey": "1322101300",
        "method_version": "earthline-elder-tree-aoi-chmv2-v0.3-local-relative",
        "screen_rank": 6,
        "screen_reference_peak_count": 1320,
        "local_canopy_floor_m": 5.0,
        "raw_structural_evidence_score": 47.9689,
        "elder_tree_confidence_pct": 100,
        "confidence_pct": 100,
        "confidence_definition": "Earthline Elder Tree Confidence is a local percentile: how strongly this structure ranks against other detected tree/canopy structures in the same analyzed source tile/AOI. It is not the probability that the tree is ancient, veteran, or a mycorrhizal hub.",
        "height_m": 38.0,
        "emergent_height_m": 17.0,
        "crown_area_proxy_m2": 828.8,
        "open_context_fraction": 0.018,
        "evidence_limit": "Candidate only; modeled canopy structure is not proof of age or mycorrhizal hub status."
      }
    },
    {
      "type": "Feature",
      "geometry": {
        "type": "Point",
        "coordinates": [
          105.63243448734282,
          20.274249386256688
        ]
      },
      "properties": {
        "record_class": "ELDER_TREE_CANDIDATE",
        "verification_status": "modeled remote-sensing candidate only",
        "source_class": "MODELED_CHMV2",
        "source_name": "WRI/Meta CHMv2",
        "source_url": "https://dataforgood-fb-data.s3.amazonaws.com/forests/v2/global/dinov3_global_chm_v2_ml3/chm/1322101302.tif",
        "source_license": "CC BY 4.0",
        "quadkey": "1322101302",
        "method_version": "earthline-elder-tree-aoi-chmv2-v0.3-local-relative",
        "screen_rank": 8,
        "screen_reference_peak_count": 767,
        "local_canopy_floor_m": 5.0,
        "raw_structural_evidence_score": 43.1592,
        "elder_tree_confidence_pct": 99,
        "confidence_pct": 99,
        "confidence_definition": "Earthline Elder Tree Confidence is a local percentile: how strongly this structure ranks against other detected tree/canopy structures in the same analyzed source tile/AOI. It is not the probability that the tree is ancient, veteran, or a mycorrhizal hub.",
        "height_m": 38.0,
        "emergent_height_m": 10.0,
        "crown_area_proxy_m2": 1213.9,
        "open_context_fraction": 0.0,
        "evidence_limit": "Candidate only; modeled canopy structure is not proof of age or mycorrhizal hub status."
      }
    },
    {
      "type": "Feature",
      "geometry": {
        "type": "Point",
        "coordinates": [
          105.62590062618253,
          20.32005452941175
        ]
      },
      "properties": {
        "record_class": "ELDER_TREE_CANDIDATE",
        "verification_status": "modeled remote-sensing candidate only",
        "source_class": "MODELED_CHMV2",
        "source_name": "WRI/Meta CHMv2",
        "source_url": "https://dataforgood-fb-data.s3.amazonaws.com/forests/v2/global/dinov3_global_chm_v2_ml3/chm/1322101300.tif",
        "source_license": "CC BY 4.0",
        "quadkey": "1322101300",
        "method_version": "earthline-elder-tree-aoi-chmv2-v0.3-local-relative",
        "screen_rank": 7,
        "screen_reference_peak_count": 1320,
        "local_canopy_floor_m": 5.0,
        "raw_structural_evidence_score": 42.2315,
        "elder_tree_confidence_pct": 100,
        "confidence_pct": 100,
        "confidence_definition": "Earthline Elder Tree Confidence is a local percentile: how strongly this structure ranks against other detected tree/canopy structures in the same analyzed source tile/AOI. It is not the probability that the tree is ancient, veteran, or a mycorrhizal hub.",
        "height_m": 37.0,
        "emergent_height_m": 9.0,
        "crown_area_proxy_m2": 1221.0,
        "open_context_fraction": 0.0,
        "evidence_limit": "Candidate only; modeled canopy structure is not proof of age or mycorrhizal hub status."
      }
    },
    {
      "type": "Feature",
      "geometry": {
        "type": "Point",
        "coordinates": [
          105.60040891170502,
          20.314933317706377
        ]
      },
      "properties": {
        "record_class": "ELDER_TREE_CANDIDATE",
        "verification_status": "modeled remote-sensing candidate only",
        "source_class": "MODELED_CHMV2",
        "source_name": "WRI/Meta CHMv2",
        "source_url": "https://dataforgood-fb-data.s3.amazonaws.com/forests/v2/global/dinov3_global_chm_v2_ml3/chm/1322101300.tif",
        "source_license": "CC BY 4.0",
        "quadkey": "1322101300",
        "method_version": "earthline-elder-tree-aoi-chmv2-v0.3-local-relative",
        "screen_rank": 1,
        "screen_reference_peak_count": 1320,
        "local_canopy_floor_m": 5.0,
        "raw_structural_evidence_score": 45.7814,
        "elder_tree_confidence_pct": 100,
        "confidence_pct": 100,
        "confidence_definition": "Earthline Elder Tree Confidence is a local percentile: how strongly this structure ranks against other detected tree/canopy structures in the same analyzed source tile/AOI. It is not the probability that the tree is ancient, veteran, or a mycorrhizal hub.",
        "height_m": 36.0,
        "emergent_height_m": 18.0,
        "crown_area_proxy_m2": 713.2,
        "open_context_fraction": 0.154,
        "evidence_limit": "Candidate only; modeled canopy structure is not proof of age or mycorrhizal hub status."
      }
    },
    {
      "type": "Feature",
      "geometry": {
        "type": "Point",
        "coordinates": [
          105.60276925563812,
          20.29318891930523
        ]
      },
      "properties": {
        "record_class": "ELDER_TREE_CANDIDATE",
        "verification_status": "modeled remote-sensing candidate only",
        "source_class": "MODELED_CHMV2",
        "source_name": "WRI/Meta CHMv2",
        "source_url": "https://dataforgood-fb-data.s3.amazonaws.com/forests/v2/global/dinov3_global_chm_v2_ml3/chm/1322101302.tif",
        "source_license": "CC BY 4.0",
        "quadkey": "1322101302",
        "method_version": "earthline-elder-tree-aoi-chmv2-v0.3-local-relative",
        "screen_rank": 13,
        "screen_reference_peak_count": 767,
        "local_canopy_floor_m": 5.0,
        "raw_structural_evidence_score": 43.7326,
        "elder_tree_confidence_pct": 98,
        "confidence_pct": 98,
        "confidence_definition": "Earthline Elder Tree Confidence is a local percentile: how strongly this structure ranks against other detected tree/canopy structures in the same analyzed source tile/AOI. It is not the probability that the tree is ancient, veteran, or a mycorrhizal hub.",
        "height_m": 36.0,
        "emergent_height_m": 13.0,
        "crown_area_proxy_m2": 881.5,
        "open_context_fraction": 0.0,
        "evidence_limit": "Candidate only; modeled canopy structure is not proof of age or mycorrhizal hub status."
      }
    },
    {
      "type": "Feature",
      "geometry": {
        "type": "Point",
        "coordinates": [
          105.59329569339751,
          20.282441370480385
        ]
      },
      "properties": {
        "record_class": "ELDER_TREE_CANDIDATE",
        "verification_status": "modeled remote-sensing candidate only",
        "source_class": "MODELED_CHMV2",
        "source_name": "WRI/Meta CHMv2",
        "source_url": "https://dataforgood-fb-data.s3.amazonaws.com/forests/v2/global/dinov3_global_chm_v2_ml3/chm/1322101302.tif",
        "source_license": "CC BY 4.0",
        "quadkey": "1322101302",
        "method_version": "earthline-elder-tree-aoi-chmv2-v0.3-local-relative",
        "screen_rank": 7,
        "screen_reference_peak_count": 767,
        "local_canopy_floor_m": 5.0,
        "raw_structural_evidence_score": 42.3976,
        "elder_tree_confidence_pct": 99,
        "confidence_pct": 99,
        "confidence_definition": "Earthline Elder Tree Confidence is a local percentile: how strongly this structure ranks against other detected tree/canopy structures in the same analyzed source tile/AOI. It is not the probability that the tree is ancient, veteran, or a mycorrhizal hub.",
        "height_m": 35.0,
        "emergent_height_m": 11.0,
        "crown_area_proxy_m2": 864.4,
        "open_context_fraction": 0.0,
        "evidence_limit": "Candidate only; modeled canopy structure is not proof of age or mycorrhizal hub status."
      }
    },
    {
      "type": "Feature",
      "geometry": {
        "type": "Point",
        "coordinates": [
          105.59624612331389,
          20.282260225631365
        ]
      },
      "properties": {
        "record_class": "ELDER_TREE_CANDIDATE",
        "verification_status": "modeled remote-sensing candidate only",
        "source_class": "MODELED_CHMV2",
        "source_name": "WRI/Meta CHMv2",
        "source_url": "https://dataforgood-fb-data.s3.amazonaws.com/forests/v2/global/dinov3_global_chm_v2_ml3/chm/1322101302.tif",
        "source_license": "CC BY 4.0",
        "quadkey": "1322101302",
        "method_version": "earthline-elder-tree-aoi-chmv2-v0.3-local-relative",
        "screen_rank": 12,
        "screen_reference_peak_count": 767,
        "local_canopy_floor_m": 5.0,
        "raw_structural_evidence_score": 44.654,
        "elder_tree_confidence_pct": 99,
        "confidence_pct": 99,
        "confidence_definition": "Earthline Elder Tree Confidence is a local percentile: how strongly this structure ranks against other detected tree/canopy structures in the same analyzed source tile/AOI. It is not the probability that the tree is ancient, veteran, or a mycorrhizal hub.",
        "height_m": 35.0,
        "emergent_height_m": 14.0,
        "crown_area_proxy_m2": 974.2,
        "open_context_fraction": 0.0,
        "evidence_limit": "Candidate only; modeled canopy structure is not proof of age or mycorrhizal hub status."
      }
    },
    {
      "type": "Feature",
      "geometry": {
        "type": "Point",
        "coordinates": [
          105.58360755443572,
          20.306592120959813
        ]
      },
      "properties": {
        "record_class": "ELDER_TREE_CANDIDATE",
        "verification_status": "modeled remote-sensing candidate only",
        "source_class": "MODELED_CHMV2",
        "source_name": "WRI/Meta CHMv2",
        "source_url": "https://dataforgood-fb-data.s3.amazonaws.com/forests/v2/global/dinov3_global_chm_v2_ml3/chm/1322101300.tif",
        "source_license": "CC BY 4.0",
        "quadkey": "1322101300",
        "method_version": "earthline-elder-tree-aoi-chmv2-v0.3-local-relative",
        "screen_rank": 11,
        "screen_reference_peak_count": 1320,
        "local_canopy_floor_m": 5.0,
        "raw_structural_evidence_score": 44.7973,
        "elder_tree_confidence_pct": 99,
        "confidence_pct": 99,
        "confidence_definition": "Earthline Elder Tree Confidence is a local percentile: how strongly this structure ranks against other detected tree/canopy structures in the same analyzed source tile/AOI. It is not the probability that the tree is ancient, veteran, or a mycorrhizal hub.",
        "height_m": 34.0,
        "emergent_height_m": 18.0,
        "crown_area_proxy_m2": 698.9,
        "open_context_fraction": 0.282,
        "evidence_limit": "Candidate only; modeled canopy structure is not proof of age or mycorrhizal hub status."
      }
    },
    {
      "type": "Feature",
      "geometry": {
        "type": "Point",
        "coordinates": [
          105.59997975826262,
          20.275386628606977
        ]
      },
      "properties": {
        "record_class": "ELDER_TREE_CANDIDATE",
        "verification_status": "modeled remote-sensing candidate only",
        "source_class": "MODELED_CHMV2",
        "source_name": "WRI/Meta CHMv2",
        "source_url": "https://dataforgood-fb-data.s3.amazonaws.com/forests/v2/global/dinov3_global_chm_v2_ml3/chm/1322101302.tif",
        "source_license": "CC BY 4.0",
        "quadkey": "1322101302",
        "method_version": "earthline-elder-tree-aoi-chmv2-v0.3-local-relative",
        "screen_rank": 1,
        "screen_reference_peak_count": 767,
        "local_canopy_floor_m": 5.0,
        "raw_structural_evidence_score": 38.8665,
        "elder_tree_confidence_pct": 100,
        "confidence_pct": 100,
        "confidence_definition": "Earthline Elder Tree Confidence is a local percentile: how strongly this structure ranks against other detected tree/canopy structures in the same analyzed source tile/AOI. It is not the probability that the tree is ancient, veteran, or a mycorrhizal hub.",
        "height_m": 32.0,
        "emergent_height_m": 7.0,
        "crown_area_proxy_m2": 958.6,
        "open_context_fraction": 0.004,
        "evidence_limit": "Candidate only; modeled canopy structure is not proof of age or mycorrhizal hub status."
      }
    },
    {
      "type": "Feature",
      "geometry": {
        "type": "Point",
        "coordinates": [
          105.60878813266754,
          20.27170314084938
        ]
      },
      "properties": {
        "record_class": "ELDER_TREE_CANDIDATE",
        "verification_status": "modeled remote-sensing candidate only",
        "source_class": "MODELED_CHMV2",
        "source_name": "WRI/Meta CHMv2",
        "source_url": "https://dataforgood-fb-data.s3.amazonaws.com/forests/v2/global/dinov3_global_chm_v2_ml3/chm/1322101302.tif",
        "source_license": "CC BY 4.0",
        "quadkey": "1322101302",
        "method_version": "earthline-elder-tree-aoi-chmv2-v0.3-local-relative",
        "screen_rank": 6,
        "screen_reference_peak_count": 767,
        "local_canopy_floor_m": 5.0,
        "raw_structural_evidence_score": 42.246,
        "elder_tree_confidence_pct": 99,
        "confidence_pct": 99,
        "confidence_definition": "Earthline Elder Tree Confidence is a local percentile: how strongly this structure ranks against other detected tree/canopy structures in the same analyzed source tile/AOI. It is not the probability that the tree is ancient, veteran, or a mycorrhizal hub.",
        "height_m": 32.0,
        "emergent_height_m": 13.0,
        "crown_area_proxy_m2": 1105.5,
        "open_context_fraction": 0.0,
        "evidence_limit": "Candidate only; modeled canopy structure is not proof of age or mycorrhizal hub status."
      }
    },
    {
      "type": "Feature",
      "geometry": {
        "type": "Point",
        "coordinates": [
          105.57623684406282,
          20.296731019275253
        ]
      },
      "properties": {
        "record_class": "ELDER_TREE_CANDIDATE",
        "verification_status": "modeled remote-sensing candidate only",
        "source_class": "MODELED_CHMV2",
        "source_name": "WRI/Meta CHMv2",
        "source_url": "https://dataforgood-fb-data.s3.amazonaws.com/forests/v2/global/dinov3_global_chm_v2_ml3/chm/1322101302.tif",
        "source_license": "CC BY 4.0",
        "quadkey": "1322101302",
        "method_version": "earthline-elder-tree-aoi-chmv2-v0.3-local-relative",
        "screen_rank": 4,
        "screen_reference_peak_count": 767,
        "local_canopy_floor_m": 5.0,
        "raw_structural_evidence_score": 39.2034,
        "elder_tree_confidence_pct": 100,
        "confidence_pct": 100,
        "confidence_definition": "Earthline Elder Tree Confidence is a local percentile: how strongly this structure ranks against other detected tree/canopy structures in the same analyzed source tile/AOI. It is not the probability that the tree is ancient, veteran, or a mycorrhizal hub.",
        "height_m": 30.0,
        "emergent_height_m": 10.0,
        "crown_area_proxy_m2": 1259.5,
        "open_context_fraction": 0.0,
        "evidence_limit": "Candidate only; modeled canopy structure is not proof of age or mycorrhizal hub status."
      }
    },
    {
      "type": "Feature",
      "geometry": {
        "type": "Point",
        "coordinates": [
          105.57928383350371,
          20.28971718024818
        ]
      },
      "properties": {
        "record_class": "ELDER_TREE_CANDIDATE",
        "verification_status": "modeled remote-sensing candidate only",
        "source_class": "MODELED_CHMV2",
        "source_name": "WRI/Meta CHMv2",
        "source_url": "https://dataforgood-fb-data.s3.amazonaws.com/forests/v2/global/dinov3_global_chm_v2_ml3/chm/1322101302.tif",
        "source_license": "CC BY 4.0",
        "quadkey": "1322101302",
        "method_version": "earthline-elder-tree-aoi-chmv2-v0.3-local-relative",
        "screen_rank": 2,
        "screen_reference_peak_count": 767,
        "local_canopy_floor_m": 5.0,
        "raw_structural_evidence_score": 38.8207,
        "elder_tree_confidence_pct": 100,
        "confidence_pct": 100,
        "confidence_definition": "Earthline Elder Tree Confidence is a local percentile: how strongly this structure ranks against other detected tree/canopy structures in the same analyzed source tile/AOI. It is not the probability that the tree is ancient, veteran, or a mycorrhizal hub.",
        "height_m": 29.0,
        "emergent_height_m": 9.0,
        "crown_area_proxy_m2": 1108.3,
        "open_context_fraction": 0.0,
        "evidence_limit": "Candidate only; modeled canopy structure is not proof of age or mycorrhizal hub status."
      }
    },
    {
      "type": "Feature",
      "geometry": {
        "type": "Point",
        "coordinates": [
          105.61214625835417,
          20.279472580988493
        ]
      },
      "properties": {
        "record_class": "ELDER_TREE_CANDIDATE",
        "verification_status": "modeled remote-sensing candidate only",
        "source_class": "MODELED_CHMV2",
        "source_name": "WRI/Meta CHMv2",
        "source_url": "https://dataforgood-fb-data.s3.amazonaws.com/forests/v2/global/dinov3_global_chm_v2_ml3/chm/1322101302.tif",
        "source_license": "CC BY 4.0",
        "quadkey": "1322101302",
        "method_version": "earthline-elder-tree-aoi-chmv2-v0.3-local-relative",
        "screen_rank": 9,
        "screen_reference_peak_count": 767,
        "local_canopy_floor_m": 5.0,
        "raw_structural_evidence_score": 39.4581,
        "elder_tree_confidence_pct": 99,
        "confidence_pct": 99,
        "confidence_definition": "Earthline Elder Tree Confidence is a local percentile: how strongly this structure ranks against other detected tree/canopy structures in the same analyzed source tile/AOI. It is not the probability that the tree is ancient, veteran, or a mycorrhizal hub.",
        "height_m": 29.0,
        "emergent_height_m": 11.0,
        "crown_area_proxy_m2": 924.3,
        "open_context_fraction": 0.0,
        "evidence_limit": "Candidate only; modeled canopy structure is not proof of age or mycorrhizal hub status."
      }
    },
    {
      "type": "Feature",
      "geometry": {
        "type": "Point",
        "coordinates": [
          105.57950913906096,
          20.28871086453286
        ]
      },
      "properties": {
        "record_class": "ELDER_TREE_CANDIDATE",
        "verification_status": "modeled remote-sensing candidate only",
        "source_class": "MODELED_CHMV2",
        "source_name": "WRI/Meta CHMv2",
        "source_url": "https://dataforgood-fb-data.s3.amazonaws.com/forests/v2/global/dinov3_global_chm_v2_ml3/chm/1322101302.tif",
        "source_license": "CC BY 4.0",
        "quadkey": "1322101302",
        "method_version": "earthline-elder-tree-aoi-chmv2-v0.3-local-relative",
        "screen_rank": 3,
        "screen_reference_peak_count": 767,
        "local_canopy_floor_m": 5.0,
        "raw_structural_evidence_score": 37.1433,
        "elder_tree_confidence_pct": 100,
        "confidence_pct": 100,
        "confidence_definition": "Earthline Elder Tree Confidence is a local percentile: how strongly this structure ranks against other detected tree/canopy structures in the same analyzed source tile/AOI. It is not the probability that the tree is ancient, veteran, or a mycorrhizal hub.",
        "height_m": 24.0,
        "emergent_height_m": 12.0,
        "crown_area_proxy_m2": 738.9,
        "open_context_fraction": 0.181,
        "evidence_limit": "Candidate only; modeled canopy structure is not proof of age or mycorrhizal hub status."
      }
    }
  ]
}