{
  "type": "FeatureCollection",
  "features": [
    {
      "type": "Feature",
      "geometry": {
        "type": "Point",
        "coordinates": [
          -72.55344808101653,
          44.22580860843933
        ]
      },
      "properties": {
        "record_class": "ELDER_TREE_CANDIDATE",
        "verification_status": "modeled remote-sensing candidate only",
        "source_class": "MODELED_CHMV2",
        "source_name": "WRI/Meta CHMv2",
        "source_url": "https://dataforgood-fb-data.s3.amazonaws.com/forests/v2/global/dinov3_global_chm_v2_ml3/chm/0302330023.tif",
        "source_license": "CC BY 4.0",
        "method_version": "earthline-chmv2-sparse-candidate-v0.1",
        "quadkey": "0302330023",
        "coarse_rank": 1,
        "coarse_score": 1.0,
        "height_m": 22.0,
        "emergent_height_m": 4.0,
        "crown_area_proxy_m2": 947.1,
        "open_context_fraction": 0.0,
        "structure_score": 32.5,
        "evidence_limit": "Modeled canopy structure; not field verified, not LiDAR-confirmed, and not proof of age or mycorrhizal hub status."
      }
    },
    {
      "type": "Feature",
      "geometry": {
        "type": "Point",
        "coordinates": [
          -72.54781544208525,
          44.127016454794344
        ]
      },
      "properties": {
        "record_class": "ELDER_TREE_CANDIDATE",
        "verification_status": "modeled remote-sensing candidate only",
        "source_class": "MODELED_CHMV2",
        "source_name": "WRI/Meta CHMv2",
        "source_url": "https://dataforgood-fb-data.s3.amazonaws.com/forests/v2/global/dinov3_global_chm_v2_ml3/chm/0302330023.tif",
        "source_license": "CC BY 4.0",
        "method_version": "earthline-chmv2-sparse-candidate-v0.1",
        "quadkey": "0302330023",
        "coarse_rank": 2,
        "coarse_score": 0.99999,
        "height_m": 16.0,
        "emergent_height_m": 16.0,
        "crown_area_proxy_m2": 49.9,
        "open_context_fraction": 0.922,
        "structure_score": 22.54,
        "evidence_limit": "Modeled canopy structure; not field verified, not LiDAR-confirmed, and not proof of age or mycorrhizal hub status."
      }
    },
    {
      "type": "Feature",
      "geometry": {
        "type": "Point",
        "coordinates": [
          -72.66210973262785,
          44.154079751853374
        ]
      },
      "properties": {
        "record_class": "ELDER_TREE_CANDIDATE",
        "verification_status": "modeled remote-sensing candidate only",
        "source_class": "MODELED_CHMV2",
        "source_name": "WRI/Meta CHMv2",
        "source_url": "https://dataforgood-fb-data.s3.amazonaws.com/forests/v2/global/dinov3_global_chm_v2_ml3/chm/0302330023.tif",
        "source_license": "CC BY 4.0",
        "method_version": "earthline-chmv2-sparse-candidate-v0.1",
        "quadkey": "0302330023",
        "coarse_rank": 3,
        "coarse_score": 0.9999,
        "height_m": 16.0,
        "emergent_height_m": 16.0,
        "crown_area_proxy_m2": 560.6,
        "open_context_fraction": 0.633,
        "structure_score": 34.15,
        "evidence_limit": "Modeled canopy structure; not field verified, not LiDAR-confirmed, and not proof of age or mycorrhizal hub status."
      }
    },
    {
      "type": "Feature",
      "geometry": {
        "type": "Point",
        "coordinates": [
          -72.46988117694853,
          44.28742069002034
        ]
      },
      "properties": {
        "record_class": "ELDER_TREE_CANDIDATE",
        "verification_status": "modeled remote-sensing candidate only",
        "source_class": "MODELED_CHMV2",
        "source_name": "WRI/Meta CHMv2",
        "source_url": "https://dataforgood-fb-data.s3.amazonaws.com/forests/v2/global/dinov3_global_chm_v2_ml3/chm/0302330023.tif",
        "source_license": "CC BY 4.0",
        "method_version": "earthline-chmv2-sparse-candidate-v0.1",
        "quadkey": "0302330023",
        "coarse_rank": 4,
        "coarse_score": 0.99983,
        "height_m": 35.0,
        "emergent_height_m": 7.0,
        "crown_area_proxy_m2": 1731.7,
        "open_context_fraction": 0.0,
        "structure_score": 40.3,
        "evidence_limit": "Modeled canopy structure; not field verified, not LiDAR-confirmed, and not proof of age or mycorrhizal hub status."
      }
    },
    {
      "type": "Feature",
      "geometry": {
        "type": "Point",
        "coordinates": [
          -72.4886780977249,
          44.14869887811949
        ]
      },
      "properties": {
        "record_class": "ELDER_TREE_CANDIDATE",
        "verification_status": "modeled remote-sensing candidate only",
        "source_class": "MODELED_CHMV2",
        "source_name": "WRI/Meta CHMv2",
        "source_url": "https://dataforgood-fb-data.s3.amazonaws.com/forests/v2/global/dinov3_global_chm_v2_ml3/chm/0302330023.tif",
        "source_license": "CC BY 4.0",
        "method_version": "earthline-chmv2-sparse-candidate-v0.1",
        "quadkey": "0302330023",
        "coarse_rank": 5,
        "coarse_score": 0.99979,
        "height_m": 31.0,
        "emergent_height_m": 6.0,
        "crown_area_proxy_m2": 1231.0,
        "open_context_fraction": 0.233,
        "structure_score": 38.78,
        "evidence_limit": "Modeled canopy structure; not field verified, not LiDAR-confirmed, and not proof of age or mycorrhizal hub status."
      }
    },
    {
      "type": "Feature",
      "geometry": {
        "type": "Point",
        "coordinates": [
          -72.76268184185028,
          44.24484162846221
        ]
      },
      "properties": {
        "record_class": "ELDER_TREE_CANDIDATE",
        "verification_status": "modeled remote-sensing candidate only",
        "source_class": "MODELED_CHMV2",
        "source_name": "WRI/Meta CHMv2",
        "source_url": "https://dataforgood-fb-data.s3.amazonaws.com/forests/v2/global/dinov3_global_chm_v2_ml3/chm/0302330023.tif",
        "source_license": "CC BY 4.0",
        "method_version": "earthline-chmv2-sparse-candidate-v0.1",
        "quadkey": "0302330023",
        "coarse_rank": 6,
        "coarse_score": 0.99967,
        "height_m": 29.0,
        "emergent_height_m": 10.0,
        "crown_area_proxy_m2": 728.9,
        "open_context_fraction": 0.173,
        "structure_score": 38.46,
        "evidence_limit": "Modeled canopy structure; not field verified, not LiDAR-confirmed, and not proof of age or mycorrhizal hub status."
      }
    },
    {
      "type": "Feature",
      "geometry": {
        "type": "Point",
        "coordinates": [
          -72.49551236629486,
          44.23357322511269
        ]
      },
      "properties": {
        "record_class": "ELDER_TREE_CANDIDATE",
        "verification_status": "modeled remote-sensing candidate only",
        "source_class": "MODELED_CHMV2",
        "source_name": "WRI/Meta CHMv2",
        "source_url": "https://dataforgood-fb-data.s3.amazonaws.com/forests/v2/global/dinov3_global_chm_v2_ml3/chm/0302330023.tif",
        "source_license": "CC BY 4.0",
        "method_version": "earthline-chmv2-sparse-candidate-v0.1",
        "quadkey": "0302330023",
        "coarse_rank": 7,
        "coarse_score": 0.99967,
        "height_m": 32.0,
        "emergent_height_m": 3.0,
        "crown_area_proxy_m2": 1747.4,
        "open_context_fraction": 0.0,
        "structure_score": 36.35,
        "evidence_limit": "Modeled canopy structure; not field verified, not LiDAR-confirmed, and not proof of age or mycorrhizal hub status."
      }
    },
    {
      "type": "Feature",
      "geometry": {
        "type": "Point",
        "coordinates": [
          -72.50676691532134,
          44.124344099498515
        ]
      },
      "properties": {
        "record_class": "ELDER_TREE_CANDIDATE",
        "verification_status": "modeled remote-sensing candidate only",
        "source_class": "MODELED_CHMV2",
        "source_name": "WRI/Meta CHMv2",
        "source_url": "https://dataforgood-fb-data.s3.amazonaws.com/forests/v2/global/dinov3_global_chm_v2_ml3/chm/0302330023.tif",
        "source_license": "CC BY 4.0",
        "method_version": "earthline-chmv2-sparse-candidate-v0.1",
        "quadkey": "0302330023",
        "coarse_rank": 8,
        "coarse_score": 0.99964,
        "height_m": 32.0,
        "emergent_height_m": 4.0,
        "crown_area_proxy_m2": 1747.4,
        "open_context_fraction": 0.0,
        "structure_score": 37.0,
        "evidence_limit": "Modeled canopy structure; not field verified, not LiDAR-confirmed, and not proof of age or mycorrhizal hub status."
      }
    },
    {
      "type": "Feature",
      "geometry": {
        "type": "Point",
        "coordinates": [
          -72.76426970958711,
          44.198116722872
        ]
      },
      "properties": {
        "record_class": "ELDER_TREE_CANDIDATE",
        "verification_status": "modeled remote-sensing candidate only",
        "source_class": "MODELED_CHMV2",
        "source_name": "WRI/Meta CHMv2",
        "source_url": "https://dataforgood-fb-data.s3.amazonaws.com/forests/v2/global/dinov3_global_chm_v2_ml3/chm/0302330023.tif",
        "source_license": "CC BY 4.0",
        "method_version": "earthline-chmv2-sparse-candidate-v0.1",
        "quadkey": "0302330023",
        "coarse_rank": 9,
        "coarse_score": 0.99964,
        "height_m": 30.0,
        "emergent_height_m": 7.0,
        "crown_area_proxy_m2": 1132.6,
        "open_context_fraction": 0.0,
        "structure_score": 38.05,
        "evidence_limit": "Modeled canopy structure; not field verified, not LiDAR-confirmed, and not proof of age or mycorrhizal hub status."
      }
    },
    {
      "type": "Feature",
      "geometry": {
        "type": "Point",
        "coordinates": [
          -72.5010699033737,
          44.23255081435056
        ]
      },
      "properties": {
        "record_class": "ELDER_TREE_CANDIDATE",
        "verification_status": "modeled remote-sensing candidate only",
        "source_class": "MODELED_CHMV2",
        "source_name": "WRI/Meta CHMv2",
        "source_url": "https://dataforgood-fb-data.s3.amazonaws.com/forests/v2/global/dinov3_global_chm_v2_ml3/chm/0302330023.tif",
        "source_license": "CC BY 4.0",
        "method_version": "earthline-chmv2-sparse-candidate-v0.1",
        "quadkey": "0302330023",
        "coarse_rank": 10,
        "coarse_score": 0.99954,
        "height_m": 35.0,
        "emergent_height_m": 11.0,
        "crown_area_proxy_m2": 958.6,
        "open_context_fraction": 0.057,
        "structure_score": 43.13,
        "evidence_limit": "Modeled canopy structure; not field verified, not LiDAR-confirmed, and not proof of age or mycorrhizal hub status."
      }
    },
    {
      "type": "Feature",
      "geometry": {
        "type": "Point",
        "coordinates": [
          -72.56228864192963,
          44.26207057886528
        ]
      },
      "properties": {
        "record_class": "ELDER_TREE_CANDIDATE",
        "verification_status": "modeled remote-sensing candidate only",
        "source_class": "MODELED_CHMV2",
        "source_name": "WRI/Meta CHMv2",
        "source_url": "https://dataforgood-fb-data.s3.amazonaws.com/forests/v2/global/dinov3_global_chm_v2_ml3/chm/0302330023.tif",
        "source_license": "CC BY 4.0",
        "method_version": "earthline-chmv2-sparse-candidate-v0.1",
        "quadkey": "0302330023",
        "coarse_rank": 11,
        "coarse_score": 0.99954,
        "height_m": 28.0,
        "emergent_height_m": 2.0,
        "crown_area_proxy_m2": 1747.4,
        "open_context_fraction": 0.0,
        "structure_score": 33.9,
        "evidence_limit": "Modeled canopy structure; not field verified, not LiDAR-confirmed, and not proof of age or mycorrhizal hub status."
      }
    },
    {
      "type": "Feature",
      "geometry": {
        "type": "Point",
        "coordinates": [
          -72.50803291797637,
          44.23455718260674
        ]
      },
      "properties": {
        "record_class": "ELDER_TREE_CANDIDATE",
        "verification_status": "modeled remote-sensing candidate only",
        "source_class": "MODELED_CHMV2",
        "source_name": "WRI/Meta CHMv2",
        "source_url": "https://dataforgood-fb-data.s3.amazonaws.com/forests/v2/global/dinov3_global_chm_v2_ml3/chm/0302330023.tif",
        "source_license": "CC BY 4.0",
        "method_version": "earthline-chmv2-sparse-candidate-v0.1",
        "quadkey": "0302330023",
        "coarse_rank": 12,
        "coarse_score": 0.99954,
        "height_m": 36.0,
        "emergent_height_m": 6.0,
        "crown_area_proxy_m2": 1730.2,
        "open_context_fraction": 0.0,
        "structure_score": 40.1,
        "evidence_limit": "Modeled canopy structure; not field verified, not LiDAR-confirmed, and not proof of age or mycorrhizal hub status."
      }
    },
    {
      "type": "Feature",
      "geometry": {
        "type": "Point",
        "coordinates": [
          -72.48721897602081,
          44.19413989590507
        ]
      },
      "properties": {
        "record_class": "ELDER_TREE_CANDIDATE",
        "verification_status": "modeled remote-sensing candidate only",
        "source_class": "MODELED_CHMV2",
        "source_name": "WRI/Meta CHMv2",
        "source_url": "https://dataforgood-fb-data.s3.amazonaws.com/forests/v2/global/dinov3_global_chm_v2_ml3/chm/0302330023.tif",
        "source_license": "CC BY 4.0",
        "method_version": "earthline-chmv2-sparse-candidate-v0.1",
        "quadkey": "0302330023",
        "coarse_rank": 13,
        "coarse_score": 0.99952,
        "height_m": 28.0,
        "emergent_height_m": 7.0,
        "crown_area_proxy_m2": 1375.1,
        "open_context_fraction": 0.0,
        "structure_score": 37.15,
        "evidence_limit": "Modeled canopy structure; not field verified, not LiDAR-confirmed, and not proof of age or mycorrhizal hub status."
      }
    },
    {
      "type": "Feature",
      "geometry": {
        "type": "Point",
        "coordinates": [
          -72.43781268596649,
          44.28425636447088
        ]
      },
      "properties": {
        "record_class": "ELDER_TREE_CANDIDATE",
        "verification_status": "modeled remote-sensing candidate only",
        "source_class": "MODELED_CHMV2",
        "source_name": "WRI/Meta CHMv2",
        "source_url": "https://dataforgood-fb-data.s3.amazonaws.com/forests/v2/global/dinov3_global_chm_v2_ml3/chm/0302330023.tif",
        "source_license": "CC BY 4.0",
        "method_version": "earthline-chmv2-sparse-candidate-v0.1",
        "quadkey": "0302330023",
        "coarse_rank": 14,
        "coarse_score": 0.99948,
        "height_m": 34.0,
        "emergent_height_m": 7.0,
        "crown_area_proxy_m2": 1706.0,
        "open_context_fraction": 0.0,
        "structure_score": 39.85,
        "evidence_limit": "Modeled canopy structure; not field verified, not LiDAR-confirmed, and not proof of age or mycorrhizal hub status."
      }
    },
    {
      "type": "Feature",
      "geometry": {
        "type": "Point",
        "coordinates": [
          -72.57719099521637,
          44.28344989502355
        ]
      },
      "properties": {
        "record_class": "ELDER_TREE_CANDIDATE",
        "verification_status": "modeled remote-sensing candidate only",
        "source_class": "MODELED_CHMV2",
        "source_name": "WRI/Meta CHMv2",
        "source_url": "https://dataforgood-fb-data.s3.amazonaws.com/forests/v2/global/dinov3_global_chm_v2_ml3/chm/0302330023.tif",
        "source_license": "CC BY 4.0",
        "method_version": "earthline-chmv2-sparse-candidate-v0.1",
        "quadkey": "0302330023",
        "coarse_rank": 15,
        "coarse_score": 0.99945,
        "height_m": 28.0,
        "emergent_height_m": 10.0,
        "crown_area_proxy_m2": 1075.5,
        "open_context_fraction": 0.221,
        "structure_score": 39.98,
        "evidence_limit": "Modeled canopy structure; not field verified, not LiDAR-confirmed, and not proof of age or mycorrhizal hub status."
      }
    },
    {
      "type": "Feature",
      "geometry": {
        "type": "Point",
        "coordinates": [
          -72.46807873249053,
          44.24720110949277
        ]
      },
      "properties": {
        "record_class": "ELDER_TREE_CANDIDATE",
        "verification_status": "modeled remote-sensing candidate only",
        "source_class": "MODELED_CHMV2",
        "source_name": "WRI/Meta CHMv2",
        "source_url": "https://dataforgood-fb-data.s3.amazonaws.com/forests/v2/global/dinov3_global_chm_v2_ml3/chm/0302330023.tif",
        "source_license": "CC BY 4.0",
        "method_version": "earthline-chmv2-sparse-candidate-v0.1",
        "quadkey": "0302330023",
        "coarse_rank": 16,
        "coarse_score": 0.99943,
        "height_m": 39.0,
        "emergent_height_m": 7.0,
        "crown_area_proxy_m2": 1579.0,
        "open_context_fraction": 0.027,
        "structure_score": 42.21,
        "evidence_limit": "Modeled canopy structure; not field verified, not LiDAR-confirmed, and not proof of age or mycorrhizal hub status."
      }
    },
    {
      "type": "Feature",
      "geometry": {
        "type": "Point",
        "coordinates": [
          -72.75646984577179,
          44.324834357032
        ]
      },
      "properties": {
        "record_class": "ELDER_TREE_CANDIDATE",
        "verification_status": "modeled remote-sensing candidate only",
        "source_class": "MODELED_CHMV2",
        "source_name": "WRI/Meta CHMv2",
        "source_url": "https://dataforgood-fb-data.s3.amazonaws.com/forests/v2/global/dinov3_global_chm_v2_ml3/chm/0302330023.tif",
        "source_license": "CC BY 4.0",
        "method_version": "earthline-chmv2-sparse-candidate-v0.1",
        "quadkey": "0302330023",
        "coarse_rank": 17,
        "coarse_score": 0.99936,
        "height_m": 30.0,
        "emergent_height_m": 8.0,
        "crown_area_proxy_m2": 1533.4,
        "open_context_fraction": 0.0,
        "structure_score": 38.7,
        "evidence_limit": "Modeled canopy structure; not field verified, not LiDAR-confirmed, and not proof of age or mycorrhizal hub status."
      }
    },
    {
      "type": "Feature",
      "geometry": {
        "type": "Point",
        "coordinates": [
          -72.74987161159515,
          44.33791161272314
        ]
      },
      "properties": {
        "record_class": "ELDER_TREE_CANDIDATE",
        "verification_status": "modeled remote-sensing candidate only",
        "source_class": "MODELED_CHMV2",
        "source_name": "WRI/Meta CHMv2",
        "source_url": "https://dataforgood-fb-data.s3.amazonaws.com/forests/v2/global/dinov3_global_chm_v2_ml3/chm/0302330023.tif",
        "source_license": "CC BY 4.0",
        "method_version": "earthline-chmv2-sparse-candidate-v0.1",
        "quadkey": "0302330023",
        "coarse_rank": 18,
        "coarse_score": 0.99933,
        "height_m": 28.0,
        "emergent_height_m": 3.0,
        "crown_area_proxy_m2": 1747.4,
        "open_context_fraction": 0.0,
        "structure_score": 34.55,
        "evidence_limit": "Modeled canopy structure; not field verified, not LiDAR-confirmed, and not proof of age or mycorrhizal hub status."
      }
    },
    {
      "type": "Feature",
      "geometry": {
        "type": "Point",
        "coordinates": [
          -72.56846845149994,
          44.27148212365428
        ]
      },
      "properties": {
        "record_class": "ELDER_TREE_CANDIDATE",
        "verification_status": "modeled remote-sensing candidate only",
        "source_class": "MODELED_CHMV2",
        "source_name": "WRI/Meta CHMv2",
        "source_url": "https://dataforgood-fb-data.s3.amazonaws.com/forests/v2/global/dinov3_global_chm_v2_ml3/chm/0302330023.tif",
        "source_license": "CC BY 4.0",
        "method_version": "earthline-chmv2-sparse-candidate-v0.1",
        "quadkey": "0302330023",
        "coarse_rank": 19,
        "coarse_score": 0.99932,
        "height_m": 32.0,
        "emergent_height_m": 4.0,
        "crown_area_proxy_m2": 1728.8,
        "open_context_fraction": 0.0,
        "structure_score": 37.0,
        "evidence_limit": "Modeled canopy structure; not field verified, not LiDAR-confirmed, and not proof of age or mycorrhizal hub status."
      }
    },
    {
      "type": "Feature",
      "geometry": {
        "type": "Point",
        "coordinates": [
          -72.73997962474824,
          44.12858746603204
        ]
      },
      "properties": {
        "record_class": "ELDER_TREE_CANDIDATE",
        "verification_status": "modeled remote-sensing candidate only",
        "source_class": "MODELED_CHMV2",
        "source_name": "WRI/Meta CHMv2",
        "source_url": "https://dataforgood-fb-data.s3.amazonaws.com/forests/v2/global/dinov3_global_chm_v2_ml3/chm/0302330023.tif",
        "source_license": "CC BY 4.0",
        "method_version": "earthline-chmv2-sparse-candidate-v0.1",
        "quadkey": "0302330023",
        "coarse_rank": 20,
        "coarse_score": 0.99931,
        "height_m": 25.0,
        "emergent_height_m": 8.0,
        "crown_area_proxy_m2": 1114.0,
        "open_context_fraction": 0.2,
        "structure_score": 37.25,
        "evidence_limit": "Modeled canopy structure; not field verified, not LiDAR-confirmed, and not proof of age or mycorrhizal hub status."
      }
    }
  ]
}