{
  "type": "FeatureCollection",
  "features": [
    {
      "type": "Feature",
      "geometry": {
        "type": "Point",
        "coordinates": [
          -0.688367486000061,
          51.576432781052546
        ]
      },
      "properties": {
        "record_class": "ELDER_TREE_CANDIDATE",
        "verification_status": "modeled remote-sensing candidate only",
        "source_class": "MODELED_CHMV2",
        "source_name": "WRI/Meta CHMv2",
        "source_url": "https://dataforgood-fb-data.s3.amazonaws.com/forests/v2/global/dinov3_global_chm_v2_ml3/chm/0313131310.tif",
        "source_license": "CC BY 4.0",
        "method_version": "earthline-chmv2-sparse-candidate-v0.1",
        "quadkey": "0313131310",
        "coarse_rank": 1,
        "coarse_score": 1.0,
        "height_m": 34.0,
        "emergent_height_m": 2.0,
        "crown_area_proxy_m2": 1747.4,
        "open_context_fraction": 0.0,
        "structure_score": 36.6,
        "evidence_limit": "Modeled canopy structure; not field verified, not LiDAR-confirmed, and not proof of age or mycorrhizal hub status."
      }
    },
    {
      "type": "Feature",
      "geometry": {
        "type": "Point",
        "coordinates": [
          -0.6466430425643921,
          51.589359516863425
        ]
      },
      "properties": {
        "record_class": "ELDER_TREE_CANDIDATE",
        "verification_status": "modeled remote-sensing candidate only",
        "source_class": "MODELED_CHMV2",
        "source_name": "WRI/Meta CHMv2",
        "source_url": "https://dataforgood-fb-data.s3.amazonaws.com/forests/v2/global/dinov3_global_chm_v2_ml3/chm/0313131310.tif",
        "source_license": "CC BY 4.0",
        "method_version": "earthline-chmv2-sparse-candidate-v0.1",
        "quadkey": "0313131310",
        "coarse_rank": 2,
        "coarse_score": 0.99998,
        "height_m": 36.0,
        "emergent_height_m": 4.0,
        "crown_area_proxy_m2": 1747.4,
        "open_context_fraction": 0.0,
        "structure_score": 38.8,
        "evidence_limit": "Modeled canopy structure; not field verified, not LiDAR-confirmed, and not proof of age or mycorrhizal hub status."
      }
    },
    {
      "type": "Feature",
      "geometry": {
        "type": "Point",
        "coordinates": [
          -0.4406601190567016,
          51.54061339241617
        ]
      },
      "properties": {
        "record_class": "ELDER_TREE_CANDIDATE",
        "verification_status": "modeled remote-sensing candidate only",
        "source_class": "MODELED_CHMV2",
        "source_name": "WRI/Meta CHMv2",
        "source_url": "https://dataforgood-fb-data.s3.amazonaws.com/forests/v2/global/dinov3_global_chm_v2_ml3/chm/0313131310.tif",
        "source_license": "CC BY 4.0",
        "method_version": "earthline-chmv2-sparse-candidate-v0.1",
        "quadkey": "0313131310",
        "coarse_rank": 3,
        "coarse_score": 0.99992,
        "height_m": 32.0,
        "emergent_height_m": 6.0,
        "crown_area_proxy_m2": 1238.1,
        "open_context_fraction": 0.0,
        "structure_score": 38.3,
        "evidence_limit": "Modeled canopy structure; not field verified, not LiDAR-confirmed, and not proof of age or mycorrhizal hub status."
      }
    },
    {
      "type": "Feature",
      "geometry": {
        "type": "Point",
        "coordinates": [
          -0.5794805288314819,
          51.61666756516267
        ]
      },
      "properties": {
        "record_class": "ELDER_TREE_CANDIDATE",
        "verification_status": "modeled remote-sensing candidate only",
        "source_class": "MODELED_CHMV2",
        "source_name": "WRI/Meta CHMv2",
        "source_url": "https://dataforgood-fb-data.s3.amazonaws.com/forests/v2/global/dinov3_global_chm_v2_ml3/chm/0313131310.tif",
        "source_license": "CC BY 4.0",
        "method_version": "earthline-chmv2-sparse-candidate-v0.1",
        "quadkey": "0313131310",
        "coarse_rank": 4,
        "coarse_score": 0.99991,
        "height_m": 34.0,
        "emergent_height_m": 4.0,
        "crown_area_proxy_m2": 1747.4,
        "open_context_fraction": 0.0,
        "structure_score": 37.9,
        "evidence_limit": "Modeled canopy structure; not field verified, not LiDAR-confirmed, and not proof of age or mycorrhizal hub status."
      }
    },
    {
      "type": "Feature",
      "geometry": {
        "type": "Point",
        "coordinates": [
          -0.5434209108352661,
          51.57896641766349
        ]
      },
      "properties": {
        "record_class": "ELDER_TREE_CANDIDATE",
        "verification_status": "modeled remote-sensing candidate only",
        "source_class": "MODELED_CHMV2",
        "source_name": "WRI/Meta CHMv2",
        "source_url": "https://dataforgood-fb-data.s3.amazonaws.com/forests/v2/global/dinov3_global_chm_v2_ml3/chm/0313131310.tif",
        "source_license": "CC BY 4.0",
        "method_version": "earthline-chmv2-sparse-candidate-v0.1",
        "quadkey": "0313131310",
        "coarse_rank": 5,
        "coarse_score": 0.99982,
        "height_m": 33.0,
        "emergent_height_m": 2.0,
        "crown_area_proxy_m2": 1747.4,
        "open_context_fraction": 0.0,
        "structure_score": 36.15,
        "evidence_limit": "Modeled canopy structure; not field verified, not LiDAR-confirmed, and not proof of age or mycorrhizal hub status."
      }
    },
    {
      "type": "Feature",
      "geometry": {
        "type": "Point",
        "coordinates": [
          -0.6149822473526001,
          51.57267873873317
        ]
      },
      "properties": {
        "record_class": "ELDER_TREE_CANDIDATE",
        "verification_status": "modeled remote-sensing candidate only",
        "source_class": "MODELED_CHMV2",
        "source_name": "WRI/Meta CHMv2",
        "source_url": "https://dataforgood-fb-data.s3.amazonaws.com/forests/v2/global/dinov3_global_chm_v2_ml3/chm/0313131310.tif",
        "source_license": "CC BY 4.0",
        "method_version": "earthline-chmv2-sparse-candidate-v0.1",
        "quadkey": "0313131310",
        "coarse_rank": 6,
        "coarse_score": 0.99979,
        "height_m": 34.0,
        "emergent_height_m": 3.0,
        "crown_area_proxy_m2": 1747.4,
        "open_context_fraction": 0.0,
        "structure_score": 37.25,
        "evidence_limit": "Modeled canopy structure; not field verified, not LiDAR-confirmed, and not proof of age or mycorrhizal hub status."
      }
    },
    {
      "type": "Feature",
      "geometry": {
        "type": "Point",
        "coordinates": [
          -0.604071021080017,
          51.454204134699204
        ]
      },
      "properties": {
        "record_class": "ELDER_TREE_CANDIDATE",
        "verification_status": "modeled remote-sensing candidate only",
        "source_class": "MODELED_CHMV2",
        "source_name": "WRI/Meta CHMv2",
        "source_url": "https://dataforgood-fb-data.s3.amazonaws.com/forests/v2/global/dinov3_global_chm_v2_ml3/chm/0313131310.tif",
        "source_license": "CC BY 4.0",
        "method_version": "earthline-chmv2-sparse-candidate-v0.1",
        "quadkey": "0313131310",
        "coarse_rank": 7,
        "coarse_score": 0.99976,
        "height_m": 30.0,
        "emergent_height_m": 2.0,
        "crown_area_proxy_m2": 1747.4,
        "open_context_fraction": 0.0,
        "structure_score": 34.8,
        "evidence_limit": "Modeled canopy structure; not field verified, not LiDAR-confirmed, and not proof of age or mycorrhizal hub status."
      }
    },
    {
      "type": "Feature",
      "geometry": {
        "type": "Point",
        "coordinates": [
          -0.47475636005401617,
          51.41329689543488
        ]
      },
      "properties": {
        "record_class": "ELDER_TREE_CANDIDATE",
        "verification_status": "modeled remote-sensing candidate only",
        "source_class": "MODELED_CHMV2",
        "source_name": "WRI/Meta CHMv2",
        "source_url": "https://dataforgood-fb-data.s3.amazonaws.com/forests/v2/global/dinov3_global_chm_v2_ml3/chm/0313131310.tif",
        "source_license": "CC BY 4.0",
        "method_version": "earthline-chmv2-sparse-candidate-v0.1",
        "quadkey": "0313131310",
        "coarse_rank": 8,
        "coarse_score": 0.99966,
        "height_m": 34.0,
        "emergent_height_m": 8.0,
        "crown_area_proxy_m2": 870.1,
        "open_context_fraction": 0.0,
        "structure_score": 40.5,
        "evidence_limit": "Modeled canopy structure; not field verified, not LiDAR-confirmed, and not proof of age or mycorrhizal hub status."
      }
    },
    {
      "type": "Feature",
      "geometry": {
        "type": "Point",
        "coordinates": [
          -0.5173927545547484,
          51.57390567121795
        ]
      },
      "properties": {
        "record_class": "ELDER_TREE_CANDIDATE",
        "verification_status": "modeled remote-sensing candidate only",
        "source_class": "MODELED_CHMV2",
        "source_name": "WRI/Meta CHMv2",
        "source_url": "https://dataforgood-fb-data.s3.amazonaws.com/forests/v2/global/dinov3_global_chm_v2_ml3/chm/0313131310.tif",
        "source_license": "CC BY 4.0",
        "method_version": "earthline-chmv2-sparse-candidate-v0.1",
        "quadkey": "0313131310",
        "coarse_rank": 9,
        "coarse_score": 0.99961,
        "height_m": 32.0,
        "emergent_height_m": 2.0,
        "crown_area_proxy_m2": 1747.4,
        "open_context_fraction": 0.0,
        "structure_score": 35.7,
        "evidence_limit": "Modeled canopy structure; not field verified, not LiDAR-confirmed, and not proof of age or mycorrhizal hub status."
      }
    },
    {
      "type": "Feature",
      "geometry": {
        "type": "Point",
        "coordinates": [
          -0.526244044303894,
          51.59831740701392
        ]
      },
      "properties": {
        "record_class": "ELDER_TREE_CANDIDATE",
        "verification_status": "modeled remote-sensing candidate only",
        "source_class": "MODELED_CHMV2",
        "source_name": "WRI/Meta CHMv2",
        "source_url": "https://dataforgood-fb-data.s3.amazonaws.com/forests/v2/global/dinov3_global_chm_v2_ml3/chm/0313131310.tif",
        "source_license": "CC BY 4.0",
        "method_version": "earthline-chmv2-sparse-candidate-v0.1",
        "quadkey": "0313131310",
        "coarse_rank": 10,
        "coarse_score": 0.99948,
        "height_m": 30.0,
        "emergent_height_m": 4.0,
        "crown_area_proxy_m2": 1596.2,
        "open_context_fraction": 0.0,
        "structure_score": 36.1,
        "evidence_limit": "Modeled canopy structure; not field verified, not LiDAR-confirmed, and not proof of age or mycorrhizal hub status."
      }
    },
    {
      "type": "Feature",
      "geometry": {
        "type": "Point",
        "coordinates": [
          -0.5701464414596558,
          51.59598479324533
        ]
      },
      "properties": {
        "record_class": "ELDER_TREE_CANDIDATE",
        "verification_status": "modeled remote-sensing candidate only",
        "source_class": "MODELED_CHMV2",
        "source_name": "WRI/Meta CHMv2",
        "source_url": "https://dataforgood-fb-data.s3.amazonaws.com/forests/v2/global/dinov3_global_chm_v2_ml3/chm/0313131310.tif",
        "source_license": "CC BY 4.0",
        "method_version": "earthline-chmv2-sparse-candidate-v0.1",
        "quadkey": "0313131310",
        "coarse_rank": 11,
        "coarse_score": 0.9994,
        "height_m": 32.0,
        "emergent_height_m": 3.0,
        "crown_area_proxy_m2": 1747.4,
        "open_context_fraction": 0.0,
        "structure_score": 36.35,
        "evidence_limit": "Modeled canopy structure; not field verified, not LiDAR-confirmed, and not proof of age or mycorrhizal hub status."
      }
    },
    {
      "type": "Feature",
      "geometry": {
        "type": "Point",
        "coordinates": [
          -0.5239909887313843,
          51.472137985836845
        ]
      },
      "properties": {
        "record_class": "ELDER_TREE_CANDIDATE",
        "verification_status": "modeled remote-sensing candidate only",
        "source_class": "MODELED_CHMV2",
        "source_name": "WRI/Meta CHMv2",
        "source_url": "https://dataforgood-fb-data.s3.amazonaws.com/forests/v2/global/dinov3_global_chm_v2_ml3/chm/0313131310.tif",
        "source_license": "CC BY 4.0",
        "method_version": "earthline-chmv2-sparse-candidate-v0.1",
        "quadkey": "0313131310",
        "coarse_rank": 12,
        "coarse_score": 0.99935,
        "height_m": 36.0,
        "emergent_height_m": 6.0,
        "crown_area_proxy_m2": 1696.0,
        "open_context_fraction": 0.0,
        "structure_score": 40.1,
        "evidence_limit": "Modeled canopy structure; not field verified, not LiDAR-confirmed, and not proof of age or mycorrhizal hub status."
      }
    },
    {
      "type": "Feature",
      "geometry": {
        "type": "Point",
        "coordinates": [
          -0.583299994468689,
          51.60187607833397
        ]
      },
      "properties": {
        "record_class": "ELDER_TREE_CANDIDATE",
        "verification_status": "modeled remote-sensing candidate only",
        "source_class": "MODELED_CHMV2",
        "source_name": "WRI/Meta CHMv2",
        "source_url": "https://dataforgood-fb-data.s3.amazonaws.com/forests/v2/global/dinov3_global_chm_v2_ml3/chm/0313131310.tif",
        "source_license": "CC BY 4.0",
        "method_version": "earthline-chmv2-sparse-candidate-v0.1",
        "quadkey": "0313131310",
        "coarse_rank": 13,
        "coarse_score": 0.99933,
        "height_m": 31.0,
        "emergent_height_m": 3.0,
        "crown_area_proxy_m2": 1747.4,
        "open_context_fraction": 0.0,
        "structure_score": 35.9,
        "evidence_limit": "Modeled canopy structure; not field verified, not LiDAR-confirmed, and not proof of age or mycorrhizal hub status."
      }
    },
    {
      "type": "Feature",
      "geometry": {
        "type": "Point",
        "coordinates": [
          -0.6886786222457886,
          51.61710057661737
        ]
      },
      "properties": {
        "record_class": "ELDER_TREE_CANDIDATE",
        "verification_status": "modeled remote-sensing candidate only",
        "source_class": "MODELED_CHMV2",
        "source_name": "WRI/Meta CHMv2",
        "source_url": "https://dataforgood-fb-data.s3.amazonaws.com/forests/v2/global/dinov3_global_chm_v2_ml3/chm/0313131310.tif",
        "source_license": "CC BY 4.0",
        "method_version": "earthline-chmv2-sparse-candidate-v0.1",
        "quadkey": "0313131310",
        "coarse_rank": 14,
        "coarse_score": 0.99929,
        "height_m": 32.0,
        "emergent_height_m": 3.0,
        "crown_area_proxy_m2": 1684.6,
        "open_context_fraction": 0.0,
        "structure_score": 36.35,
        "evidence_limit": "Modeled canopy structure; not field verified, not LiDAR-confirmed, and not proof of age or mycorrhizal hub status."
      }
    },
    {
      "type": "Feature",
      "geometry": {
        "type": "Point",
        "coordinates": [
          -0.6907814741134644,
          51.46462574312246
        ]
      },
      "properties": {
        "record_class": "ELDER_TREE_CANDIDATE",
        "verification_status": "modeled remote-sensing candidate only",
        "source_class": "MODELED_CHMV2",
        "source_name": "WRI/Meta CHMv2",
        "source_url": "https://dataforgood-fb-data.s3.amazonaws.com/forests/v2/global/dinov3_global_chm_v2_ml3/chm/0313131310.tif",
        "source_license": "CC BY 4.0",
        "method_version": "earthline-chmv2-sparse-candidate-v0.1",
        "quadkey": "0313131310",
        "coarse_rank": 15,
        "coarse_score": 0.99916,
        "height_m": 31.0,
        "emergent_height_m": 3.0,
        "crown_area_proxy_m2": 1747.4,
        "open_context_fraction": 0.0,
        "structure_score": 35.9,
        "evidence_limit": "Modeled canopy structure; not field verified, not LiDAR-confirmed, and not proof of age or mycorrhizal hub status."
      }
    },
    {
      "type": "Feature",
      "geometry": {
        "type": "Point",
        "coordinates": [
          -0.6294339895248413,
          51.44832714343815
        ]
      },
      "properties": {
        "record_class": "ELDER_TREE_CANDIDATE",
        "verification_status": "modeled remote-sensing candidate only",
        "source_class": "MODELED_CHMV2",
        "source_name": "WRI/Meta CHMv2",
        "source_url": "https://dataforgood-fb-data.s3.amazonaws.com/forests/v2/global/dinov3_global_chm_v2_ml3/chm/0313131310.tif",
        "source_license": "CC BY 4.0",
        "method_version": "earthline-chmv2-sparse-candidate-v0.1",
        "quadkey": "0313131310",
        "coarse_rank": 16,
        "coarse_score": 0.99912,
        "height_m": 34.0,
        "emergent_height_m": 6.0,
        "crown_area_proxy_m2": 1634.7,
        "open_context_fraction": 0.0,
        "structure_score": 39.2,
        "evidence_limit": "Modeled canopy structure; not field verified, not LiDAR-confirmed, and not proof of age or mycorrhizal hub status."
      }
    },
    {
      "type": "Feature",
      "geometry": {
        "type": "Point",
        "coordinates": [
          -0.6977230310440065,
          51.58983944862153
        ]
      },
      "properties": {
        "record_class": "ELDER_TREE_CANDIDATE",
        "verification_status": "modeled remote-sensing candidate only",
        "source_class": "MODELED_CHMV2",
        "source_name": "WRI/Meta CHMv2",
        "source_url": "https://dataforgood-fb-data.s3.amazonaws.com/forests/v2/global/dinov3_global_chm_v2_ml3/chm/0313131310.tif",
        "source_license": "CC BY 4.0",
        "method_version": "earthline-chmv2-sparse-candidate-v0.1",
        "quadkey": "0313131310",
        "coarse_rank": 17,
        "coarse_score": 0.99901,
        "height_m": 35.0,
        "emergent_height_m": 5.0,
        "crown_area_proxy_m2": 1747.4,
        "open_context_fraction": 0.0,
        "structure_score": 39.0,
        "evidence_limit": "Modeled canopy structure; not field verified, not LiDAR-confirmed, and not proof of age or mycorrhizal hub status."
      }
    },
    {
      "type": "Feature",
      "geometry": {
        "type": "Point",
        "coordinates": [
          -0.5552548170089723,
          51.568244168561996
        ]
      },
      "properties": {
        "record_class": "ELDER_TREE_CANDIDATE",
        "verification_status": "modeled remote-sensing candidate only",
        "source_class": "MODELED_CHMV2",
        "source_name": "WRI/Meta CHMv2",
        "source_url": "https://dataforgood-fb-data.s3.amazonaws.com/forests/v2/global/dinov3_global_chm_v2_ml3/chm/0313131310.tif",
        "source_license": "CC BY 4.0",
        "method_version": "earthline-chmv2-sparse-candidate-v0.1",
        "quadkey": "0313131310",
        "coarse_rank": 18,
        "coarse_score": 0.99897,
        "height_m": 30.0,
        "emergent_height_m": 2.0,
        "crown_area_proxy_m2": 1747.4,
        "open_context_fraction": 0.0,
        "structure_score": 34.8,
        "evidence_limit": "Modeled canopy structure; not field verified, not LiDAR-confirmed, and not proof of age or mycorrhizal hub status."
      }
    },
    {
      "type": "Feature",
      "geometry": {
        "type": "Point",
        "coordinates": [
          -0.6326204538345337,
          51.43241736209599
        ]
      },
      "properties": {
        "record_class": "ELDER_TREE_CANDIDATE",
        "verification_status": "modeled remote-sensing candidate only",
        "source_class": "MODELED_CHMV2",
        "source_name": "WRI/Meta CHMv2",
        "source_url": "https://dataforgood-fb-data.s3.amazonaws.com/forests/v2/global/dinov3_global_chm_v2_ml3/chm/0313131310.tif",
        "source_license": "CC BY 4.0",
        "method_version": "earthline-chmv2-sparse-candidate-v0.1",
        "quadkey": "0313131310",
        "coarse_rank": 19,
        "coarse_score": 0.99893,
        "height_m": 31.0,
        "emergent_height_m": 3.0,
        "crown_area_proxy_m2": 1647.5,
        "open_context_fraction": 0.0,
        "structure_score": 35.9,
        "evidence_limit": "Modeled canopy structure; not field verified, not LiDAR-confirmed, and not proof of age or mycorrhizal hub status."
      }
    },
    {
      "type": "Feature",
      "geometry": {
        "type": "Point",
        "coordinates": [
          -0.6499904394149781,
          51.56267533626145
        ]
      },
      "properties": {
        "record_class": "ELDER_TREE_CANDIDATE",
        "verification_status": "modeled remote-sensing candidate only",
        "source_class": "MODELED_CHMV2",
        "source_name": "WRI/Meta CHMv2",
        "source_url": "https://dataforgood-fb-data.s3.amazonaws.com/forests/v2/global/dinov3_global_chm_v2_ml3/chm/0313131310.tif",
        "source_license": "CC BY 4.0",
        "method_version": "earthline-chmv2-sparse-candidate-v0.1",
        "quadkey": "0313131310",
        "coarse_rank": 20,
        "coarse_score": 0.99889,
        "height_m": 32.0,
        "emergent_height_m": 2.0,
        "crown_area_proxy_m2": 1747.4,
        "open_context_fraction": 0.0,
        "structure_score": 35.7,
        "evidence_limit": "Modeled canopy structure; not field verified, not LiDAR-confirmed, and not proof of age or mycorrhizal hub status."
      }
    }
  ]
}