{
  "type": "FeatureCollection",
  "features": [
    {
      "type": "Feature",
      "geometry": {
        "type": "Point",
        "coordinates": [
          107.46428668498993,
          16.0993865795205
        ]
      },
      "properties": {
        "record_class": "ELDER_TREE_CANDIDATE",
        "verification_status": "modeled remote-sensing candidate only",
        "source_class": "MODELED_CHMV2",
        "source_name": "WRI/Meta CHMv2",
        "source_url": "https://dataforgood-fb-data.s3.amazonaws.com/forests/v2/global/dinov3_global_chm_v2_ml3/chm/1322130003.tif",
        "source_license": "CC BY 4.0",
        "method_version": "earthline-chmv2-sparse-candidate-v0.1",
        "quadkey": "1322130003",
        "coarse_rank": 1,
        "coarse_score": 0.99999,
        "height_m": 27.0,
        "emergent_height_m": 5.0,
        "crown_area_proxy_m2": 1597.6,
        "open_context_fraction": 0.0,
        "structure_score": 35.4,
        "evidence_limit": "Modeled canopy structure; not field verified, not LiDAR-confirmed, and not proof of age or mycorrhizal hub status."
      }
    },
    {
      "type": "Feature",
      "geometry": {
        "type": "Point",
        "coordinates": [
          107.48431742191315,
          16.024205893765725
        ]
      },
      "properties": {
        "record_class": "ELDER_TREE_CANDIDATE",
        "verification_status": "modeled remote-sensing candidate only",
        "source_class": "MODELED_CHMV2",
        "source_name": "WRI/Meta CHMv2",
        "source_url": "https://dataforgood-fb-data.s3.amazonaws.com/forests/v2/global/dinov3_global_chm_v2_ml3/chm/1322130003.tif",
        "source_license": "CC BY 4.0",
        "method_version": "earthline-chmv2-sparse-candidate-v0.1",
        "quadkey": "1322130003",
        "coarse_rank": 2,
        "coarse_score": 0.99999,
        "height_m": 25.0,
        "emergent_height_m": 7.0,
        "crown_area_proxy_m2": 1446.4,
        "open_context_fraction": 0.0,
        "structure_score": 35.8,
        "evidence_limit": "Modeled canopy structure; not field verified, not LiDAR-confirmed, and not proof of age or mycorrhizal hub status."
      }
    },
    {
      "type": "Feature",
      "geometry": {
        "type": "Point",
        "coordinates": [
          107.4597805738449,
          16.09338718987538
        ]
      },
      "properties": {
        "record_class": "ELDER_TREE_CANDIDATE",
        "verification_status": "modeled remote-sensing candidate only",
        "source_class": "MODELED_CHMV2",
        "source_name": "WRI/Meta CHMv2",
        "source_url": "https://dataforgood-fb-data.s3.amazonaws.com/forests/v2/global/dinov3_global_chm_v2_ml3/chm/1322130003.tif",
        "source_license": "CC BY 4.0",
        "method_version": "earthline-chmv2-sparse-candidate-v0.1",
        "quadkey": "1322130003",
        "coarse_rank": 3,
        "coarse_score": 0.99999,
        "height_m": 26.0,
        "emergent_height_m": 13.0,
        "crown_area_proxy_m2": 589.1,
        "open_context_fraction": 0.147,
        "structure_score": 35.46,
        "evidence_limit": "Modeled canopy structure; not field verified, not LiDAR-confirmed, and not proof of age or mycorrhizal hub status."
      }
    },
    {
      "type": "Feature",
      "geometry": {
        "type": "Point",
        "coordinates": [
          107.47313797473907,
          15.995753144029264
        ]
      },
      "properties": {
        "record_class": "ELDER_TREE_CANDIDATE",
        "verification_status": "modeled remote-sensing candidate only",
        "source_class": "MODELED_CHMV2",
        "source_name": "WRI/Meta CHMv2",
        "source_url": "https://dataforgood-fb-data.s3.amazonaws.com/forests/v2/global/dinov3_global_chm_v2_ml3/chm/1322130003.tif",
        "source_license": "CC BY 4.0",
        "method_version": "earthline-chmv2-sparse-candidate-v0.1",
        "quadkey": "1322130003",
        "coarse_rank": 4,
        "coarse_score": 0.99999,
        "height_m": 31.0,
        "emergent_height_m": 9.0,
        "crown_area_proxy_m2": 1747.4,
        "open_context_fraction": 0.0,
        "structure_score": 39.8,
        "evidence_limit": "Modeled canopy structure; not field verified, not LiDAR-confirmed, and not proof of age or mycorrhizal hub status."
      }
    },
    {
      "type": "Feature",
      "geometry": {
        "type": "Point",
        "coordinates": [
          107.474028468132,
          15.97385651567134
        ]
      },
      "properties": {
        "record_class": "ELDER_TREE_CANDIDATE",
        "verification_status": "modeled remote-sensing candidate only",
        "source_class": "MODELED_CHMV2",
        "source_name": "WRI/Meta CHMv2",
        "source_url": "https://dataforgood-fb-data.s3.amazonaws.com/forests/v2/global/dinov3_global_chm_v2_ml3/chm/1322130003.tif",
        "source_license": "CC BY 4.0",
        "method_version": "earthline-chmv2-sparse-candidate-v0.1",
        "quadkey": "1322130003",
        "coarse_rank": 5,
        "coarse_score": 0.99999,
        "height_m": 22.0,
        "emergent_height_m": 4.0,
        "crown_area_proxy_m2": 989.9,
        "open_context_fraction": 0.0,
        "structure_score": 32.5,
        "evidence_limit": "Modeled canopy structure; not field verified, not LiDAR-confirmed, and not proof of age or mycorrhizal hub status."
      }
    },
    {
      "type": "Feature",
      "geometry": {
        "type": "Point",
        "coordinates": [
          107.4888128042221,
          16.12485619522377
        ]
      },
      "properties": {
        "record_class": "ELDER_TREE_CANDIDATE",
        "verification_status": "modeled remote-sensing candidate only",
        "source_class": "MODELED_CHMV2",
        "source_name": "WRI/Meta CHMv2",
        "source_url": "https://dataforgood-fb-data.s3.amazonaws.com/forests/v2/global/dinov3_global_chm_v2_ml3/chm/1322130003.tif",
        "source_license": "CC BY 4.0",
        "method_version": "earthline-chmv2-sparse-candidate-v0.1",
        "quadkey": "1322130003",
        "coarse_rank": 6,
        "coarse_score": 0.99998,
        "height_m": 39.0,
        "emergent_height_m": 10.0,
        "crown_area_proxy_m2": 1747.4,
        "open_context_fraction": 0.0,
        "structure_score": 44.05,
        "evidence_limit": "Modeled canopy structure; not field verified, not LiDAR-confirmed, and not proof of age or mycorrhizal hub status."
      }
    },
    {
      "type": "Feature",
      "geometry": {
        "type": "Point",
        "coordinates": [
          107.47236549854279,
          16.030722951621275
        ]
      },
      "properties": {
        "record_class": "ELDER_TREE_CANDIDATE",
        "verification_status": "modeled remote-sensing candidate only",
        "source_class": "MODELED_CHMV2",
        "source_name": "WRI/Meta CHMv2",
        "source_url": "https://dataforgood-fb-data.s3.amazonaws.com/forests/v2/global/dinov3_global_chm_v2_ml3/chm/1322130003.tif",
        "source_license": "CC BY 4.0",
        "method_version": "earthline-chmv2-sparse-candidate-v0.1",
        "quadkey": "1322130003",
        "coarse_rank": 7,
        "coarse_score": 0.99997,
        "height_m": 25.0,
        "emergent_height_m": 5.0,
        "crown_area_proxy_m2": 1747.4,
        "open_context_fraction": 0.0,
        "structure_score": 34.5,
        "evidence_limit": "Modeled canopy structure; not field verified, not LiDAR-confirmed, and not proof of age or mycorrhizal hub status."
      }
    },
    {
      "type": "Feature",
      "geometry": {
        "type": "Point",
        "coordinates": [
          107.47639954090117,
          16.009139538540435
        ]
      },
      "properties": {
        "record_class": "ELDER_TREE_CANDIDATE",
        "verification_status": "modeled remote-sensing candidate only",
        "source_class": "MODELED_CHMV2",
        "source_name": "WRI/Meta CHMv2",
        "source_url": "https://dataforgood-fb-data.s3.amazonaws.com/forests/v2/global/dinov3_global_chm_v2_ml3/chm/1322130003.tif",
        "source_license": "CC BY 4.0",
        "method_version": "earthline-chmv2-sparse-candidate-v0.1",
        "quadkey": "1322130003",
        "coarse_rank": 8,
        "coarse_score": 0.99996,
        "height_m": 24.0,
        "emergent_height_m": 8.0,
        "crown_area_proxy_m2": 898.6,
        "open_context_fraction": 0.0,
        "structure_score": 36.0,
        "evidence_limit": "Modeled canopy structure; not field verified, not LiDAR-confirmed, and not proof of age or mycorrhizal hub status."
      }
    },
    {
      "type": "Feature",
      "geometry": {
        "type": "Point",
        "coordinates": [
          107.44889080524443,
          16.035528114198126
        ]
      },
      "properties": {
        "record_class": "ELDER_TREE_CANDIDATE",
        "verification_status": "modeled remote-sensing candidate only",
        "source_class": "MODELED_CHMV2",
        "source_name": "WRI/Meta CHMv2",
        "source_url": "https://dataforgood-fb-data.s3.amazonaws.com/forests/v2/global/dinov3_global_chm_v2_ml3/chm/1322130003.tif",
        "source_license": "CC BY 4.0",
        "method_version": "earthline-chmv2-sparse-candidate-v0.1",
        "quadkey": "1322130003",
        "coarse_rank": 9,
        "coarse_score": 0.99996,
        "height_m": 26.0,
        "emergent_height_m": 9.0,
        "crown_area_proxy_m2": 786.0,
        "open_context_fraction": 0.0,
        "structure_score": 37.2,
        "evidence_limit": "Modeled canopy structure; not field verified, not LiDAR-confirmed, and not proof of age or mycorrhizal hub status."
      }
    },
    {
      "type": "Feature",
      "geometry": {
        "type": "Point",
        "coordinates": [
          107.45705544948576,
          15.995227157983095
        ]
      },
      "properties": {
        "record_class": "ELDER_TREE_CANDIDATE",
        "verification_status": "modeled remote-sensing candidate only",
        "source_class": "MODELED_CHMV2",
        "source_name": "WRI/Meta CHMv2",
        "source_url": "https://dataforgood-fb-data.s3.amazonaws.com/forests/v2/global/dinov3_global_chm_v2_ml3/chm/1322130003.tif",
        "source_license": "CC BY 4.0",
        "method_version": "earthline-chmv2-sparse-candidate-v0.1",
        "quadkey": "1322130003",
        "coarse_rank": 10,
        "coarse_score": 0.99995,
        "height_m": 23.0,
        "emergent_height_m": 5.0,
        "crown_area_proxy_m2": 1747.4,
        "open_context_fraction": 0.0,
        "structure_score": 33.6,
        "evidence_limit": "Modeled canopy structure; not field verified, not LiDAR-confirmed, and not proof of age or mycorrhizal hub status."
      }
    },
    {
      "type": "Feature",
      "geometry": {
        "type": "Point",
        "coordinates": [
          107.51194417476653,
          16.136584929941034
        ]
      },
      "properties": {
        "record_class": "ELDER_TREE_CANDIDATE",
        "verification_status": "modeled remote-sensing candidate only",
        "source_class": "MODELED_CHMV2",
        "source_name": "WRI/Meta CHMv2",
        "source_url": "https://dataforgood-fb-data.s3.amazonaws.com/forests/v2/global/dinov3_global_chm_v2_ml3/chm/1322130003.tif",
        "source_license": "CC BY 4.0",
        "method_version": "earthline-chmv2-sparse-candidate-v0.1",
        "quadkey": "1322130003",
        "coarse_rank": 11,
        "coarse_score": 0.99994,
        "height_m": 26.0,
        "emergent_height_m": 6.0,
        "crown_area_proxy_m2": 1520.6,
        "open_context_fraction": 0.058,
        "structure_score": 35.83,
        "evidence_limit": "Modeled canopy structure; not field verified, not LiDAR-confirmed, and not proof of age or mycorrhizal hub status."
      }
    },
    {
      "type": "Feature",
      "geometry": {
        "type": "Point",
        "coordinates": [
          107.47056305408476,
          15.980746528117988
        ]
      },
      "properties": {
        "record_class": "ELDER_TREE_CANDIDATE",
        "verification_status": "modeled remote-sensing candidate only",
        "source_class": "MODELED_CHMV2",
        "source_name": "WRI/Meta CHMv2",
        "source_url": "https://dataforgood-fb-data.s3.amazonaws.com/forests/v2/global/dinov3_global_chm_v2_ml3/chm/1322130003.tif",
        "source_license": "CC BY 4.0",
        "method_version": "earthline-chmv2-sparse-candidate-v0.1",
        "quadkey": "1322130003",
        "coarse_rank": 12,
        "coarse_score": 0.99994,
        "height_m": 31.0,
        "emergent_height_m": 11.0,
        "crown_area_proxy_m2": 1049.8,
        "open_context_fraction": 0.0,
        "structure_score": 41.1,
        "evidence_limit": "Modeled canopy structure; not field verified, not LiDAR-confirmed, and not proof of age or mycorrhizal hub status."
      }
    },
    {
      "type": "Feature",
      "geometry": {
        "type": "Point",
        "coordinates": [
          107.45788156986235,
          15.964346258605811
        ]
      },
      "properties": {
        "record_class": "ELDER_TREE_CANDIDATE",
        "verification_status": "modeled remote-sensing candidate only",
        "source_class": "MODELED_CHMV2",
        "source_name": "WRI/Meta CHMv2",
        "source_url": "https://dataforgood-fb-data.s3.amazonaws.com/forests/v2/global/dinov3_global_chm_v2_ml3/chm/1322130003.tif",
        "source_license": "CC BY 4.0",
        "method_version": "earthline-chmv2-sparse-candidate-v0.1",
        "quadkey": "1322130003",
        "coarse_rank": 13,
        "coarse_score": 0.99993,
        "height_m": 29.0,
        "emergent_height_m": 11.0,
        "crown_area_proxy_m2": 838.7,
        "open_context_fraction": 0.0,
        "structure_score": 40.2,
        "evidence_limit": "Modeled canopy structure; not field verified, not LiDAR-confirmed, and not proof of age or mycorrhizal hub status."
      }
    },
    {
      "type": "Feature",
      "geometry": {
        "type": "Point",
        "coordinates": [
          107.46798813343047,
          16.093284105995057
        ]
      },
      "properties": {
        "record_class": "ELDER_TREE_CANDIDATE",
        "verification_status": "modeled remote-sensing candidate only",
        "source_class": "MODELED_CHMV2",
        "source_name": "WRI/Meta CHMv2",
        "source_url": "https://dataforgood-fb-data.s3.amazonaws.com/forests/v2/global/dinov3_global_chm_v2_ml3/chm/1322130003.tif",
        "source_license": "CC BY 4.0",
        "method_version": "earthline-chmv2-sparse-candidate-v0.1",
        "quadkey": "1322130003",
        "coarse_rank": 14,
        "coarse_score": 0.99993,
        "height_m": 64.0,
        "emergent_height_m": 29.0,
        "crown_area_proxy_m2": 1285.2,
        "open_context_fraction": 0.0,
        "structure_score": 67.65,
        "evidence_limit": "Modeled canopy structure; not field verified, not LiDAR-confirmed, and not proof of age or mycorrhizal hub status."
      }
    },
    {
      "type": "Feature",
      "geometry": {
        "type": "Point",
        "coordinates": [
          107.41688668727873,
          16.283392822246753
        ]
      },
      "properties": {
        "record_class": "ELDER_TREE_CANDIDATE",
        "verification_status": "modeled remote-sensing candidate only",
        "source_class": "MODELED_CHMV2",
        "source_name": "WRI/Meta CHMv2",
        "source_url": "https://dataforgood-fb-data.s3.amazonaws.com/forests/v2/global/dinov3_global_chm_v2_ml3/chm/1322130003.tif",
        "source_license": "CC BY 4.0",
        "method_version": "earthline-chmv2-sparse-candidate-v0.1",
        "quadkey": "1322130003",
        "coarse_rank": 15,
        "coarse_score": 0.99992,
        "height_m": 26.0,
        "emergent_height_m": 10.0,
        "crown_area_proxy_m2": 1654.6,
        "open_context_fraction": 0.0,
        "structure_score": 38.2,
        "evidence_limit": "Modeled canopy structure; not field verified, not LiDAR-confirmed, and not proof of age or mycorrhizal hub status."
      }
    },
    {
      "type": "Feature",
      "geometry": {
        "type": "Point",
        "coordinates": [
          107.47288048267363,
          16.087614410183832
        ]
      },
      "properties": {
        "record_class": "ELDER_TREE_CANDIDATE",
        "verification_status": "modeled remote-sensing candidate only",
        "source_class": "MODELED_CHMV2",
        "source_name": "WRI/Meta CHMv2",
        "source_url": "https://dataforgood-fb-data.s3.amazonaws.com/forests/v2/global/dinov3_global_chm_v2_ml3/chm/1322130003.tif",
        "source_license": "CC BY 4.0",
        "method_version": "earthline-chmv2-sparse-candidate-v0.1",
        "quadkey": "1322130003",
        "coarse_rank": 16,
        "coarse_score": 0.99989,
        "height_m": 22.0,
        "emergent_height_m": 9.0,
        "crown_area_proxy_m2": 1072.7,
        "open_context_fraction": 0.02,
        "structure_score": 35.83,
        "evidence_limit": "Modeled canopy structure; not field verified, not LiDAR-confirmed, and not proof of age or mycorrhizal hub status."
      }
    },
    {
      "type": "Feature",
      "geometry": {
        "type": "Point",
        "coordinates": [
          107.46364295482635,
          16.084676413249024
        ]
      },
      "properties": {
        "record_class": "ELDER_TREE_CANDIDATE",
        "verification_status": "modeled remote-sensing candidate only",
        "source_class": "MODELED_CHMV2",
        "source_name": "WRI/Meta CHMv2",
        "source_url": "https://dataforgood-fb-data.s3.amazonaws.com/forests/v2/global/dinov3_global_chm_v2_ml3/chm/1322130003.tif",
        "source_license": "CC BY 4.0",
        "method_version": "earthline-chmv2-sparse-candidate-v0.1",
        "quadkey": "1322130003",
        "coarse_rank": 17,
        "coarse_score": 0.99988,
        "height_m": 28.0,
        "emergent_height_m": 5.0,
        "crown_area_proxy_m2": 1747.4,
        "open_context_fraction": 0.0,
        "structure_score": 35.85,
        "evidence_limit": "Modeled canopy structure; not field verified, not LiDAR-confirmed, and not proof of age or mycorrhizal hub status."
      }
    },
    {
      "type": "Feature",
      "geometry": {
        "type": "Point",
        "coordinates": [
          107.45231330394743,
          16.090500821001438
        ]
      },
      "properties": {
        "record_class": "ELDER_TREE_CANDIDATE",
        "verification_status": "modeled remote-sensing candidate only",
        "source_class": "MODELED_CHMV2",
        "source_name": "WRI/Meta CHMv2",
        "source_url": "https://dataforgood-fb-data.s3.amazonaws.com/forests/v2/global/dinov3_global_chm_v2_ml3/chm/1322130003.tif",
        "source_license": "CC BY 4.0",
        "method_version": "earthline-chmv2-sparse-candidate-v0.1",
        "quadkey": "1322130003",
        "coarse_rank": 18,
        "coarse_score": 0.99988,
        "height_m": 30.0,
        "emergent_height_m": 7.0,
        "crown_area_proxy_m2": 1198.2,
        "open_context_fraction": 0.0,
        "structure_score": 38.05,
        "evidence_limit": "Modeled canopy structure; not field verified, not LiDAR-confirmed, and not proof of age or mycorrhizal hub status."
      }
    },
    {
      "type": "Feature",
      "geometry": {
        "type": "Point",
        "coordinates": [
          107.47359931468962,
          16.002652715155154
        ]
      },
      "properties": {
        "record_class": "ELDER_TREE_CANDIDATE",
        "verification_status": "modeled remote-sensing candidate only",
        "source_class": "MODELED_CHMV2",
        "source_name": "WRI/Meta CHMv2",
        "source_url": "https://dataforgood-fb-data.s3.amazonaws.com/forests/v2/global/dinov3_global_chm_v2_ml3/chm/1322130003.tif",
        "source_license": "CC BY 4.0",
        "method_version": "earthline-chmv2-sparse-candidate-v0.1",
        "quadkey": "1322130003",
        "coarse_rank": 19,
        "coarse_score": 0.99986,
        "height_m": 34.0,
        "emergent_height_m": 8.0,
        "crown_area_proxy_m2": 1740.2,
        "open_context_fraction": 0.0,
        "structure_score": 40.5,
        "evidence_limit": "Modeled canopy structure; not field verified, not LiDAR-confirmed, and not proof of age or mycorrhizal hub status."
      }
    },
    {
      "type": "Feature",
      "geometry": {
        "type": "Point",
        "coordinates": [
          107.511847615242,
          16.145252204093733
        ]
      },
      "properties": {
        "record_class": "ELDER_TREE_CANDIDATE",
        "verification_status": "modeled remote-sensing candidate only",
        "source_class": "MODELED_CHMV2",
        "source_name": "WRI/Meta CHMv2",
        "source_url": "https://dataforgood-fb-data.s3.amazonaws.com/forests/v2/global/dinov3_global_chm_v2_ml3/chm/1322130003.tif",
        "source_license": "CC BY 4.0",
        "method_version": "earthline-chmv2-sparse-candidate-v0.1",
        "quadkey": "1322130003",
        "coarse_rank": 20,
        "coarse_score": 0.99986,
        "height_m": 30.0,
        "emergent_height_m": 14.0,
        "crown_area_proxy_m2": 824.5,
        "open_context_fraction": 0.0,
        "structure_score": 42.6,
        "evidence_limit": "Modeled canopy structure; not field verified, not LiDAR-confirmed, and not proof of age or mycorrhizal hub status."
      }
    }
  ]
}