{
  "type": "FeatureCollection",
  "features": [
    {
      "type": "Feature",
      "geometry": {
        "type": "Point",
        "coordinates": [
          102.56838619709015,
          18.3041886256211
        ]
      },
      "properties": {
        "record_class": "ELDER_TREE_CANDIDATE",
        "verification_status": "modeled remote-sensing candidate only",
        "source_class": "MODELED_CHMV2",
        "source_name": "WRI/Meta CHMv2",
        "source_url": "https://dataforgood-fb-data.s3.amazonaws.com/forests/v2/global/dinov3_global_chm_v2_ml3/chm/1322102033.tif",
        "source_license": "CC BY 4.0",
        "method_version": "earthline-chmv2-sparse-candidate-v0.1",
        "quadkey": "1322102033",
        "coarse_rank": 1,
        "coarse_score": 1.0,
        "height_m": 8.0,
        "emergent_height_m": 5.0,
        "crown_area_proxy_m2": 748.9,
        "open_context_fraction": 0.516,
        "structure_score": 27.64,
        "evidence_limit": "Modeled canopy structure; not field verified, not LiDAR-confirmed, and not proof of age or mycorrhizal hub status."
      }
    },
    {
      "type": "Feature",
      "geometry": {
        "type": "Point",
        "coordinates": [
          102.6021498441696,
          18.213102024551656
        ]
      },
      "properties": {
        "record_class": "ELDER_TREE_CANDIDATE",
        "verification_status": "modeled remote-sensing candidate only",
        "source_class": "MODELED_CHMV2",
        "source_name": "WRI/Meta CHMv2",
        "source_url": "https://dataforgood-fb-data.s3.amazonaws.com/forests/v2/global/dinov3_global_chm_v2_ml3/chm/1322102033.tif",
        "source_license": "CC BY 4.0",
        "method_version": "earthline-chmv2-sparse-candidate-v0.1",
        "quadkey": "1322102033",
        "coarse_rank": 2,
        "coarse_score": 0.99999,
        "height_m": 16.0,
        "emergent_height_m": 9.0,
        "crown_area_proxy_m2": 760.3,
        "open_context_fraction": 0.41,
        "structure_score": 33.7,
        "evidence_limit": "Modeled canopy structure; not field verified, not LiDAR-confirmed, and not proof of age or mycorrhizal hub status."
      }
    },
    {
      "type": "Feature",
      "geometry": {
        "type": "Point",
        "coordinates": [
          102.32434809207915,
          18.307702754448695
        ]
      },
      "properties": {
        "record_class": "ELDER_TREE_CANDIDATE",
        "verification_status": "modeled remote-sensing candidate only",
        "source_class": "MODELED_CHMV2",
        "source_name": "WRI/Meta CHMv2",
        "source_url": "https://dataforgood-fb-data.s3.amazonaws.com/forests/v2/global/dinov3_global_chm_v2_ml3/chm/1322102033.tif",
        "source_license": "CC BY 4.0",
        "method_version": "earthline-chmv2-sparse-candidate-v0.1",
        "quadkey": "1322102033",
        "coarse_rank": 3,
        "coarse_score": 0.99998,
        "height_m": 19.0,
        "emergent_height_m": 8.0,
        "crown_area_proxy_m2": 844.4,
        "open_context_fraction": 0.0,
        "structure_score": 33.75,
        "evidence_limit": "Modeled canopy structure; not field verified, not LiDAR-confirmed, and not proof of age or mycorrhizal hub status."
      }
    },
    {
      "type": "Feature",
      "geometry": {
        "type": "Point",
        "coordinates": [
          102.57335364818573,
          17.986891772016318
        ]
      },
      "properties": {
        "record_class": "ELDER_TREE_CANDIDATE",
        "verification_status": "modeled remote-sensing candidate only",
        "source_class": "MODELED_CHMV2",
        "source_name": "WRI/Meta CHMv2",
        "source_url": "https://dataforgood-fb-data.s3.amazonaws.com/forests/v2/global/dinov3_global_chm_v2_ml3/chm/1322102033.tif",
        "source_license": "CC BY 4.0",
        "method_version": "earthline-chmv2-sparse-candidate-v0.1",
        "quadkey": "1322102033",
        "coarse_rank": 4,
        "coarse_score": 0.99993,
        "height_m": 44.0,
        "emergent_height_m": 12.0,
        "crown_area_proxy_m2": 1452.1,
        "open_context_fraction": 0.0,
        "structure_score": 47.6,
        "evidence_limit": "Modeled canopy structure; not field verified, not LiDAR-confirmed, and not proof of age or mycorrhizal hub status."
      }
    },
    {
      "type": "Feature",
      "geometry": {
        "type": "Point",
        "coordinates": [
          102.45899498462676,
          17.98405490164087
        ]
      },
      "properties": {
        "record_class": "ELDER_TREE_CANDIDATE",
        "verification_status": "modeled remote-sensing candidate only",
        "source_class": "MODELED_CHMV2",
        "source_name": "WRI/Meta CHMv2",
        "source_url": "https://dataforgood-fb-data.s3.amazonaws.com/forests/v2/global/dinov3_global_chm_v2_ml3/chm/1322102033.tif",
        "source_license": "CC BY 4.0",
        "method_version": "earthline-chmv2-sparse-candidate-v0.1",
        "quadkey": "1322102033",
        "coarse_rank": 5,
        "coarse_score": 0.99991,
        "height_m": 33.0,
        "emergent_height_m": 4.0,
        "crown_area_proxy_m2": 1745.9,
        "open_context_fraction": 0.0,
        "structure_score": 37.45,
        "evidence_limit": "Modeled canopy structure; not field verified, not LiDAR-confirmed, and not proof of age or mycorrhizal hub status."
      }
    },
    {
      "type": "Feature",
      "geometry": {
        "type": "Point",
        "coordinates": [
          102.48032391071318,
          18.043099332665854
        ]
      },
      "properties": {
        "record_class": "ELDER_TREE_CANDIDATE",
        "verification_status": "modeled remote-sensing candidate only",
        "source_class": "MODELED_CHMV2",
        "source_name": "WRI/Meta CHMv2",
        "source_url": "https://dataforgood-fb-data.s3.amazonaws.com/forests/v2/global/dinov3_global_chm_v2_ml3/chm/1322102033.tif",
        "source_license": "CC BY 4.0",
        "method_version": "earthline-chmv2-sparse-candidate-v0.1",
        "quadkey": "1322102033",
        "coarse_rank": 6,
        "coarse_score": 0.9999,
        "height_m": 33.0,
        "emergent_height_m": 7.0,
        "crown_area_proxy_m2": 1687.5,
        "open_context_fraction": 0.0,
        "structure_score": 39.4,
        "evidence_limit": "Modeled canopy structure; not field verified, not LiDAR-confirmed, and not proof of age or mycorrhizal hub status."
      }
    },
    {
      "type": "Feature",
      "geometry": {
        "type": "Point",
        "coordinates": [
          102.51001060009003,
          18.01222769523818
        ]
      },
      "properties": {
        "record_class": "ELDER_TREE_CANDIDATE",
        "verification_status": "modeled remote-sensing candidate only",
        "source_class": "MODELED_CHMV2",
        "source_name": "WRI/Meta CHMv2",
        "source_url": "https://dataforgood-fb-data.s3.amazonaws.com/forests/v2/global/dinov3_global_chm_v2_ml3/chm/1322102033.tif",
        "source_license": "CC BY 4.0",
        "method_version": "earthline-chmv2-sparse-candidate-v0.1",
        "quadkey": "1322102033",
        "coarse_rank": 7,
        "coarse_score": 0.99987,
        "height_m": 30.0,
        "emergent_height_m": 6.0,
        "crown_area_proxy_m2": 1741.7,
        "open_context_fraction": 0.0,
        "structure_score": 37.4,
        "evidence_limit": "Modeled canopy structure; not field verified, not LiDAR-confirmed, and not proof of age or mycorrhizal hub status."
      }
    },
    {
      "type": "Feature",
      "geometry": {
        "type": "Point",
        "coordinates": [
          102.61934816837311,
          18.150740328951148
        ]
      },
      "properties": {
        "record_class": "ELDER_TREE_CANDIDATE",
        "verification_status": "modeled remote-sensing candidate only",
        "source_class": "MODELED_CHMV2",
        "source_name": "WRI/Meta CHMv2",
        "source_url": "https://dataforgood-fb-data.s3.amazonaws.com/forests/v2/global/dinov3_global_chm_v2_ml3/chm/1322102033.tif",
        "source_license": "CC BY 4.0",
        "method_version": "earthline-chmv2-sparse-candidate-v0.1",
        "quadkey": "1322102033",
        "coarse_rank": 8,
        "coarse_score": 0.99985,
        "height_m": 27.0,
        "emergent_height_m": 2.0,
        "crown_area_proxy_m2": 1747.4,
        "open_context_fraction": 0.0,
        "structure_score": 33.45,
        "evidence_limit": "Modeled canopy structure; not field verified, not LiDAR-confirmed, and not proof of age or mycorrhizal hub status."
      }
    },
    {
      "type": "Feature",
      "geometry": {
        "type": "Point",
        "coordinates": [
          102.62928307056426,
          18.04196699219821
        ]
      },
      "properties": {
        "record_class": "ELDER_TREE_CANDIDATE",
        "verification_status": "modeled remote-sensing candidate only",
        "source_class": "MODELED_CHMV2",
        "source_name": "WRI/Meta CHMv2",
        "source_url": "https://dataforgood-fb-data.s3.amazonaws.com/forests/v2/global/dinov3_global_chm_v2_ml3/chm/1322102033.tif",
        "source_license": "CC BY 4.0",
        "method_version": "earthline-chmv2-sparse-candidate-v0.1",
        "quadkey": "1322102033",
        "coarse_rank": 9,
        "coarse_score": 0.99983,
        "height_m": 33.0,
        "emergent_height_m": 7.0,
        "crown_area_proxy_m2": 1706.0,
        "open_context_fraction": 0.0,
        "structure_score": 39.4,
        "evidence_limit": "Modeled canopy structure; not field verified, not LiDAR-confirmed, and not proof of age or mycorrhizal hub status."
      }
    },
    {
      "type": "Feature",
      "geometry": {
        "type": "Point",
        "coordinates": [
          102.376554608345,
          18.17860096442708
        ]
      },
      "properties": {
        "record_class": "ELDER_TREE_CANDIDATE",
        "verification_status": "modeled remote-sensing candidate only",
        "source_class": "MODELED_CHMV2",
        "source_name": "WRI/Meta CHMv2",
        "source_url": "https://dataforgood-fb-data.s3.amazonaws.com/forests/v2/global/dinov3_global_chm_v2_ml3/chm/1322102033.tif",
        "source_license": "CC BY 4.0",
        "method_version": "earthline-chmv2-sparse-candidate-v0.1",
        "quadkey": "1322102033",
        "coarse_rank": 10,
        "coarse_score": 0.99971,
        "height_m": 37.0,
        "emergent_height_m": 9.0,
        "crown_area_proxy_m2": 1747.4,
        "open_context_fraction": 0.0,
        "structure_score": 42.5,
        "evidence_limit": "Modeled canopy structure; not field verified, not LiDAR-confirmed, and not proof of age or mycorrhizal hub status."
      }
    },
    {
      "type": "Feature",
      "geometry": {
        "type": "Point",
        "coordinates": [
          102.50156700611115,
          18.015778311002496
        ]
      },
      "properties": {
        "record_class": "ELDER_TREE_CANDIDATE",
        "verification_status": "modeled remote-sensing candidate only",
        "source_class": "MODELED_CHMV2",
        "source_name": "WRI/Meta CHMv2",
        "source_url": "https://dataforgood-fb-data.s3.amazonaws.com/forests/v2/global/dinov3_global_chm_v2_ml3/chm/1322102033.tif",
        "source_license": "CC BY 4.0",
        "method_version": "earthline-chmv2-sparse-candidate-v0.1",
        "quadkey": "1322102033",
        "coarse_rank": 11,
        "coarse_score": 0.99964,
        "height_m": 27.0,
        "emergent_height_m": 4.0,
        "crown_area_proxy_m2": 1336.6,
        "open_context_fraction": 0.0,
        "structure_score": 34.75,
        "evidence_limit": "Modeled canopy structure; not field verified, not LiDAR-confirmed, and not proof of age or mycorrhizal hub status."
      }
    },
    {
      "type": "Feature",
      "geometry": {
        "type": "Point",
        "coordinates": [
          102.44055211544037,
          18.16397290103958
        ]
      },
      "properties": {
        "record_class": "ELDER_TREE_CANDIDATE",
        "verification_status": "modeled remote-sensing candidate only",
        "source_class": "MODELED_CHMV2",
        "source_name": "WRI/Meta CHMv2",
        "source_url": "https://dataforgood-fb-data.s3.amazonaws.com/forests/v2/global/dinov3_global_chm_v2_ml3/chm/1322102033.tif",
        "source_license": "CC BY 4.0",
        "method_version": "earthline-chmv2-sparse-candidate-v0.1",
        "quadkey": "1322102033",
        "coarse_rank": 12,
        "coarse_score": 0.99958,
        "height_m": 29.0,
        "emergent_height_m": 11.0,
        "crown_area_proxy_m2": 930.0,
        "open_context_fraction": 0.0,
        "structure_score": 40.2,
        "evidence_limit": "Modeled canopy structure; not field verified, not LiDAR-confirmed, and not proof of age or mycorrhizal hub status."
      }
    },
    {
      "type": "Feature",
      "geometry": {
        "type": "Point",
        "coordinates": [
          102.48709380626677,
          18.061287189723064
        ]
      },
      "properties": {
        "record_class": "ELDER_TREE_CANDIDATE",
        "verification_status": "modeled remote-sensing candidate only",
        "source_class": "MODELED_CHMV2",
        "source_name": "WRI/Meta CHMv2",
        "source_url": "https://dataforgood-fb-data.s3.amazonaws.com/forests/v2/global/dinov3_global_chm_v2_ml3/chm/1322102033.tif",
        "source_license": "CC BY 4.0",
        "method_version": "earthline-chmv2-sparse-candidate-v0.1",
        "quadkey": "1322102033",
        "coarse_rank": 13,
        "coarse_score": 0.99952,
        "height_m": 30.0,
        "emergent_height_m": 5.0,
        "crown_area_proxy_m2": 1704.6,
        "open_context_fraction": 0.002,
        "structure_score": 36.76,
        "evidence_limit": "Modeled canopy structure; not field verified, not LiDAR-confirmed, and not proof of age or mycorrhizal hub status."
      }
    },
    {
      "type": "Feature",
      "geometry": {
        "type": "Point",
        "coordinates": [
          102.56367623805998,
          18.17865193114579
        ]
      },
      "properties": {
        "record_class": "ELDER_TREE_CANDIDATE",
        "verification_status": "modeled remote-sensing candidate only",
        "source_class": "MODELED_CHMV2",
        "source_name": "WRI/Meta CHMv2",
        "source_url": "https://dataforgood-fb-data.s3.amazonaws.com/forests/v2/global/dinov3_global_chm_v2_ml3/chm/1322102033.tif",
        "source_license": "CC BY 4.0",
        "method_version": "earthline-chmv2-sparse-candidate-v0.1",
        "quadkey": "1322102033",
        "coarse_rank": 14,
        "coarse_score": 0.99948,
        "height_m": 24.0,
        "emergent_height_m": 2.0,
        "crown_area_proxy_m2": 1730.2,
        "open_context_fraction": 0.0,
        "structure_score": 32.1,
        "evidence_limit": "Modeled canopy structure; not field verified, not LiDAR-confirmed, and not proof of age or mycorrhizal hub status."
      }
    },
    {
      "type": "Feature",
      "geometry": {
        "type": "Point",
        "coordinates": [
          102.56591856479645,
          18.296202630091216
        ]
      },
      "properties": {
        "record_class": "ELDER_TREE_CANDIDATE",
        "verification_status": "modeled remote-sensing candidate only",
        "source_class": "MODELED_CHMV2",
        "source_name": "WRI/Meta CHMv2",
        "source_url": "https://dataforgood-fb-data.s3.amazonaws.com/forests/v2/global/dinov3_global_chm_v2_ml3/chm/1322102033.tif",
        "source_license": "CC BY 4.0",
        "method_version": "earthline-chmv2-sparse-candidate-v0.1",
        "quadkey": "1322102033",
        "coarse_rank": 15,
        "coarse_score": 0.99948,
        "height_m": 26.0,
        "emergent_height_m": 2.0,
        "crown_area_proxy_m2": 1747.4,
        "open_context_fraction": 0.0,
        "structure_score": 33.0,
        "evidence_limit": "Modeled canopy structure; not field verified, not LiDAR-confirmed, and not proof of age or mycorrhizal hub status."
      }
    },
    {
      "type": "Feature",
      "geometry": {
        "type": "Point",
        "coordinates": [
          102.61606514453888,
          18.169732528744913
        ]
      },
      "properties": {
        "record_class": "ELDER_TREE_CANDIDATE",
        "verification_status": "modeled remote-sensing candidate only",
        "source_class": "MODELED_CHMV2",
        "source_name": "WRI/Meta CHMv2",
        "source_url": "https://dataforgood-fb-data.s3.amazonaws.com/forests/v2/global/dinov3_global_chm_v2_ml3/chm/1322102033.tif",
        "source_license": "CC BY 4.0",
        "method_version": "earthline-chmv2-sparse-candidate-v0.1",
        "quadkey": "1322102033",
        "coarse_rank": 16,
        "coarse_score": 0.99944,
        "height_m": 25.0,
        "emergent_height_m": 3.0,
        "crown_area_proxy_m2": 1740.2,
        "open_context_fraction": 0.0,
        "structure_score": 33.2,
        "evidence_limit": "Modeled canopy structure; not field verified, not LiDAR-confirmed, and not proof of age or mycorrhizal hub status."
      }
    },
    {
      "type": "Feature",
      "geometry": {
        "type": "Point",
        "coordinates": [
          102.44382441043852,
          18.006860824122164
        ]
      },
      "properties": {
        "record_class": "ELDER_TREE_CANDIDATE",
        "verification_status": "modeled remote-sensing candidate only",
        "source_class": "MODELED_CHMV2",
        "source_name": "WRI/Meta CHMv2",
        "source_url": "https://dataforgood-fb-data.s3.amazonaws.com/forests/v2/global/dinov3_global_chm_v2_ml3/chm/1322102033.tif",
        "source_license": "CC BY 4.0",
        "method_version": "earthline-chmv2-sparse-candidate-v0.1",
        "quadkey": "1322102033",
        "coarse_rank": 17,
        "coarse_score": 0.99935,
        "height_m": 26.0,
        "emergent_height_m": 4.0,
        "crown_area_proxy_m2": 1747.4,
        "open_context_fraction": 0.0,
        "structure_score": 34.3,
        "evidence_limit": "Modeled canopy structure; not field verified, not LiDAR-confirmed, and not proof of age or mycorrhizal hub status."
      }
    },
    {
      "type": "Feature",
      "geometry": {
        "type": "Point",
        "coordinates": [
          102.50224292278288,
          17.99444293132171
        ]
      },
      "properties": {
        "record_class": "ELDER_TREE_CANDIDATE",
        "verification_status": "modeled remote-sensing candidate only",
        "source_class": "MODELED_CHMV2",
        "source_name": "WRI/Meta CHMv2",
        "source_url": "https://dataforgood-fb-data.s3.amazonaws.com/forests/v2/global/dinov3_global_chm_v2_ml3/chm/1322102033.tif",
        "source_license": "CC BY 4.0",
        "method_version": "earthline-chmv2-sparse-candidate-v0.1",
        "quadkey": "1322102033",
        "coarse_rank": 18,
        "coarse_score": 0.99934,
        "height_m": 24.0,
        "emergent_height_m": 4.0,
        "crown_area_proxy_m2": 1273.8,
        "open_context_fraction": 0.176,
        "structure_score": 34.11,
        "evidence_limit": "Modeled canopy structure; not field verified, not LiDAR-confirmed, and not proof of age or mycorrhizal hub status."
      }
    },
    {
      "type": "Feature",
      "geometry": {
        "type": "Point",
        "coordinates": [
          102.47430503368376,
          18.092221602280883
        ]
      },
      "properties": {
        "record_class": "ELDER_TREE_CANDIDATE",
        "verification_status": "modeled remote-sensing candidate only",
        "source_class": "MODELED_CHMV2",
        "source_name": "WRI/Meta CHMv2",
        "source_url": "https://dataforgood-fb-data.s3.amazonaws.com/forests/v2/global/dinov3_global_chm_v2_ml3/chm/1322102033.tif",
        "source_license": "CC BY 4.0",
        "method_version": "earthline-chmv2-sparse-candidate-v0.1",
        "quadkey": "1322102033",
        "coarse_rank": 19,
        "coarse_score": 0.99934,
        "height_m": 30.0,
        "emergent_height_m": 11.0,
        "crown_area_proxy_m2": 1270.9,
        "open_context_fraction": 0.0,
        "structure_score": 40.65,
        "evidence_limit": "Modeled canopy structure; not field verified, not LiDAR-confirmed, and not proof of age or mycorrhizal hub status."
      }
    },
    {
      "type": "Feature",
      "geometry": {
        "type": "Point",
        "coordinates": [
          102.46318995952606,
          18.084542054125627
        ]
      },
      "properties": {
        "record_class": "ELDER_TREE_CANDIDATE",
        "verification_status": "modeled remote-sensing candidate only",
        "source_class": "MODELED_CHMV2",
        "source_name": "WRI/Meta CHMv2",
        "source_url": "https://dataforgood-fb-data.s3.amazonaws.com/forests/v2/global/dinov3_global_chm_v2_ml3/chm/1322102033.tif",
        "source_license": "CC BY 4.0",
        "method_version": "earthline-chmv2-sparse-candidate-v0.1",
        "quadkey": "1322102033",
        "coarse_rank": 20,
        "coarse_score": 0.99927,
        "height_m": 29.0,
        "emergent_height_m": 7.0,
        "crown_area_proxy_m2": 1747.4,
        "open_context_fraction": 0.0,
        "structure_score": 37.6,
        "evidence_limit": "Modeled canopy structure; not field verified, not LiDAR-confirmed, and not proof of age or mycorrhizal hub status."
      }
    }
  ]
}