{
  "type": "FeatureCollection",
  "features": [
    {
      "type": "Feature",
      "geometry": {
        "type": "Point",
        "coordinates": [
          100.2904826402664,
          15.283610723840166
        ]
      },
      "properties": {
        "record_class": "ELDER_TREE_CANDIDATE",
        "verification_status": "modeled remote-sensing candidate only",
        "source_class": "MODELED_CHMV2",
        "source_name": "WRI/Meta CHMv2",
        "source_url": "https://dataforgood-fb-data.s3.amazonaws.com/forests/v2/global/dinov3_global_chm_v2_ml3/chm/1322031301.tif",
        "source_license": "CC BY 4.0",
        "method_version": "earthline-chmv2-sparse-candidate-v0.1",
        "quadkey": "1322031301",
        "coarse_rank": 1,
        "coarse_score": 0.99997,
        "height_m": 15.0,
        "emergent_height_m": 14.0,
        "crown_area_proxy_m2": 586.3,
        "open_context_fraction": 0.585,
        "structure_score": 32.85,
        "evidence_limit": "Modeled canopy structure; not field verified, not LiDAR-confirmed, and not proof of age or mycorrhizal hub status."
      }
    },
    {
      "type": "Feature",
      "geometry": {
        "type": "Point",
        "coordinates": [
          100.28834760189056,
          15.26799291621276
        ]
      },
      "properties": {
        "record_class": "ELDER_TREE_CANDIDATE",
        "verification_status": "modeled remote-sensing candidate only",
        "source_class": "MODELED_CHMV2",
        "source_name": "WRI/Meta CHMv2",
        "source_url": "https://dataforgood-fb-data.s3.amazonaws.com/forests/v2/global/dinov3_global_chm_v2_ml3/chm/1322031301.tif",
        "source_license": "CC BY 4.0",
        "method_version": "earthline-chmv2-sparse-candidate-v0.1",
        "quadkey": "1322031301",
        "coarse_rank": 2,
        "coarse_score": 0.99982,
        "height_m": 13.0,
        "emergent_height_m": 7.0,
        "crown_area_proxy_m2": 964.3,
        "open_context_fraction": 0.318,
        "structure_score": 31.67,
        "evidence_limit": "Modeled canopy structure; not field verified, not LiDAR-confirmed, and not proof of age or mycorrhizal hub status."
      }
    },
    {
      "type": "Feature",
      "geometry": {
        "type": "Point",
        "coordinates": [
          100.2874571084976,
          15.261917285369686
        ]
      },
      "properties": {
        "record_class": "ELDER_TREE_CANDIDATE",
        "verification_status": "modeled remote-sensing candidate only",
        "source_class": "MODELED_CHMV2",
        "source_name": "WRI/Meta CHMv2",
        "source_url": "https://dataforgood-fb-data.s3.amazonaws.com/forests/v2/global/dinov3_global_chm_v2_ml3/chm/1322031301.tif",
        "source_license": "CC BY 4.0",
        "method_version": "earthline-chmv2-sparse-candidate-v0.1",
        "quadkey": "1322031301",
        "coarse_rank": 3,
        "coarse_score": 0.99973,
        "height_m": 22.0,
        "emergent_height_m": 6.0,
        "crown_area_proxy_m2": 1542.0,
        "open_context_fraction": 0.039,
        "structure_score": 33.96,
        "evidence_limit": "Modeled canopy structure; not field verified, not LiDAR-confirmed, and not proof of age or mycorrhizal hub status."
      }
    },
    {
      "type": "Feature",
      "geometry": {
        "type": "Point",
        "coordinates": [
          100.22606670856474,
          15.170958506594564
        ]
      },
      "properties": {
        "record_class": "ELDER_TREE_CANDIDATE",
        "verification_status": "modeled remote-sensing candidate only",
        "source_class": "MODELED_CHMV2",
        "source_name": "WRI/Meta CHMv2",
        "source_url": "https://dataforgood-fb-data.s3.amazonaws.com/forests/v2/global/dinov3_global_chm_v2_ml3/chm/1322031301.tif",
        "source_license": "CC BY 4.0",
        "method_version": "earthline-chmv2-sparse-candidate-v0.1",
        "quadkey": "1322031301",
        "coarse_rank": 4,
        "coarse_score": 0.99958,
        "height_m": 47.0,
        "emergent_height_m": 19.0,
        "crown_area_proxy_m2": 1172.5,
        "open_context_fraction": 0.092,
        "structure_score": 53.87,
        "evidence_limit": "Modeled canopy structure; not field verified, not LiDAR-confirmed, and not proof of age or mycorrhizal hub status."
      }
    },
    {
      "type": "Feature",
      "geometry": {
        "type": "Point",
        "coordinates": [
          100.23301899433136,
          14.991949856490736
        ]
      },
      "properties": {
        "record_class": "ELDER_TREE_CANDIDATE",
        "verification_status": "modeled remote-sensing candidate only",
        "source_class": "MODELED_CHMV2",
        "source_name": "WRI/Meta CHMv2",
        "source_url": "https://dataforgood-fb-data.s3.amazonaws.com/forests/v2/global/dinov3_global_chm_v2_ml3/chm/1322031301.tif",
        "source_license": "CC BY 4.0",
        "method_version": "earthline-chmv2-sparse-candidate-v0.1",
        "quadkey": "1322031301",
        "coarse_rank": 5,
        "coarse_score": 0.9992,
        "height_m": 26.0,
        "emergent_height_m": 17.0,
        "crown_area_proxy_m2": 803.1,
        "open_context_fraction": 0.334,
        "structure_score": 44.09,
        "evidence_limit": "Modeled canopy structure; not field verified, not LiDAR-confirmed, and not proof of age or mycorrhizal hub status."
      }
    },
    {
      "type": "Feature",
      "geometry": {
        "type": "Point",
        "coordinates": [
          100.27769386768341,
          15.109275564606302
        ]
      },
      "properties": {
        "record_class": "ELDER_TREE_CANDIDATE",
        "verification_status": "modeled remote-sensing candidate only",
        "source_class": "MODELED_CHMV2",
        "source_name": "WRI/Meta CHMv2",
        "source_url": "https://dataforgood-fb-data.s3.amazonaws.com/forests/v2/global/dinov3_global_chm_v2_ml3/chm/1322031301.tif",
        "source_license": "CC BY 4.0",
        "method_version": "earthline-chmv2-sparse-candidate-v0.1",
        "quadkey": "1322031301",
        "coarse_rank": 6,
        "coarse_score": 0.99887,
        "height_m": 43.0,
        "emergent_height_m": 14.0,
        "crown_area_proxy_m2": 1099.8,
        "open_context_fraction": 0.057,
        "structure_score": 48.68,
        "evidence_limit": "Modeled canopy structure; not field verified, not LiDAR-confirmed, and not proof of age or mycorrhizal hub status."
      }
    },
    {
      "type": "Feature",
      "geometry": {
        "type": "Point",
        "coordinates": [
          100.23761093616484,
          15.166733653637007
        ]
      },
      "properties": {
        "record_class": "ELDER_TREE_CANDIDATE",
        "verification_status": "modeled remote-sensing candidate only",
        "source_class": "MODELED_CHMV2",
        "source_name": "WRI/Meta CHMv2",
        "source_url": "https://dataforgood-fb-data.s3.amazonaws.com/forests/v2/global/dinov3_global_chm_v2_ml3/chm/1322031301.tif",
        "source_license": "CC BY 4.0",
        "method_version": "earthline-chmv2-sparse-candidate-v0.1",
        "quadkey": "1322031301",
        "coarse_rank": 7,
        "coarse_score": 0.99862,
        "height_m": 47.0,
        "emergent_height_m": 8.0,
        "crown_area_proxy_m2": 1283.8,
        "open_context_fraction": 0.096,
        "structure_score": 46.74,
        "evidence_limit": "Modeled canopy structure; not field verified, not LiDAR-confirmed, and not proof of age or mycorrhizal hub status."
      }
    },
    {
      "type": "Feature",
      "geometry": {
        "type": "Point",
        "coordinates": [
          100.28330504894255,
          15.254464823506032
        ]
      },
      "properties": {
        "record_class": "ELDER_TREE_CANDIDATE",
        "verification_status": "modeled remote-sensing candidate only",
        "source_class": "MODELED_CHMV2",
        "source_name": "WRI/Meta CHMv2",
        "source_url": "https://dataforgood-fb-data.s3.amazonaws.com/forests/v2/global/dinov3_global_chm_v2_ml3/chm/1322031301.tif",
        "source_license": "CC BY 4.0",
        "method_version": "earthline-chmv2-sparse-candidate-v0.1",
        "quadkey": "1322031301",
        "coarse_rank": 8,
        "coarse_score": 0.99862,
        "height_m": 34.0,
        "emergent_height_m": 5.0,
        "crown_area_proxy_m2": 1747.4,
        "open_context_fraction": 0.0,
        "structure_score": 38.55,
        "evidence_limit": "Modeled canopy structure; not field verified, not LiDAR-confirmed, and not proof of age or mycorrhizal hub status."
      }
    },
    {
      "type": "Feature",
      "geometry": {
        "type": "Point",
        "coordinates": [
          100.23278295993805,
          14.986446687637791
        ]
      },
      "properties": {
        "record_class": "ELDER_TREE_CANDIDATE",
        "verification_status": "modeled remote-sensing candidate only",
        "source_class": "MODELED_CHMV2",
        "source_name": "WRI/Meta CHMv2",
        "source_url": "https://dataforgood-fb-data.s3.amazonaws.com/forests/v2/global/dinov3_global_chm_v2_ml3/chm/1322031301.tif",
        "source_license": "CC BY 4.0",
        "method_version": "earthline-chmv2-sparse-candidate-v0.1",
        "quadkey": "1322031301",
        "coarse_rank": 9,
        "coarse_score": 0.99836,
        "height_m": 36.0,
        "emergent_height_m": 7.0,
        "crown_area_proxy_m2": 1482.1,
        "open_context_fraction": 0.014,
        "structure_score": 40.81,
        "evidence_limit": "Modeled canopy structure; not field verified, not LiDAR-confirmed, and not proof of age or mycorrhizal hub status."
      }
    },
    {
      "type": "Feature",
      "geometry": {
        "type": "Point",
        "coordinates": [
          100.22357761859891,
          14.99531801618828
        ]
      },
      "properties": {
        "record_class": "ELDER_TREE_CANDIDATE",
        "verification_status": "modeled remote-sensing candidate only",
        "source_class": "MODELED_CHMV2",
        "source_name": "WRI/Meta CHMv2",
        "source_url": "https://dataforgood-fb-data.s3.amazonaws.com/forests/v2/global/dinov3_global_chm_v2_ml3/chm/1322031301.tif",
        "source_license": "CC BY 4.0",
        "method_version": "earthline-chmv2-sparse-candidate-v0.1",
        "quadkey": "1322031301",
        "coarse_rank": 10,
        "coarse_score": 0.99809,
        "height_m": 28.0,
        "emergent_height_m": 18.0,
        "crown_area_proxy_m2": 786.0,
        "open_context_fraction": 0.379,
        "structure_score": 45.47,
        "evidence_limit": "Modeled canopy structure; not field verified, not LiDAR-confirmed, and not proof of age or mycorrhizal hub status."
      }
    },
    {
      "type": "Feature",
      "geometry": {
        "type": "Point",
        "coordinates": [
          100.21175444126129,
          15.003846995676424
        ]
      },
      "properties": {
        "record_class": "ELDER_TREE_CANDIDATE",
        "verification_status": "modeled remote-sensing candidate only",
        "source_class": "MODELED_CHMV2",
        "source_name": "WRI/Meta CHMv2",
        "source_url": "https://dataforgood-fb-data.s3.amazonaws.com/forests/v2/global/dinov3_global_chm_v2_ml3/chm/1322031301.tif",
        "source_license": "CC BY 4.0",
        "method_version": "earthline-chmv2-sparse-candidate-v0.1",
        "quadkey": "1322031301",
        "coarse_rank": 11,
        "coarse_score": 0.99807,
        "height_m": 31.0,
        "emergent_height_m": 11.0,
        "crown_area_proxy_m2": 1024.2,
        "open_context_fraction": 0.256,
        "structure_score": 42.13,
        "evidence_limit": "Modeled canopy structure; not field verified, not LiDAR-confirmed, and not proof of age or mycorrhizal hub status."
      }
    },
    {
      "type": "Feature",
      "geometry": {
        "type": "Point",
        "coordinates": [
          100.2049309015274,
          15.034757807027653
        ]
      },
      "properties": {
        "record_class": "ELDER_TREE_CANDIDATE",
        "verification_status": "modeled remote-sensing candidate only",
        "source_class": "MODELED_CHMV2",
        "source_name": "WRI/Meta CHMv2",
        "source_url": "https://dataforgood-fb-data.s3.amazonaws.com/forests/v2/global/dinov3_global_chm_v2_ml3/chm/1322031301.tif",
        "source_license": "CC BY 4.0",
        "method_version": "earthline-chmv2-sparse-candidate-v0.1",
        "quadkey": "1322031301",
        "coarse_rank": 12,
        "coarse_score": 0.99779,
        "height_m": 48.0,
        "emergent_height_m": 22.0,
        "crown_area_proxy_m2": 1035.6,
        "open_context_fraction": 0.054,
        "structure_score": 56.12,
        "evidence_limit": "Modeled canopy structure; not field verified, not LiDAR-confirmed, and not proof of age or mycorrhizal hub status."
      }
    },
    {
      "type": "Feature",
      "geometry": {
        "type": "Point",
        "coordinates": [
          100.36241948604582,
          15.210417450342122
        ]
      },
      "properties": {
        "record_class": "ELDER_TREE_CANDIDATE",
        "verification_status": "modeled remote-sensing candidate only",
        "source_class": "MODELED_CHMV2",
        "source_name": "WRI/Meta CHMv2",
        "source_url": "https://dataforgood-fb-data.s3.amazonaws.com/forests/v2/global/dinov3_global_chm_v2_ml3/chm/1322031301.tif",
        "source_license": "CC BY 4.0",
        "method_version": "earthline-chmv2-sparse-candidate-v0.1",
        "quadkey": "1322031301",
        "coarse_rank": 13,
        "coarse_score": 0.99725,
        "height_m": 34.0,
        "emergent_height_m": 9.0,
        "crown_area_proxy_m2": 1597.6,
        "open_context_fraction": 0.0,
        "structure_score": 41.15,
        "evidence_limit": "Modeled canopy structure; not field verified, not LiDAR-confirmed, and not proof of age or mycorrhizal hub status."
      }
    },
    {
      "type": "Feature",
      "geometry": {
        "type": "Point",
        "coordinates": [
          100.21605670452116,
          15.042342343893496
        ]
      },
      "properties": {
        "record_class": "ELDER_TREE_CANDIDATE",
        "verification_status": "modeled remote-sensing candidate only",
        "source_class": "MODELED_CHMV2",
        "source_name": "WRI/Meta CHMv2",
        "source_url": "https://dataforgood-fb-data.s3.amazonaws.com/forests/v2/global/dinov3_global_chm_v2_ml3/chm/1322031301.tif",
        "source_license": "CC BY 4.0",
        "method_version": "earthline-chmv2-sparse-candidate-v0.1",
        "quadkey": "1322031301",
        "coarse_rank": 14,
        "coarse_score": 0.99682,
        "height_m": 24.0,
        "emergent_height_m": 9.0,
        "crown_area_proxy_m2": 1021.3,
        "open_context_fraction": 0.362,
        "structure_score": 38.1,
        "evidence_limit": "Modeled canopy structure; not field verified, not LiDAR-confirmed, and not proof of age or mycorrhizal hub status."
      }
    },
    {
      "type": "Feature",
      "geometry": {
        "type": "Point",
        "coordinates": [
          100.329492688179,
          15.021784722765114
        ]
      },
      "properties": {
        "record_class": "ELDER_TREE_CANDIDATE",
        "verification_status": "modeled remote-sensing candidate only",
        "source_class": "MODELED_CHMV2",
        "source_name": "WRI/Meta CHMv2",
        "source_url": "https://dataforgood-fb-data.s3.amazonaws.com/forests/v2/global/dinov3_global_chm_v2_ml3/chm/1322031301.tif",
        "source_license": "CC BY 4.0",
        "method_version": "earthline-chmv2-sparse-candidate-v0.1",
        "quadkey": "1322031301",
        "coarse_rank": 15,
        "coarse_score": 0.99681,
        "height_m": 32.0,
        "emergent_height_m": 21.0,
        "crown_area_proxy_m2": 736.0,
        "open_context_fraction": 0.236,
        "structure_score": 47.39,
        "evidence_limit": "Modeled canopy structure; not field verified, not LiDAR-confirmed, and not proof of age or mycorrhizal hub status."
      }
    },
    {
      "type": "Feature",
      "geometry": {
        "type": "Point",
        "coordinates": [
          100.27656733989714,
          14.996167820410596
        ]
      },
      "properties": {
        "record_class": "ELDER_TREE_CANDIDATE",
        "verification_status": "modeled remote-sensing candidate only",
        "source_class": "MODELED_CHMV2",
        "source_name": "WRI/Meta CHMv2",
        "source_url": "https://dataforgood-fb-data.s3.amazonaws.com/forests/v2/global/dinov3_global_chm_v2_ml3/chm/1322031301.tif",
        "source_license": "CC BY 4.0",
        "method_version": "earthline-chmv2-sparse-candidate-v0.1",
        "quadkey": "1322031301",
        "coarse_rank": 16,
        "coarse_score": 0.99676,
        "height_m": 37.0,
        "emergent_height_m": 12.0,
        "crown_area_proxy_m2": 1221.0,
        "open_context_fraction": 0.0,
        "structure_score": 44.45,
        "evidence_limit": "Modeled canopy structure; not field verified, not LiDAR-confirmed, and not proof of age or mycorrhizal hub status."
      }
    },
    {
      "type": "Feature",
      "geometry": {
        "type": "Point",
        "coordinates": [
          100.21061718463898,
          15.023214702030966
        ]
      },
      "properties": {
        "record_class": "ELDER_TREE_CANDIDATE",
        "verification_status": "modeled remote-sensing candidate only",
        "source_class": "MODELED_CHMV2",
        "source_name": "WRI/Meta CHMv2",
        "source_url": "https://dataforgood-fb-data.s3.amazonaws.com/forests/v2/global/dinov3_global_chm_v2_ml3/chm/1322031301.tif",
        "source_license": "CC BY 4.0",
        "method_version": "earthline-chmv2-sparse-candidate-v0.1",
        "quadkey": "1322031301",
        "coarse_rank": 17,
        "coarse_score": 0.9966,
        "height_m": 45.0,
        "emergent_height_m": 22.0,
        "crown_area_proxy_m2": 861.6,
        "open_context_fraction": 0.0,
        "structure_score": 54.55,
        "evidence_limit": "Modeled canopy structure; not field verified, not LiDAR-confirmed, and not proof of age or mycorrhizal hub status."
      }
    },
    {
      "type": "Feature",
      "geometry": {
        "type": "Point",
        "coordinates": [
          100.21372854709625,
          14.998354496240909
        ]
      },
      "properties": {
        "record_class": "ELDER_TREE_CANDIDATE",
        "verification_status": "modeled remote-sensing candidate only",
        "source_class": "MODELED_CHMV2",
        "source_name": "WRI/Meta CHMv2",
        "source_url": "https://dataforgood-fb-data.s3.amazonaws.com/forests/v2/global/dinov3_global_chm_v2_ml3/chm/1322031301.tif",
        "source_license": "CC BY 4.0",
        "method_version": "earthline-chmv2-sparse-candidate-v0.1",
        "quadkey": "1322031301",
        "coarse_rank": 18,
        "coarse_score": 0.99652,
        "height_m": 38.0,
        "emergent_height_m": 21.0,
        "crown_area_proxy_m2": 774.5,
        "open_context_fraction": 0.002,
        "structure_score": 50.12,
        "evidence_limit": "Modeled canopy structure; not field verified, not LiDAR-confirmed, and not proof of age or mycorrhizal hub status."
      }
    },
    {
      "type": "Feature",
      "geometry": {
        "type": "Point",
        "coordinates": [
          100.54294288158417,
          14.984301346190874
        ]
      },
      "properties": {
        "record_class": "ELDER_TREE_CANDIDATE",
        "verification_status": "modeled remote-sensing candidate only",
        "source_class": "MODELED_CHMV2",
        "source_name": "WRI/Meta CHMv2",
        "source_url": "https://dataforgood-fb-data.s3.amazonaws.com/forests/v2/global/dinov3_global_chm_v2_ml3/chm/1322031301.tif",
        "source_license": "CC BY 4.0",
        "method_version": "earthline-chmv2-sparse-candidate-v0.1",
        "quadkey": "1322031301",
        "coarse_rank": 19,
        "coarse_score": 0.99629,
        "height_m": 26.0,
        "emergent_height_m": 4.0,
        "crown_area_proxy_m2": 1678.9,
        "open_context_fraction": 0.0,
        "structure_score": 34.3,
        "evidence_limit": "Modeled canopy structure; not field verified, not LiDAR-confirmed, and not proof of age or mycorrhizal hub status."
      }
    },
    {
      "type": "Feature",
      "geometry": {
        "type": "Point",
        "coordinates": [
          100.2876180410385,
          15.253440089323107
        ]
      },
      "properties": {
        "record_class": "ELDER_TREE_CANDIDATE",
        "verification_status": "modeled remote-sensing candidate only",
        "source_class": "MODELED_CHMV2",
        "source_name": "WRI/Meta CHMv2",
        "source_url": "https://dataforgood-fb-data.s3.amazonaws.com/forests/v2/global/dinov3_global_chm_v2_ml3/chm/1322031301.tif",
        "source_license": "CC BY 4.0",
        "method_version": "earthline-chmv2-sparse-candidate-v0.1",
        "quadkey": "1322031301",
        "coarse_rank": 20,
        "coarse_score": 0.99553,
        "height_m": 25.0,
        "emergent_height_m": 3.0,
        "crown_area_proxy_m2": 1747.4,
        "open_context_fraction": 0.0,
        "structure_score": 33.2,
        "evidence_limit": "Modeled canopy structure; not field verified, not LiDAR-confirmed, and not proof of age or mycorrhizal hub status."
      }
    }
  ]
}