{
  "type": "FeatureCollection",
  "features": [
    {
      "type": "Feature",
      "geometry": {
        "type": "Point",
        "coordinates": [
          -105.56650578975676,
          39.660969973053184
        ]
      },
      "properties": {
        "record_class": "ELDER_TREE_CANDIDATE",
        "verification_status": "modeled remote-sensing candidate only",
        "source_class": "MODELED_CHMV2",
        "source_name": "WRI/Meta CHMv2",
        "source_url": "https://dataforgood-fb-data.s3.amazonaws.com/forests/v2/global/dinov3_global_chm_v2_ml3/chm/0231010211.tif",
        "source_license": "CC BY 4.0",
        "quadkey": "0231010211",
        "method_version": "earthline-elder-tree-aoi-chmv2-v0.1",
        "screen_rank": 1,
        "screen_reference_peak_count": 1744,
        "raw_structural_evidence_score": 39.287,
        "relative_elder_confidence_pct": 100,
        "confidence_pct": 100,
        "confidence_definition": "Earthline Relative Elder Confidence is a local percentile: how strongly this structure ranks against other detected tree/canopy structures in the same analyzed source tile/AOI. It is not the probability that the tree is ancient, veteran, or a mycorrhizal hub.",
        "height_m": 27.0,
        "emergent_height_m": 13.0,
        "crown_area_proxy_m2": 748.9,
        "open_context_fraction": 0.129,
        "evidence_limit": "Candidate only; modeled canopy structure is not proof of age or mycorrhizal hub status."
      }
    },
    {
      "type": "Feature",
      "geometry": {
        "type": "Point",
        "coordinates": [
          -105.55883467197418,
          39.64780319046905
        ]
      },
      "properties": {
        "record_class": "ELDER_TREE_CANDIDATE",
        "verification_status": "modeled remote-sensing candidate only",
        "source_class": "MODELED_CHMV2",
        "source_name": "WRI/Meta CHMv2",
        "source_url": "https://dataforgood-fb-data.s3.amazonaws.com/forests/v2/global/dinov3_global_chm_v2_ml3/chm/0231010211.tif",
        "source_license": "CC BY 4.0",
        "quadkey": "0231010211",
        "method_version": "earthline-elder-tree-aoi-chmv2-v0.1",
        "screen_rank": 9,
        "screen_reference_peak_count": 1744,
        "raw_structural_evidence_score": 36.0977,
        "relative_elder_confidence_pct": 100,
        "confidence_pct": 100,
        "confidence_definition": "Earthline Relative Elder Confidence is a local percentile: how strongly this structure ranks against other detected tree/canopy structures in the same analyzed source tile/AOI. It is not the probability that the tree is ancient, veteran, or a mycorrhizal hub.",
        "height_m": 25.0,
        "emergent_height_m": 8.0,
        "crown_area_proxy_m2": 1048.4,
        "open_context_fraction": 0.041,
        "evidence_limit": "Candidate only; modeled canopy structure is not proof of age or mycorrhizal hub status."
      }
    },
    {
      "type": "Feature",
      "geometry": {
        "type": "Point",
        "coordinates": [
          -105.57353317737578,
          39.63814540519279
        ]
      },
      "properties": {
        "record_class": "ELDER_TREE_CANDIDATE",
        "verification_status": "modeled remote-sensing candidate only",
        "source_class": "MODELED_CHMV2",
        "source_name": "WRI/Meta CHMv2",
        "source_url": "https://dataforgood-fb-data.s3.amazonaws.com/forests/v2/global/dinov3_global_chm_v2_ml3/chm/0231010213.tif",
        "source_license": "CC BY 4.0",
        "quadkey": "0231010213",
        "method_version": "earthline-elder-tree-aoi-chmv2-v0.1",
        "screen_rank": 24,
        "screen_reference_peak_count": 597,
        "raw_structural_evidence_score": 35.9681,
        "relative_elder_confidence_pct": 96,
        "confidence_pct": 96,
        "confidence_definition": "Earthline Relative Elder Confidence is a local percentile: how strongly this structure ranks against other detected tree/canopy structures in the same analyzed source tile/AOI. It is not the probability that the tree is ancient, veteran, or a mycorrhizal hub.",
        "height_m": 25.0,
        "emergent_height_m": 8.0,
        "crown_area_proxy_m2": 952.8,
        "open_context_fraction": 0.08,
        "evidence_limit": "Candidate only; modeled canopy structure is not proof of age or mycorrhizal hub status."
      }
    },
    {
      "type": "Feature",
      "geometry": {
        "type": "Point",
        "coordinates": [
          -105.58584988117218,
          39.63520401532867
        ]
      },
      "properties": {
        "record_class": "ELDER_TREE_CANDIDATE",
        "verification_status": "modeled remote-sensing candidate only",
        "source_class": "MODELED_CHMV2",
        "source_name": "WRI/Meta CHMv2",
        "source_url": "https://dataforgood-fb-data.s3.amazonaws.com/forests/v2/global/dinov3_global_chm_v2_ml3/chm/0231010213.tif",
        "source_license": "CC BY 4.0",
        "quadkey": "0231010213",
        "method_version": "earthline-elder-tree-aoi-chmv2-v0.1",
        "screen_rank": 8,
        "screen_reference_peak_count": 597,
        "raw_structural_evidence_score": 38.1159,
        "relative_elder_confidence_pct": 99,
        "confidence_pct": 99,
        "confidence_definition": "Earthline Relative Elder Confidence is a local percentile: how strongly this structure ranks against other detected tree/canopy structures in the same analyzed source tile/AOI. It is not the probability that the tree is ancient, veteran, or a mycorrhizal hub.",
        "height_m": 24.0,
        "emergent_height_m": 11.0,
        "crown_area_proxy_m2": 784.5,
        "open_context_fraction": 0.25,
        "evidence_limit": "Candidate only; modeled canopy structure is not proof of age or mycorrhizal hub status."
      }
    },
    {
      "type": "Feature",
      "geometry": {
        "type": "Point",
        "coordinates": [
          -105.5582445859909,
          39.643589951289556
        ]
      },
      "properties": {
        "record_class": "ELDER_TREE_CANDIDATE",
        "verification_status": "modeled remote-sensing candidate only",
        "source_class": "MODELED_CHMV2",
        "source_name": "WRI/Meta CHMv2",
        "source_url": "https://dataforgood-fb-data.s3.amazonaws.com/forests/v2/global/dinov3_global_chm_v2_ml3/chm/0231010211.tif",
        "source_license": "CC BY 4.0",
        "quadkey": "0231010211",
        "method_version": "earthline-elder-tree-aoi-chmv2-v0.1",
        "screen_rank": 8,
        "screen_reference_peak_count": 1744,
        "raw_structural_evidence_score": 33.8159,
        "relative_elder_confidence_pct": 100,
        "confidence_pct": 100,
        "confidence_definition": "Earthline Relative Elder Confidence is a local percentile: how strongly this structure ranks against other detected tree/canopy structures in the same analyzed source tile/AOI. It is not the probability that the tree is ancient, veteran, or a mycorrhizal hub.",
        "height_m": 23.0,
        "emergent_height_m": 6.0,
        "crown_area_proxy_m2": 1272.4,
        "open_context_fraction": 0.0,
        "evidence_limit": "Candidate only; modeled canopy structure is not proof of age or mycorrhizal hub status."
      }
    },
    {
      "type": "Feature",
      "geometry": {
        "type": "Point",
        "coordinates": [
          -105.5672138929367,
          39.65887204644431
        ]
      },
      "properties": {
        "record_class": "ELDER_TREE_CANDIDATE",
        "verification_status": "modeled remote-sensing candidate only",
        "source_class": "MODELED_CHMV2",
        "source_name": "WRI/Meta CHMv2",
        "source_url": "https://dataforgood-fb-data.s3.amazonaws.com/forests/v2/global/dinov3_global_chm_v2_ml3/chm/0231010211.tif",
        "source_license": "CC BY 4.0",
        "quadkey": "0231010211",
        "method_version": "earthline-elder-tree-aoi-chmv2-v0.1",
        "screen_rank": 11,
        "screen_reference_peak_count": 1744,
        "raw_structural_evidence_score": 34.4883,
        "relative_elder_confidence_pct": 99,
        "confidence_pct": 99,
        "confidence_definition": "Earthline Relative Elder Confidence is a local percentile: how strongly this structure ranks against other detected tree/canopy structures in the same analyzed source tile/AOI. It is not the probability that the tree is ancient, veteran, or a mycorrhizal hub.",
        "height_m": 23.0,
        "emergent_height_m": 8.0,
        "crown_area_proxy_m2": 867.3,
        "open_context_fraction": 0.055,
        "evidence_limit": "Candidate only; modeled canopy structure is not proof of age or mycorrhizal hub status."
      }
    },
    {
      "type": "Feature",
      "geometry": {
        "type": "Point",
        "coordinates": [
          -105.55409252643585,
          39.60726283937533
        ]
      },
      "properties": {
        "record_class": "ELDER_TREE_CANDIDATE",
        "verification_status": "modeled remote-sensing candidate only",
        "source_class": "MODELED_CHMV2",
        "source_name": "WRI/Meta CHMv2",
        "source_url": "https://dataforgood-fb-data.s3.amazonaws.com/forests/v2/global/dinov3_global_chm_v2_ml3/chm/0231010213.tif",
        "source_license": "CC BY 4.0",
        "quadkey": "0231010213",
        "method_version": "earthline-elder-tree-aoi-chmv2-v0.1",
        "screen_rank": 4,
        "screen_reference_peak_count": 597,
        "raw_structural_evidence_score": 36.8597,
        "relative_elder_confidence_pct": 99,
        "confidence_pct": 99,
        "confidence_definition": "Earthline Relative Elder Confidence is a local percentile: how strongly this structure ranks against other detected tree/canopy structures in the same analyzed source tile/AOI. It is not the probability that the tree is ancient, veteran, or a mycorrhizal hub.",
        "height_m": 23.0,
        "emergent_height_m": 10.0,
        "crown_area_proxy_m2": 797.4,
        "open_context_fraction": 0.135,
        "evidence_limit": "Candidate only; modeled canopy structure is not proof of age or mycorrhizal hub status."
      }
    },
    {
      "type": "Feature",
      "geometry": {
        "type": "Point",
        "coordinates": [
          -105.5710119009018,
          39.619627436736245
        ]
      },
      "properties": {
        "record_class": "ELDER_TREE_CANDIDATE",
        "verification_status": "modeled remote-sensing candidate only",
        "source_class": "MODELED_CHMV2",
        "source_name": "WRI/Meta CHMv2",
        "source_url": "https://dataforgood-fb-data.s3.amazonaws.com/forests/v2/global/dinov3_global_chm_v2_ml3/chm/0231010213.tif",
        "source_license": "CC BY 4.0",
        "quadkey": "0231010213",
        "method_version": "earthline-elder-tree-aoi-chmv2-v0.1",
        "screen_rank": 7,
        "screen_reference_peak_count": 597,
        "raw_structural_evidence_score": 34.7617,
        "relative_elder_confidence_pct": 99,
        "confidence_pct": 99,
        "confidence_definition": "Earthline Relative Elder Confidence is a local percentile: how strongly this structure ranks against other detected tree/canopy structures in the same analyzed source tile/AOI. It is not the probability that the tree is ancient, veteran, or a mycorrhizal hub.",
        "height_m": 23.0,
        "emergent_height_m": 6.0,
        "crown_area_proxy_m2": 853.0,
        "open_context_fraction": 0.191,
        "evidence_limit": "Candidate only; modeled canopy structure is not proof of age or mycorrhizal hub status."
      }
    },
    {
      "type": "Feature",
      "geometry": {
        "type": "Point",
        "coordinates": [
          -105.55869519710541,
          39.61979272387987
        ]
      },
      "properties": {
        "record_class": "ELDER_TREE_CANDIDATE",
        "verification_status": "modeled remote-sensing candidate only",
        "source_class": "MODELED_CHMV2",
        "source_name": "WRI/Meta CHMv2",
        "source_url": "https://dataforgood-fb-data.s3.amazonaws.com/forests/v2/global/dinov3_global_chm_v2_ml3/chm/0231010213.tif",
        "source_license": "CC BY 4.0",
        "quadkey": "0231010213",
        "method_version": "earthline-elder-tree-aoi-chmv2-v0.1",
        "screen_rank": 22,
        "screen_reference_peak_count": 597,
        "raw_structural_evidence_score": 35.4088,
        "relative_elder_confidence_pct": 96,
        "confidence_pct": 96,
        "confidence_definition": "Earthline Relative Elder Confidence is a local percentile: how strongly this structure ranks against other detected tree/canopy structures in the same analyzed source tile/AOI. It is not the probability that the tree is ancient, veteran, or a mycorrhizal hub.",
        "height_m": 23.0,
        "emergent_height_m": 9.0,
        "crown_area_proxy_m2": 1071.2,
        "open_context_fraction": 0.0,
        "evidence_limit": "Candidate only; modeled canopy structure is not proof of age or mycorrhizal hub status."
      }
    },
    {
      "type": "Feature",
      "geometry": {
        "type": "Point",
        "coordinates": [
          -105.56018650531769,
          39.623767760777916
        ]
      },
      "properties": {
        "record_class": "ELDER_TREE_CANDIDATE",
        "verification_status": "modeled remote-sensing candidate only",
        "source_class": "MODELED_CHMV2",
        "source_name": "WRI/Meta CHMv2",
        "source_url": "https://dataforgood-fb-data.s3.amazonaws.com/forests/v2/global/dinov3_global_chm_v2_ml3/chm/0231010213.tif",
        "source_license": "CC BY 4.0",
        "quadkey": "0231010213",
        "method_version": "earthline-elder-tree-aoi-chmv2-v0.1",
        "screen_rank": 23,
        "screen_reference_peak_count": 597,
        "raw_structural_evidence_score": 34.9684,
        "relative_elder_confidence_pct": 96,
        "confidence_pct": 96,
        "confidence_definition": "Earthline Relative Elder Confidence is a local percentile: how strongly this structure ranks against other detected tree/canopy structures in the same analyzed source tile/AOI. It is not the probability that the tree is ancient, veteran, or a mycorrhizal hub.",
        "height_m": 23.0,
        "emergent_height_m": 7.0,
        "crown_area_proxy_m2": 1048.4,
        "open_context_fraction": 0.098,
        "evidence_limit": "Candidate only; modeled canopy structure is not proof of age or mycorrhizal hub status."
      }
    },
    {
      "type": "Feature",
      "geometry": {
        "type": "Point",
        "coordinates": [
          -105.55502593517305,
          39.6562371586386
        ]
      },
      "properties": {
        "record_class": "ELDER_TREE_CANDIDATE",
        "verification_status": "modeled remote-sensing candidate only",
        "source_class": "MODELED_CHMV2",
        "source_name": "WRI/Meta CHMv2",
        "source_url": "https://dataforgood-fb-data.s3.amazonaws.com/forests/v2/global/dinov3_global_chm_v2_ml3/chm/0231010211.tif",
        "source_license": "CC BY 4.0",
        "quadkey": "0231010211",
        "method_version": "earthline-elder-tree-aoi-chmv2-v0.1",
        "screen_rank": 2,
        "screen_reference_peak_count": 1744,
        "raw_structural_evidence_score": 35.184,
        "relative_elder_confidence_pct": 100,
        "confidence_pct": 100,
        "confidence_definition": "Earthline Relative Elder Confidence is a local percentile: how strongly this structure ranks against other detected tree/canopy structures in the same analyzed source tile/AOI. It is not the probability that the tree is ancient, veteran, or a mycorrhizal hub.",
        "height_m": 22.0,
        "emergent_height_m": 8.0,
        "crown_area_proxy_m2": 818.8,
        "open_context_fraction": 0.186,
        "evidence_limit": "Candidate only; modeled canopy structure is not proof of age or mycorrhizal hub status."
      }
    },
    {
      "type": "Feature",
      "geometry": {
        "type": "Point",
        "coordinates": [
          -105.56395232677458,
          39.6440195482141
        ]
      },
      "properties": {
        "record_class": "ELDER_TREE_CANDIDATE",
        "verification_status": "modeled remote-sensing candidate only",
        "source_class": "MODELED_CHMV2",
        "source_name": "WRI/Meta CHMv2",
        "source_url": "https://dataforgood-fb-data.s3.amazonaws.com/forests/v2/global/dinov3_global_chm_v2_ml3/chm/0231010211.tif",
        "source_license": "CC BY 4.0",
        "quadkey": "0231010211",
        "method_version": "earthline-elder-tree-aoi-chmv2-v0.1",
        "screen_rank": 10,
        "screen_reference_peak_count": 1744,
        "raw_structural_evidence_score": 33.8239,
        "relative_elder_confidence_pct": 99,
        "confidence_pct": 99,
        "confidence_definition": "Earthline Relative Elder Confidence is a local percentile: how strongly this structure ranks against other detected tree/canopy structures in the same analyzed source tile/AOI. It is not the probability that the tree is ancient, veteran, or a mycorrhizal hub.",
        "height_m": 22.0,
        "emergent_height_m": 7.0,
        "crown_area_proxy_m2": 1018.5,
        "open_context_fraction": 0.084,
        "evidence_limit": "Candidate only; modeled canopy structure is not proof of age or mycorrhizal hub status."
      }
    },
    {
      "type": "Feature",
      "geometry": {
        "type": "Point",
        "coordinates": [
          -105.61048328876495,
          39.675389430056775
        ]
      },
      "properties": {
        "record_class": "ELDER_TREE_CANDIDATE",
        "verification_status": "modeled remote-sensing candidate only",
        "source_class": "MODELED_CHMV2",
        "source_name": "WRI/Meta CHMv2",
        "source_url": "https://dataforgood-fb-data.s3.amazonaws.com/forests/v2/global/dinov3_global_chm_v2_ml3/chm/0231010211.tif",
        "source_license": "CC BY 4.0",
        "quadkey": "0231010211",
        "method_version": "earthline-elder-tree-aoi-chmv2-v0.1",
        "screen_rank": 12,
        "screen_reference_peak_count": 1744,
        "raw_structural_evidence_score": 34.9675,
        "relative_elder_confidence_pct": 99,
        "confidence_pct": 99,
        "confidence_definition": "Earthline Relative Elder Confidence is a local percentile: how strongly this structure ranks against other detected tree/canopy structures in the same analyzed source tile/AOI. It is not the probability that the tree is ancient, veteran, or a mycorrhizal hub.",
        "height_m": 22.0,
        "emergent_height_m": 9.0,
        "crown_area_proxy_m2": 1027.0,
        "open_context_fraction": 0.023,
        "evidence_limit": "Candidate only; modeled canopy structure is not proof of age or mycorrhizal hub status."
      }
    },
    {
      "type": "Feature",
      "geometry": {
        "type": "Point",
        "coordinates": [
          -105.61074078083037,
          39.67528207981308
        ]
      },
      "properties": {
        "record_class": "ELDER_TREE_CANDIDATE",
        "verification_status": "modeled remote-sensing candidate only",
        "source_class": "MODELED_CHMV2",
        "source_name": "WRI/Meta CHMv2",
        "source_url": "https://dataforgood-fb-data.s3.amazonaws.com/forests/v2/global/dinov3_global_chm_v2_ml3/chm/0231010211.tif",
        "source_license": "CC BY 4.0",
        "quadkey": "0231010211",
        "method_version": "earthline-elder-tree-aoi-chmv2-v0.1",
        "screen_rank": 13,
        "screen_reference_peak_count": 1744,
        "raw_structural_evidence_score": 32.6615,
        "relative_elder_confidence_pct": 99,
        "confidence_pct": 99,
        "confidence_definition": "Earthline Relative Elder Confidence is a local percentile: how strongly this structure ranks against other detected tree/canopy structures in the same analyzed source tile/AOI. It is not the probability that the tree is ancient, veteran, or a mycorrhizal hub.",
        "height_m": 22.0,
        "emergent_height_m": 5.0,
        "crown_area_proxy_m2": 1145.4,
        "open_context_fraction": 0.03,
        "evidence_limit": "Candidate only; modeled canopy structure is not proof of age or mycorrhizal hub status."
      }
    },
    {
      "type": "Feature",
      "geometry": {
        "type": "Point",
        "coordinates": [
          -105.57649433612823,
          39.657005333795404
        ]
      },
      "properties": {
        "record_class": "ELDER_TREE_CANDIDATE",
        "verification_status": "modeled remote-sensing candidate only",
        "source_class": "MODELED_CHMV2",
        "source_name": "WRI/Meta CHMv2",
        "source_url": "https://dataforgood-fb-data.s3.amazonaws.com/forests/v2/global/dinov3_global_chm_v2_ml3/chm/0231010211.tif",
        "source_license": "CC BY 4.0",
        "quadkey": "0231010211",
        "method_version": "earthline-elder-tree-aoi-chmv2-v0.1",
        "screen_rank": 14,
        "screen_reference_peak_count": 1744,
        "raw_structural_evidence_score": 35.5577,
        "relative_elder_confidence_pct": 99,
        "confidence_pct": 99,
        "confidence_definition": "Earthline Relative Elder Confidence is a local percentile: how strongly this structure ranks against other detected tree/canopy structures in the same analyzed source tile/AOI. It is not the probability that the tree is ancient, veteran, or a mycorrhizal hub.",
        "height_m": 22.0,
        "emergent_height_m": 8.0,
        "crown_area_proxy_m2": 881.5,
        "open_context_fraction": 0.202,
        "evidence_limit": "Candidate only; modeled canopy structure is not proof of age or mycorrhizal hub status."
      }
    },
    {
      "type": "Feature",
      "geometry": {
        "type": "Point",
        "coordinates": [
          -105.61006486415862,
          39.66507478696246
        ]
      },
      "properties": {
        "record_class": "ELDER_TREE_CANDIDATE",
        "verification_status": "modeled remote-sensing candidate only",
        "source_class": "MODELED_CHMV2",
        "source_name": "WRI/Meta CHMv2",
        "source_url": "https://dataforgood-fb-data.s3.amazonaws.com/forests/v2/global/dinov3_global_chm_v2_ml3/chm/0231010211.tif",
        "source_license": "CC BY 4.0",
        "quadkey": "0231010211",
        "method_version": "earthline-elder-tree-aoi-chmv2-v0.1",
        "screen_rank": 15,
        "screen_reference_peak_count": 1744,
        "raw_structural_evidence_score": 33.1393,
        "relative_elder_confidence_pct": 99,
        "confidence_pct": 99,
        "confidence_definition": "Earthline Relative Elder Confidence is a local percentile: how strongly this structure ranks against other detected tree/canopy structures in the same analyzed source tile/AOI. It is not the probability that the tree is ancient, veteran, or a mycorrhizal hub.",
        "height_m": 22.0,
        "emergent_height_m": 6.0,
        "crown_area_proxy_m2": 1155.4,
        "open_context_fraction": 0.011,
        "evidence_limit": "Candidate only; modeled canopy structure is not proof of age or mycorrhizal hub status."
      }
    },
    {
      "type": "Feature",
      "geometry": {
        "type": "Point",
        "coordinates": [
          -105.58650434017181,
          39.65765786297502
        ]
      },
      "properties": {
        "record_class": "ELDER_TREE_CANDIDATE",
        "verification_status": "modeled remote-sensing candidate only",
        "source_class": "MODELED_CHMV2",
        "source_name": "WRI/Meta CHMv2",
        "source_url": "https://dataforgood-fb-data.s3.amazonaws.com/forests/v2/global/dinov3_global_chm_v2_ml3/chm/0231010211.tif",
        "source_license": "CC BY 4.0",
        "quadkey": "0231010211",
        "method_version": "earthline-elder-tree-aoi-chmv2-v0.1",
        "screen_rank": 20,
        "screen_reference_peak_count": 1744,
        "raw_structural_evidence_score": 34.9445,
        "relative_elder_confidence_pct": 99,
        "confidence_pct": 99,
        "confidence_definition": "Earthline Relative Elder Confidence is a local percentile: how strongly this structure ranks against other detected tree/canopy structures in the same analyzed source tile/AOI. It is not the probability that the tree is ancient, veteran, or a mycorrhizal hub.",
        "height_m": 22.0,
        "emergent_height_m": 9.0,
        "crown_area_proxy_m2": 907.2,
        "open_context_fraction": 0.038,
        "evidence_limit": "Candidate only; modeled canopy structure is not proof of age or mycorrhizal hub status."
      }
    },
    {
      "type": "Feature",
      "geometry": {
        "type": "Point",
        "coordinates": [
          -105.61178147792815,
          39.642772057459744
        ]
      },
      "properties": {
        "record_class": "ELDER_TREE_CANDIDATE",
        "verification_status": "modeled remote-sensing candidate only",
        "source_class": "MODELED_CHMV2",
        "source_name": "WRI/Meta CHMv2",
        "source_url": "https://dataforgood-fb-data.s3.amazonaws.com/forests/v2/global/dinov3_global_chm_v2_ml3/chm/0231010211.tif",
        "source_license": "CC BY 4.0",
        "quadkey": "0231010211",
        "method_version": "earthline-elder-tree-aoi-chmv2-v0.1",
        "screen_rank": 22,
        "screen_reference_peak_count": 1744,
        "raw_structural_evidence_score": 34.1115,
        "relative_elder_confidence_pct": 99,
        "confidence_pct": 99,
        "confidence_definition": "Earthline Relative Elder Confidence is a local percentile: how strongly this structure ranks against other detected tree/canopy structures in the same analyzed source tile/AOI. It is not the probability that the tree is ancient, veteran, or a mycorrhizal hub.",
        "height_m": 22.0,
        "emergent_height_m": 7.0,
        "crown_area_proxy_m2": 985.7,
        "open_context_fraction": 0.163,
        "evidence_limit": "Candidate only; modeled canopy structure is not proof of age or mycorrhizal hub status."
      }
    },
    {
      "type": "Feature",
      "geometry": {
        "type": "Point",
        "coordinates": [
          -105.56245028972626,
          39.650744044493685
        ]
      },
      "properties": {
        "record_class": "ELDER_TREE_CANDIDATE",
        "verification_status": "modeled remote-sensing candidate only",
        "source_class": "MODELED_CHMV2",
        "source_name": "WRI/Meta CHMv2",
        "source_url": "https://dataforgood-fb-data.s3.amazonaws.com/forests/v2/global/dinov3_global_chm_v2_ml3/chm/0231010211.tif",
        "source_license": "CC BY 4.0",
        "quadkey": "0231010211",
        "method_version": "earthline-elder-tree-aoi-chmv2-v0.1",
        "screen_rank": 25,
        "screen_reference_peak_count": 1744,
        "raw_structural_evidence_score": 34.0127,
        "relative_elder_confidence_pct": 99,
        "confidence_pct": 99,
        "confidence_definition": "Earthline Relative Elder Confidence is a local percentile: how strongly this structure ranks against other detected tree/canopy structures in the same analyzed source tile/AOI. It is not the probability that the tree is ancient, veteran, or a mycorrhizal hub.",
        "height_m": 22.0,
        "emergent_height_m": 8.0,
        "crown_area_proxy_m2": 925.7,
        "open_context_fraction": 0.0,
        "evidence_limit": "Candidate only; modeled canopy structure is not proof of age or mycorrhizal hub status."
      }
    },
    {
      "type": "Feature",
      "geometry": {
        "type": "Point",
        "coordinates": [
          -105.61393797397614,
          39.637277873435096
        ]
      },
      "properties": {
        "record_class": "ELDER_TREE_CANDIDATE",
        "verification_status": "modeled remote-sensing candidate only",
        "source_class": "MODELED_CHMV2",
        "source_name": "WRI/Meta CHMv2",
        "source_url": "https://dataforgood-fb-data.s3.amazonaws.com/forests/v2/global/dinov3_global_chm_v2_ml3/chm/0231010213.tif",
        "source_license": "CC BY 4.0",
        "quadkey": "0231010213",
        "method_version": "earthline-elder-tree-aoi-chmv2-v0.1",
        "screen_rank": 3,
        "screen_reference_peak_count": 597,
        "raw_structural_evidence_score": 35.4005,
        "relative_elder_confidence_pct": 100,
        "confidence_pct": 100,
        "confidence_definition": "Earthline Relative Elder Confidence is a local percentile: how strongly this structure ranks against other detected tree/canopy structures in the same analyzed source tile/AOI. It is not the probability that the tree is ancient, veteran, or a mycorrhizal hub.",
        "height_m": 22.0,
        "emergent_height_m": 9.0,
        "crown_area_proxy_m2": 1032.7,
        "open_context_fraction": 0.035,
        "evidence_limit": "Candidate only; modeled canopy structure is not proof of age or mycorrhizal hub status."
      }
    },
    {
      "type": "Feature",
      "geometry": {
        "type": "Point",
        "coordinates": [
          -105.5749922990799,
          39.6381784538065
        ]
      },
      "properties": {
        "record_class": "ELDER_TREE_CANDIDATE",
        "verification_status": "modeled remote-sensing candidate only",
        "source_class": "MODELED_CHMV2",
        "source_name": "WRI/Meta CHMv2",
        "source_url": "https://dataforgood-fb-data.s3.amazonaws.com/forests/v2/global/dinov3_global_chm_v2_ml3/chm/0231010213.tif",
        "source_license": "CC BY 4.0",
        "quadkey": "0231010213",
        "method_version": "earthline-elder-tree-aoi-chmv2-v0.1",
        "screen_rank": 9,
        "screen_reference_peak_count": 597,
        "raw_structural_evidence_score": 33.7888,
        "relative_elder_confidence_pct": 99,
        "confidence_pct": 99,
        "confidence_definition": "Earthline Relative Elder Confidence is a local percentile: how strongly this structure ranks against other detected tree/canopy structures in the same analyzed source tile/AOI. It is not the probability that the tree is ancient, veteran, or a mycorrhizal hub.",
        "height_m": 22.0,
        "emergent_height_m": 7.0,
        "crown_area_proxy_m2": 1201.0,
        "open_context_fraction": 0.045,
        "evidence_limit": "Candidate only; modeled canopy structure is not proof of age or mycorrhizal hub status."
      }
    },
    {
      "type": "Feature",
      "geometry": {
        "type": "Point",
        "coordinates": [
          -105.57688057422637,
          39.63838500728439
        ]
      },
      "properties": {
        "record_class": "ELDER_TREE_CANDIDATE",
        "verification_status": "modeled remote-sensing candidate only",
        "source_class": "MODELED_CHMV2",
        "source_name": "WRI/Meta CHMv2",
        "source_url": "https://dataforgood-fb-data.s3.amazonaws.com/forests/v2/global/dinov3_global_chm_v2_ml3/chm/0231010213.tif",
        "source_license": "CC BY 4.0",
        "quadkey": "0231010213",
        "method_version": "earthline-elder-tree-aoi-chmv2-v0.1",
        "screen_rank": 18,
        "screen_reference_peak_count": 597,
        "raw_structural_evidence_score": 35.6136,
        "relative_elder_confidence_pct": 97,
        "confidence_pct": 97,
        "confidence_definition": "Earthline Relative Elder Confidence is a local percentile: how strongly this structure ranks against other detected tree/canopy structures in the same analyzed source tile/AOI. It is not the probability that the tree is ancient, veteran, or a mycorrhizal hub.",
        "height_m": 22.0,
        "emergent_height_m": 9.0,
        "crown_area_proxy_m2": 1017.0,
        "open_context_fraction": 0.027,
        "evidence_limit": "Candidate only; modeled canopy structure is not proof of age or mycorrhizal hub status."
      }
    },
    {
      "type": "Feature",
      "geometry": {
        "type": "Point",
        "coordinates": [
          -105.55710732936858,
          39.64721665686737
        ]
      },
      "properties": {
        "record_class": "ELDER_TREE_CANDIDATE",
        "verification_status": "modeled remote-sensing candidate only",
        "source_class": "MODELED_CHMV2",
        "source_name": "WRI/Meta CHMv2",
        "source_url": "https://dataforgood-fb-data.s3.amazonaws.com/forests/v2/global/dinov3_global_chm_v2_ml3/chm/0231010211.tif",
        "source_license": "CC BY 4.0",
        "quadkey": "0231010211",
        "method_version": "earthline-elder-tree-aoi-chmv2-v0.1",
        "screen_rank": 6,
        "screen_reference_peak_count": 1744,
        "raw_structural_evidence_score": 33.6151,
        "relative_elder_confidence_pct": 100,
        "confidence_pct": 100,
        "confidence_definition": "Earthline Relative Elder Confidence is a local percentile: how strongly this structure ranks against other detected tree/canopy structures in the same analyzed source tile/AOI. It is not the probability that the tree is ancient, veteran, or a mycorrhizal hub.",
        "height_m": 21.0,
        "emergent_height_m": 7.0,
        "crown_area_proxy_m2": 1032.7,
        "open_context_fraction": 0.097,
        "evidence_limit": "Candidate only; modeled canopy structure is not proof of age or mycorrhizal hub status."
      }
    },
    {
      "type": "Feature",
      "geometry": {
        "type": "Point",
        "coordinates": [
          -105.6109982728958,
          39.67225968909845
        ]
      },
      "properties": {
        "record_class": "ELDER_TREE_CANDIDATE",
        "verification_status": "modeled remote-sensing candidate only",
        "source_class": "MODELED_CHMV2",
        "source_name": "WRI/Meta CHMv2",
        "source_url": "https://dataforgood-fb-data.s3.amazonaws.com/forests/v2/global/dinov3_global_chm_v2_ml3/chm/0231010211.tif",
        "source_license": "CC BY 4.0",
        "quadkey": "0231010211",
        "method_version": "earthline-elder-tree-aoi-chmv2-v0.1",
        "screen_rank": 17,
        "screen_reference_peak_count": 1744,
        "raw_structural_evidence_score": 33.0004,
        "relative_elder_confidence_pct": 99,
        "confidence_pct": 99,
        "confidence_definition": "Earthline Relative Elder Confidence is a local percentile: how strongly this structure ranks against other detected tree/canopy structures in the same analyzed source tile/AOI. It is not the probability that the tree is ancient, veteran, or a mycorrhizal hub.",
        "height_m": 21.0,
        "emergent_height_m": 6.0,
        "crown_area_proxy_m2": 1045.6,
        "open_context_fraction": 0.114,
        "evidence_limit": "Candidate only; modeled canopy structure is not proof of age or mycorrhizal hub status."
      }
    },
    {
      "type": "Feature",
      "geometry": {
        "type": "Point",
        "coordinates": [
          -105.57531416416168,
          39.6384345800273
        ]
      },
      "properties": {
        "record_class": "ELDER_TREE_CANDIDATE",
        "verification_status": "modeled remote-sensing candidate only",
        "source_class": "MODELED_CHMV2",
        "source_name": "WRI/Meta CHMv2",
        "source_url": "https://dataforgood-fb-data.s3.amazonaws.com/forests/v2/global/dinov3_global_chm_v2_ml3/chm/0231010213.tif",
        "source_license": "CC BY 4.0",
        "quadkey": "0231010213",
        "method_version": "earthline-elder-tree-aoi-chmv2-v0.1",
        "screen_rank": 10,
        "screen_reference_peak_count": 597,
        "raw_structural_evidence_score": 33.7605,
        "relative_elder_confidence_pct": 98,
        "confidence_pct": 98,
        "confidence_definition": "Earthline Relative Elder Confidence is a local percentile: how strongly this structure ranks against other detected tree/canopy structures in the same analyzed source tile/AOI. It is not the probability that the tree is ancient, veteran, or a mycorrhizal hub.",
        "height_m": 21.0,
        "emergent_height_m": 7.0,
        "crown_area_proxy_m2": 992.8,
        "open_context_fraction": 0.029,
        "evidence_limit": "Candidate only; modeled canopy structure is not proof of age or mycorrhizal hub status."
      }
    },
    {
      "type": "Feature",
      "geometry": {
        "type": "Point",
        "coordinates": [
          -105.55034816265106,
          39.61367683667414
        ]
      },
      "properties": {
        "record_class": "ELDER_TREE_CANDIDATE",
        "verification_status": "modeled remote-sensing candidate only",
        "source_class": "MODELED_CHMV2",
        "source_name": "WRI/Meta CHMv2",
        "source_url": "https://dataforgood-fb-data.s3.amazonaws.com/forests/v2/global/dinov3_global_chm_v2_ml3/chm/0231010213.tif",
        "source_license": "CC BY 4.0",
        "quadkey": "0231010213",
        "method_version": "earthline-elder-tree-aoi-chmv2-v0.1",
        "screen_rank": 14,
        "screen_reference_peak_count": 597,
        "raw_structural_evidence_score": 34.8886,
        "relative_elder_confidence_pct": 98,
        "confidence_pct": 98,
        "confidence_definition": "Earthline Relative Elder Confidence is a local percentile: how strongly this structure ranks against other detected tree/canopy structures in the same analyzed source tile/AOI. It is not the probability that the tree is ancient, veteran, or a mycorrhizal hub.",
        "height_m": 21.0,
        "emergent_height_m": 9.0,
        "crown_area_proxy_m2": 891.5,
        "open_context_fraction": 0.004,
        "evidence_limit": "Candidate only; modeled canopy structure is not proof of age or mycorrhizal hub status."
      }
    },
    {
      "type": "Feature",
      "geometry": {
        "type": "Point",
        "coordinates": [
          -105.55978953838348,
          39.61005663804644
        ]
      },
      "properties": {
        "record_class": "ELDER_TREE_CANDIDATE",
        "verification_status": "modeled remote-sensing candidate only",
        "source_class": "MODELED_CHMV2",
        "source_name": "WRI/Meta CHMv2",
        "source_url": "https://dataforgood-fb-data.s3.amazonaws.com/forests/v2/global/dinov3_global_chm_v2_ml3/chm/0231010213.tif",
        "source_license": "CC BY 4.0",
        "quadkey": "0231010213",
        "method_version": "earthline-elder-tree-aoi-chmv2-v0.1",
        "screen_rank": 19,
        "screen_reference_peak_count": 597,
        "raw_structural_evidence_score": 33.2072,
        "relative_elder_confidence_pct": 97,
        "confidence_pct": 97,
        "confidence_definition": "Earthline Relative Elder Confidence is a local percentile: how strongly this structure ranks against other detected tree/canopy structures in the same analyzed source tile/AOI. It is not the probability that the tree is ancient, veteran, or a mycorrhizal hub.",
        "height_m": 21.0,
        "emergent_height_m": 6.0,
        "crown_area_proxy_m2": 1212.5,
        "open_context_fraction": 0.01,
        "evidence_limit": "Candidate only; modeled canopy structure is not proof of age or mycorrhizal hub status."
      }
    },
    {
      "type": "Feature",
      "geometry": {
        "type": "Point",
        "coordinates": [
          -105.59124648571016,
          39.60284047199046
        ]
      },
      "properties": {
        "record_class": "ELDER_TREE_CANDIDATE",
        "verification_status": "modeled remote-sensing candidate only",
        "source_class": "MODELED_CHMV2",
        "source_name": "WRI/Meta CHMv2",
        "source_url": "https://dataforgood-fb-data.s3.amazonaws.com/forests/v2/global/dinov3_global_chm_v2_ml3/chm/0231010213.tif",
        "source_license": "CC BY 4.0",
        "quadkey": "0231010213",
        "method_version": "earthline-elder-tree-aoi-chmv2-v0.1",
        "screen_rank": 21,
        "screen_reference_peak_count": 597,
        "raw_structural_evidence_score": 34.4579,
        "relative_elder_confidence_pct": 97,
        "confidence_pct": 97,
        "confidence_definition": "Earthline Relative Elder Confidence is a local percentile: how strongly this structure ranks against other detected tree/canopy structures in the same analyzed source tile/AOI. It is not the probability that the tree is ancient, veteran, or a mycorrhizal hub.",
        "height_m": 21.0,
        "emergent_height_m": 10.0,
        "crown_area_proxy_m2": 760.3,
        "open_context_fraction": 0.101,
        "evidence_limit": "Candidate only; modeled canopy structure is not proof of age or mycorrhizal hub status."
      }
    },
    {
      "type": "Feature",
      "geometry": {
        "type": "Point",
        "coordinates": [
          -105.55007994174957,
          39.61401570402478
        ]
      },
      "properties": {
        "record_class": "ELDER_TREE_CANDIDATE",
        "verification_status": "modeled remote-sensing candidate only",
        "source_class": "MODELED_CHMV2",
        "source_name": "WRI/Meta CHMv2",
        "source_url": "https://dataforgood-fb-data.s3.amazonaws.com/forests/v2/global/dinov3_global_chm_v2_ml3/chm/0231010213.tif",
        "source_license": "CC BY 4.0",
        "quadkey": "0231010213",
        "method_version": "earthline-elder-tree-aoi-chmv2-v0.1",
        "screen_rank": 15,
        "screen_reference_peak_count": 597,
        "raw_structural_evidence_score": 33.5783,
        "relative_elder_confidence_pct": 98,
        "confidence_pct": 98,
        "confidence_definition": "Earthline Relative Elder Confidence is a local percentile: how strongly this structure ranks against other detected tree/canopy structures in the same analyzed source tile/AOI. It is not the probability that the tree is ancient, veteran, or a mycorrhizal hub.",
        "height_m": 20.0,
        "emergent_height_m": 7.0,
        "crown_area_proxy_m2": 1165.4,
        "open_context_fraction": 0.014,
        "evidence_limit": "Candidate only; modeled canopy structure is not proof of age or mycorrhizal hub status."
      }
    },
    {
      "type": "Feature",
      "geometry": {
        "type": "Point",
        "coordinates": [
          -105.61482846736908,
          39.63894682962347
        ]
      },
      "properties": {
        "record_class": "ELDER_TREE_CANDIDATE",
        "verification_status": "modeled remote-sensing candidate only",
        "source_class": "MODELED_CHMV2",
        "source_name": "WRI/Meta CHMv2",
        "source_url": "https://dataforgood-fb-data.s3.amazonaws.com/forests/v2/global/dinov3_global_chm_v2_ml3/chm/0231010213.tif",
        "source_license": "CC BY 4.0",
        "quadkey": "0231010213",
        "method_version": "earthline-elder-tree-aoi-chmv2-v0.1",
        "screen_rank": 20,
        "screen_reference_peak_count": 597,
        "raw_structural_evidence_score": 34.9481,
        "relative_elder_confidence_pct": 97,
        "confidence_pct": 97,
        "confidence_definition": "Earthline Relative Elder Confidence is a local percentile: how strongly this structure ranks against other detected tree/canopy structures in the same analyzed source tile/AOI. It is not the probability that the tree is ancient, veteran, or a mycorrhizal hub.",
        "height_m": 20.0,
        "emergent_height_m": 8.0,
        "crown_area_proxy_m2": 825.9,
        "open_context_fraction": 0.293,
        "evidence_limit": "Candidate only; modeled canopy structure is not proof of age or mycorrhizal hub status."
      }
    },
    {
      "type": "Feature",
      "geometry": {
        "type": "Point",
        "coordinates": [
          -105.62745630741118,
          39.672193624436595
        ]
      },
      "properties": {
        "record_class": "ELDER_TREE_CANDIDATE",
        "verification_status": "modeled remote-sensing candidate only",
        "source_class": "MODELED_CHMV2",
        "source_name": "WRI/Meta CHMv2",
        "source_url": "https://dataforgood-fb-data.s3.amazonaws.com/forests/v2/global/dinov3_global_chm_v2_ml3/chm/0231010211.tif",
        "source_license": "CC BY 4.0",
        "quadkey": "0231010211",
        "method_version": "earthline-elder-tree-aoi-chmv2-v0.1",
        "screen_rank": 3,
        "screen_reference_peak_count": 1744,
        "raw_structural_evidence_score": 32.9402,
        "relative_elder_confidence_pct": 100,
        "confidence_pct": 100,
        "confidence_definition": "Earthline Relative Elder Confidence is a local percentile: how strongly this structure ranks against other detected tree/canopy structures in the same analyzed source tile/AOI. It is not the probability that the tree is ancient, veteran, or a mycorrhizal hub.",
        "height_m": 19.0,
        "emergent_height_m": 7.0,
        "crown_area_proxy_m2": 823.0,
        "open_context_fraction": 0.179,
        "evidence_limit": "Candidate only; modeled canopy structure is not proof of age or mycorrhizal hub status."
      }
    },
    {
      "type": "Feature",
      "geometry": {
        "type": "Point",
        "coordinates": [
          -105.61510741710663,
          39.63959952925717
        ]
      },
      "properties": {
        "record_class": "ELDER_TREE_CANDIDATE",
        "verification_status": "modeled remote-sensing candidate only",
        "source_class": "MODELED_CHMV2",
        "source_name": "WRI/Meta CHMv2",
        "source_url": "https://dataforgood-fb-data.s3.amazonaws.com/forests/v2/global/dinov3_global_chm_v2_ml3/chm/0231010211.tif",
        "source_license": "CC BY 4.0",
        "quadkey": "0231010211",
        "method_version": "earthline-elder-tree-aoi-chmv2-v0.1",
        "screen_rank": 4,
        "screen_reference_peak_count": 1744,
        "raw_structural_evidence_score": 34.8166,
        "relative_elder_confidence_pct": 100,
        "confidence_pct": 100,
        "confidence_definition": "Earthline Relative Elder Confidence is a local percentile: how strongly this structure ranks against other detected tree/canopy structures in the same analyzed source tile/AOI. It is not the probability that the tree is ancient, veteran, or a mycorrhizal hub.",
        "height_m": 19.0,
        "emergent_height_m": 8.0,
        "crown_area_proxy_m2": 791.7,
        "open_context_fraction": 0.338,
        "evidence_limit": "Candidate only; modeled canopy structure is not proof of age or mycorrhizal hub status."
      }
    },
    {
      "type": "Feature",
      "geometry": {
        "type": "Point",
        "coordinates": [
          -105.61423838138579,
          39.64040919872376
        ]
      },
      "properties": {
        "record_class": "ELDER_TREE_CANDIDATE",
        "verification_status": "modeled remote-sensing candidate only",
        "source_class": "MODELED_CHMV2",
        "source_name": "WRI/Meta CHMv2",
        "source_url": "https://dataforgood-fb-data.s3.amazonaws.com/forests/v2/global/dinov3_global_chm_v2_ml3/chm/0231010211.tif",
        "source_license": "CC BY 4.0",
        "quadkey": "0231010211",
        "method_version": "earthline-elder-tree-aoi-chmv2-v0.1",
        "screen_rank": 21,
        "screen_reference_peak_count": 1744,
        "raw_structural_evidence_score": 32.4726,
        "relative_elder_confidence_pct": 99,
        "confidence_pct": 99,
        "confidence_definition": "Earthline Relative Elder Confidence is a local percentile: how strongly this structure ranks against other detected tree/canopy structures in the same analyzed source tile/AOI. It is not the probability that the tree is ancient, veteran, or a mycorrhizal hub.",
        "height_m": 19.0,
        "emergent_height_m": 6.0,
        "crown_area_proxy_m2": 989.9,
        "open_context_fraction": 0.143,
        "evidence_limit": "Candidate only; modeled canopy structure is not proof of age or mycorrhizal hub status."
      }
    },
    {
      "type": "Feature",
      "geometry": {
        "type": "Point",
        "coordinates": [
          -105.61824023723602,
          39.635245327850114
        ]
      },
      "properties": {
        "record_class": "ELDER_TREE_CANDIDATE",
        "verification_status": "modeled remote-sensing candidate only",
        "source_class": "MODELED_CHMV2",
        "source_name": "WRI/Meta CHMv2",
        "source_url": "https://dataforgood-fb-data.s3.amazonaws.com/forests/v2/global/dinov3_global_chm_v2_ml3/chm/0231010213.tif",
        "source_license": "CC BY 4.0",
        "quadkey": "0231010213",
        "method_version": "earthline-elder-tree-aoi-chmv2-v0.1",
        "screen_rank": 12,
        "screen_reference_peak_count": 597,
        "raw_structural_evidence_score": 33.8313,
        "relative_elder_confidence_pct": 98,
        "confidence_pct": 98,
        "confidence_definition": "Earthline Relative Elder Confidence is a local percentile: how strongly this structure ranks against other detected tree/canopy structures in the same analyzed source tile/AOI. It is not the probability that the tree is ancient, veteran, or a mycorrhizal hub.",
        "height_m": 19.0,
        "emergent_height_m": 8.0,
        "crown_area_proxy_m2": 845.9,
        "open_context_fraction": 0.127,
        "evidence_limit": "Candidate only; modeled canopy structure is not proof of age or mycorrhizal hub status."
      }
    },
    {
      "type": "Feature",
      "geometry": {
        "type": "Point",
        "coordinates": [
          -105.58145105838774,
          39.63701348064077
        ]
      },
      "properties": {
        "record_class": "ELDER_TREE_CANDIDATE",
        "verification_status": "modeled remote-sensing candidate only",
        "source_class": "MODELED_CHMV2",
        "source_name": "WRI/Meta CHMv2",
        "source_url": "https://dataforgood-fb-data.s3.amazonaws.com/forests/v2/global/dinov3_global_chm_v2_ml3/chm/0231010213.tif",
        "source_license": "CC BY 4.0",
        "quadkey": "0231010213",
        "method_version": "earthline-elder-tree-aoi-chmv2-v0.1",
        "screen_rank": 17,
        "screen_reference_peak_count": 597,
        "raw_structural_evidence_score": 33.3086,
        "relative_elder_confidence_pct": 97,
        "confidence_pct": 97,
        "confidence_definition": "Earthline Relative Elder Confidence is a local percentile: how strongly this structure ranks against other detected tree/canopy structures in the same analyzed source tile/AOI. It is not the probability that the tree is ancient, veteran, or a mycorrhizal hub.",
        "height_m": 19.0,
        "emergent_height_m": 7.0,
        "crown_area_proxy_m2": 900.1,
        "open_context_fraction": 0.191,
        "evidence_limit": "Candidate only; modeled canopy structure is not proof of age or mycorrhizal hub status."
      }
    },
    {
      "type": "Feature",
      "geometry": {
        "type": "Point",
        "coordinates": [
          -105.61194241046904,
          39.64092143369496
        ]
      },
      "properties": {
        "record_class": "ELDER_TREE_CANDIDATE",
        "verification_status": "modeled remote-sensing candidate only",
        "source_class": "MODELED_CHMV2",
        "source_name": "WRI/Meta CHMv2",
        "source_url": "https://dataforgood-fb-data.s3.amazonaws.com/forests/v2/global/dinov3_global_chm_v2_ml3/chm/0231010211.tif",
        "source_license": "CC BY 4.0",
        "quadkey": "0231010211",
        "method_version": "earthline-elder-tree-aoi-chmv2-v0.1",
        "screen_rank": 5,
        "screen_reference_peak_count": 1744,
        "raw_structural_evidence_score": 32.7444,
        "relative_elder_confidence_pct": 100,
        "confidence_pct": 100,
        "confidence_definition": "Earthline Relative Elder Confidence is a local percentile: how strongly this structure ranks against other detected tree/canopy structures in the same analyzed source tile/AOI. It is not the probability that the tree is ancient, veteran, or a mycorrhizal hub.",
        "height_m": 18.0,
        "emergent_height_m": 6.0,
        "crown_area_proxy_m2": 895.8,
        "open_context_fraction": 0.231,
        "evidence_limit": "Candidate only; modeled canopy structure is not proof of age or mycorrhizal hub status."
      }
    },
    {
      "type": "Feature",
      "geometry": {
        "type": "Point",
        "coordinates": [
          -105.58556020259856,
          39.64059922181703
        ]
      },
      "properties": {
        "record_class": "ELDER_TREE_CANDIDATE",
        "verification_status": "modeled remote-sensing candidate only",
        "source_class": "MODELED_CHMV2",
        "source_name": "WRI/Meta CHMv2",
        "source_url": "https://dataforgood-fb-data.s3.amazonaws.com/forests/v2/global/dinov3_global_chm_v2_ml3/chm/0231010211.tif",
        "source_license": "CC BY 4.0",
        "quadkey": "0231010211",
        "method_version": "earthline-elder-tree-aoi-chmv2-v0.1",
        "screen_rank": 18,
        "screen_reference_peak_count": 1744,
        "raw_structural_evidence_score": 31.8681,
        "relative_elder_confidence_pct": 99,
        "confidence_pct": 99,
        "confidence_definition": "Earthline Relative Elder Confidence is a local percentile: how strongly this structure ranks against other detected tree/canopy structures in the same analyzed source tile/AOI. It is not the probability that the tree is ancient, veteran, or a mycorrhizal hub.",
        "height_m": 18.0,
        "emergent_height_m": 7.0,
        "crown_area_proxy_m2": 864.4,
        "open_context_fraction": 0.074,
        "evidence_limit": "Candidate only; modeled canopy structure is not proof of age or mycorrhizal hub status."
      }
    },
    {
      "type": "Feature",
      "geometry": {
        "type": "Point",
        "coordinates": [
          -105.61109483242035,
          39.643639520301676
        ]
      },
      "properties": {
        "record_class": "ELDER_TREE_CANDIDATE",
        "verification_status": "modeled remote-sensing candidate only",
        "source_class": "MODELED_CHMV2",
        "source_name": "WRI/Meta CHMv2",
        "source_url": "https://dataforgood-fb-data.s3.amazonaws.com/forests/v2/global/dinov3_global_chm_v2_ml3/chm/0231010211.tif",
        "source_license": "CC BY 4.0",
        "quadkey": "0231010211",
        "method_version": "earthline-elder-tree-aoi-chmv2-v0.1",
        "screen_rank": 24,
        "screen_reference_peak_count": 1744,
        "raw_structural_evidence_score": 30.9819,
        "relative_elder_confidence_pct": 99,
        "confidence_pct": 99,
        "confidence_definition": "Earthline Relative Elder Confidence is a local percentile: how strongly this structure ranks against other detected tree/canopy structures in the same analyzed source tile/AOI. It is not the probability that the tree is ancient, veteran, or a mycorrhizal hub.",
        "height_m": 18.0,
        "emergent_height_m": 5.0,
        "crown_area_proxy_m2": 945.7,
        "open_context_fraction": 0.026,
        "evidence_limit": "Candidate only; modeled canopy structure is not proof of age or mycorrhizal hub status."
      }
    },
    {
      "type": "Feature",
      "geometry": {
        "type": "Point",
        "coordinates": [
          -105.56624829769135,
          39.611403903031174
        ]
      },
      "properties": {
        "record_class": "ELDER_TREE_CANDIDATE",
        "verification_status": "modeled remote-sensing candidate only",
        "source_class": "MODELED_CHMV2",
        "source_name": "WRI/Meta CHMv2",
        "source_url": "https://dataforgood-fb-data.s3.amazonaws.com/forests/v2/global/dinov3_global_chm_v2_ml3/chm/0231010213.tif",
        "source_license": "CC BY 4.0",
        "quadkey": "0231010213",
        "method_version": "earthline-elder-tree-aoi-chmv2-v0.1",
        "screen_rank": 5,
        "screen_reference_peak_count": 597,
        "raw_structural_evidence_score": 32.3515,
        "relative_elder_confidence_pct": 99,
        "confidence_pct": 99,
        "confidence_definition": "Earthline Relative Elder Confidence is a local percentile: how strongly this structure ranks against other detected tree/canopy structures in the same analyzed source tile/AOI. It is not the probability that the tree is ancient, veteran, or a mycorrhizal hub.",
        "height_m": 18.0,
        "emergent_height_m": 7.0,
        "crown_area_proxy_m2": 763.1,
        "open_context_fraction": 0.201,
        "evidence_limit": "Candidate only; modeled canopy structure is not proof of age or mycorrhizal hub status."
      }
    },
    {
      "type": "Feature",
      "geometry": {
        "type": "Point",
        "coordinates": [
          -105.55385649204254,
          39.61633814049105
        ]
      },
      "properties": {
        "record_class": "ELDER_TREE_CANDIDATE",
        "verification_status": "modeled remote-sensing candidate only",
        "source_class": "MODELED_CHMV2",
        "source_name": "WRI/Meta CHMv2",
        "source_url": "https://dataforgood-fb-data.s3.amazonaws.com/forests/v2/global/dinov3_global_chm_v2_ml3/chm/0231010213.tif",
        "source_license": "CC BY 4.0",
        "quadkey": "0231010213",
        "method_version": "earthline-elder-tree-aoi-chmv2-v0.1",
        "screen_rank": 16,
        "screen_reference_peak_count": 597,
        "raw_structural_evidence_score": 32.8254,
        "relative_elder_confidence_pct": 97,
        "confidence_pct": 97,
        "confidence_definition": "Earthline Relative Elder Confidence is a local percentile: how strongly this structure ranks against other detected tree/canopy structures in the same analyzed source tile/AOI. It is not the probability that the tree is ancient, veteran, or a mycorrhizal hub.",
        "height_m": 17.0,
        "emergent_height_m": 7.0,
        "crown_area_proxy_m2": 801.6,
        "open_context_fraction": 0.307,
        "evidence_limit": "Candidate only; modeled canopy structure is not proof of age or mycorrhizal hub status."
      }
    },
    {
      "type": "Feature",
      "geometry": {
        "type": "Point",
        "coordinates": [
          -105.62536418437958,
          39.62954396665414
        ]
      },
      "properties": {
        "record_class": "ELDER_TREE_CANDIDATE",
        "verification_status": "modeled remote-sensing candidate only",
        "source_class": "MODELED_CHMV2",
        "source_name": "WRI/Meta CHMv2",
        "source_url": "https://dataforgood-fb-data.s3.amazonaws.com/forests/v2/global/dinov3_global_chm_v2_ml3/chm/0231010213.tif",
        "source_license": "CC BY 4.0",
        "quadkey": "0231010213",
        "method_version": "earthline-elder-tree-aoi-chmv2-v0.1",
        "screen_rank": 25,
        "screen_reference_peak_count": 597,
        "raw_structural_evidence_score": 32.2104,
        "relative_elder_confidence_pct": 96,
        "confidence_pct": 96,
        "confidence_definition": "Earthline Relative Elder Confidence is a local percentile: how strongly this structure ranks against other detected tree/canopy structures in the same analyzed source tile/AOI. It is not the probability that the tree is ancient, veteran, or a mycorrhizal hub.",
        "height_m": 17.0,
        "emergent_height_m": 6.0,
        "crown_area_proxy_m2": 960.0,
        "open_context_fraction": 0.223,
        "evidence_limit": "Candidate only; modeled canopy structure is not proof of age or mycorrhizal hub status."
      }
    },
    {
      "type": "Feature",
      "geometry": {
        "type": "Point",
        "coordinates": [
          -105.61540782451628,
          39.64571312547416
        ]
      },
      "properties": {
        "record_class": "ELDER_TREE_CANDIDATE",
        "verification_status": "modeled remote-sensing candidate only",
        "source_class": "MODELED_CHMV2",
        "source_name": "WRI/Meta CHMv2",
        "source_url": "https://dataforgood-fb-data.s3.amazonaws.com/forests/v2/global/dinov3_global_chm_v2_ml3/chm/0231010211.tif",
        "source_license": "CC BY 4.0",
        "quadkey": "0231010211",
        "method_version": "earthline-elder-tree-aoi-chmv2-v0.1",
        "screen_rank": 16,
        "screen_reference_peak_count": 1744,
        "raw_structural_evidence_score": 31.4195,
        "relative_elder_confidence_pct": 99,
        "confidence_pct": 99,
        "confidence_definition": "Earthline Relative Elder Confidence is a local percentile: how strongly this structure ranks against other detected tree/canopy structures in the same analyzed source tile/AOI. It is not the probability that the tree is ancient, veteran, or a mycorrhizal hub.",
        "height_m": 16.0,
        "emergent_height_m": 5.0,
        "crown_area_proxy_m2": 811.6,
        "open_context_fraction": 0.33,
        "evidence_limit": "Candidate only; modeled canopy structure is not proof of age or mycorrhizal hub status."
      }
    },
    {
      "type": "Feature",
      "geometry": {
        "type": "Point",
        "coordinates": [
          -105.60735046863554,
          39.65360217038651
        ]
      },
      "properties": {
        "record_class": "ELDER_TREE_CANDIDATE",
        "verification_status": "modeled remote-sensing candidate only",
        "source_class": "MODELED_CHMV2",
        "source_name": "WRI/Meta CHMv2",
        "source_url": "https://dataforgood-fb-data.s3.amazonaws.com/forests/v2/global/dinov3_global_chm_v2_ml3/chm/0231010211.tif",
        "source_license": "CC BY 4.0",
        "quadkey": "0231010211",
        "method_version": "earthline-elder-tree-aoi-chmv2-v0.1",
        "screen_rank": 19,
        "screen_reference_peak_count": 1744,
        "raw_structural_evidence_score": 31.6776,
        "relative_elder_confidence_pct": 99,
        "confidence_pct": 99,
        "confidence_definition": "Earthline Relative Elder Confidence is a local percentile: how strongly this structure ranks against other detected tree/canopy structures in the same analyzed source tile/AOI. It is not the probability that the tree is ancient, veteran, or a mycorrhizal hub.",
        "height_m": 16.0,
        "emergent_height_m": 6.0,
        "crown_area_proxy_m2": 825.9,
        "open_context_fraction": 0.27,
        "evidence_limit": "Candidate only; modeled canopy structure is not proof of age or mycorrhizal hub status."
      }
    },
    {
      "type": "Feature",
      "geometry": {
        "type": "Point",
        "coordinates": [
          -105.5877810716629,
          39.60506409014663
        ]
      },
      "properties": {
        "record_class": "ELDER_TREE_CANDIDATE",
        "verification_status": "modeled remote-sensing candidate only",
        "source_class": "MODELED_CHMV2",
        "source_name": "WRI/Meta CHMv2",
        "source_url": "https://dataforgood-fb-data.s3.amazonaws.com/forests/v2/global/dinov3_global_chm_v2_ml3/chm/0231010213.tif",
        "source_license": "CC BY 4.0",
        "quadkey": "0231010213",
        "method_version": "earthline-elder-tree-aoi-chmv2-v0.1",
        "screen_rank": 1,
        "screen_reference_peak_count": 597,
        "raw_structural_evidence_score": 31.0264,
        "relative_elder_confidence_pct": 100,
        "confidence_pct": 100,
        "confidence_definition": "Earthline Relative Elder Confidence is a local percentile: how strongly this structure ranks against other detected tree/canopy structures in the same analyzed source tile/AOI. It is not the probability that the tree is ancient, veteran, or a mycorrhizal hub.",
        "height_m": 16.0,
        "emergent_height_m": 6.0,
        "crown_area_proxy_m2": 918.6,
        "open_context_fraction": 0.191,
        "evidence_limit": "Candidate only; modeled canopy structure is not proof of age or mycorrhizal hub status."
      }
    },
    {
      "type": "Feature",
      "geometry": {
        "type": "Point",
        "coordinates": [
          -105.5831354856491,
          39.63710436577781
        ]
      },
      "properties": {
        "record_class": "ELDER_TREE_CANDIDATE",
        "verification_status": "modeled remote-sensing candidate only",
        "source_class": "MODELED_CHMV2",
        "source_name": "WRI/Meta CHMv2",
        "source_url": "https://dataforgood-fb-data.s3.amazonaws.com/forests/v2/global/dinov3_global_chm_v2_ml3/chm/0231010213.tif",
        "source_license": "CC BY 4.0",
        "quadkey": "0231010213",
        "method_version": "earthline-elder-tree-aoi-chmv2-v0.1",
        "screen_rank": 6,
        "screen_reference_peak_count": 597,
        "raw_structural_evidence_score": 31.6237,
        "relative_elder_confidence_pct": 99,
        "confidence_pct": 99,
        "confidence_definition": "Earthline Relative Elder Confidence is a local percentile: how strongly this structure ranks against other detected tree/canopy structures in the same analyzed source tile/AOI. It is not the probability that the tree is ancient, veteran, or a mycorrhizal hub.",
        "height_m": 16.0,
        "emergent_height_m": 7.0,
        "crown_area_proxy_m2": 764.6,
        "open_context_fraction": 0.356,
        "evidence_limit": "Candidate only; modeled canopy structure is not proof of age or mycorrhizal hub status."
      }
    },
    {
      "type": "Feature",
      "geometry": {
        "type": "Point",
        "coordinates": [
          -105.58314621448517,
          39.604510258844485
        ]
      },
      "properties": {
        "record_class": "ELDER_TREE_CANDIDATE",
        "verification_status": "modeled remote-sensing candidate only",
        "source_class": "MODELED_CHMV2",
        "source_name": "WRI/Meta CHMv2",
        "source_url": "https://dataforgood-fb-data.s3.amazonaws.com/forests/v2/global/dinov3_global_chm_v2_ml3/chm/0231010213.tif",
        "source_license": "CC BY 4.0",
        "quadkey": "0231010213",
        "method_version": "earthline-elder-tree-aoi-chmv2-v0.1",
        "screen_rank": 11,
        "screen_reference_peak_count": 597,
        "raw_structural_evidence_score": 32.4263,
        "relative_elder_confidence_pct": 98,
        "confidence_pct": 98,
        "confidence_definition": "Earthline Relative Elder Confidence is a local percentile: how strongly this structure ranks against other detected tree/canopy structures in the same analyzed source tile/AOI. It is not the probability that the tree is ancient, veteran, or a mycorrhizal hub.",
        "height_m": 16.0,
        "emergent_height_m": 7.0,
        "crown_area_proxy_m2": 803.1,
        "open_context_fraction": 0.286,
        "evidence_limit": "Candidate only; modeled canopy structure is not proof of age or mycorrhizal hub status."
      }
    },
    {
      "type": "Feature",
      "geometry": {
        "type": "Point",
        "coordinates": [
          -105.6177681684494,
          39.638310648103406
        ]
      },
      "properties": {
        "record_class": "ELDER_TREE_CANDIDATE",
        "verification_status": "modeled remote-sensing candidate only",
        "source_class": "MODELED_CHMV2",
        "source_name": "WRI/Meta CHMv2",
        "source_url": "https://dataforgood-fb-data.s3.amazonaws.com/forests/v2/global/dinov3_global_chm_v2_ml3/chm/0231010213.tif",
        "source_license": "CC BY 4.0",
        "quadkey": "0231010213",
        "method_version": "earthline-elder-tree-aoi-chmv2-v0.1",
        "screen_rank": 13,
        "screen_reference_peak_count": 597,
        "raw_structural_evidence_score": 31.6348,
        "relative_elder_confidence_pct": 98,
        "confidence_pct": 98,
        "confidence_definition": "Earthline Relative Elder Confidence is a local percentile: how strongly this structure ranks against other detected tree/canopy structures in the same analyzed source tile/AOI. It is not the probability that the tree is ancient, veteran, or a mycorrhizal hub.",
        "height_m": 16.0,
        "emergent_height_m": 6.0,
        "crown_area_proxy_m2": 935.7,
        "open_context_fraction": 0.198,
        "evidence_limit": "Candidate only; modeled canopy structure is not proof of age or mycorrhizal hub status."
      }
    },
    {
      "type": "Feature",
      "geometry": {
        "type": "Point",
        "coordinates": [
          -105.6118458509445,
          39.63957474330765
        ]
      },
      "properties": {
        "record_class": "ELDER_TREE_CANDIDATE",
        "verification_status": "modeled remote-sensing candidate only",
        "source_class": "MODELED_CHMV2",
        "source_name": "WRI/Meta CHMv2",
        "source_url": "https://dataforgood-fb-data.s3.amazonaws.com/forests/v2/global/dinov3_global_chm_v2_ml3/chm/0231010211.tif",
        "source_license": "CC BY 4.0",
        "quadkey": "0231010211",
        "method_version": "earthline-elder-tree-aoi-chmv2-v0.1",
        "screen_rank": 7,
        "screen_reference_peak_count": 1744,
        "raw_structural_evidence_score": 32.3658,
        "relative_elder_confidence_pct": 100,
        "confidence_pct": 100,
        "confidence_definition": "Earthline Relative Elder Confidence is a local percentile: how strongly this structure ranks against other detected tree/canopy structures in the same analyzed source tile/AOI. It is not the probability that the tree is ancient, veteran, or a mycorrhizal hub.",
        "height_m": 15.0,
        "emergent_height_m": 12.0,
        "crown_area_proxy_m2": 649.0,
        "open_context_fraction": 0.503,
        "evidence_limit": "Candidate only; modeled canopy structure is not proof of age or mycorrhizal hub status."
      }
    }
  ]
}