{
  "type": "FeatureCollection",
  "features": [
    {
      "type": "Feature",
      "geometry": {
        "type": "Point",
        "coordinates": [
          -111.73074781894682,
          35.38168065340569
        ]
      },
      "properties": {
        "record_class": "ELDER_TREE_CANDIDATE",
        "verification_status": "modeled remote-sensing candidate only",
        "source_class": "MODELED_CHMV2",
        "source_name": "WRI/Meta CHMv2",
        "source_url": "https://dataforgood-fb-data.s3.amazonaws.com/forests/v2/global/dinov3_global_chm_v2_ml3/chm/0231020210.tif",
        "source_license": "CC BY 4.0",
        "quadkey": "0231020210",
        "method_version": "earthline-elder-tree-aoi-chmv2-v0.3-local-relative",
        "screen_rank": 19,
        "screen_reference_peak_count": 2284,
        "local_canopy_floor_m": 5.0,
        "raw_structural_evidence_score": 36.4067,
        "elder_tree_confidence_pct": 99,
        "confidence_pct": 99,
        "confidence_definition": "Earthline Elder Tree Confidence is a local percentile: how strongly this structure ranks against other detected tree/canopy structures in the same analyzed source tile/AOI. It is not the probability that the tree is ancient, veteran, or a mycorrhizal hub.",
        "height_m": 27.0,
        "emergent_height_m": 26.0,
        "crown_area_proxy_m2": 249.6,
        "open_context_fraction": 0.547,
        "evidence_limit": "Candidate only; modeled canopy structure is not proof of age or mycorrhizal hub status."
      }
    },
    {
      "type": "Feature",
      "geometry": {
        "type": "Point",
        "coordinates": [
          -111.70544922351836,
          35.32706116502952
        ]
      },
      "properties": {
        "record_class": "ELDER_TREE_CANDIDATE",
        "verification_status": "modeled remote-sensing candidate only",
        "source_class": "MODELED_CHMV2",
        "source_name": "WRI/Meta CHMv2",
        "source_url": "https://dataforgood-fb-data.s3.amazonaws.com/forests/v2/global/dinov3_global_chm_v2_ml3/chm/0231020210.tif",
        "source_license": "CC BY 4.0",
        "quadkey": "0231020210",
        "method_version": "earthline-elder-tree-aoi-chmv2-v0.3-local-relative",
        "screen_rank": 18,
        "screen_reference_peak_count": 2284,
        "local_canopy_floor_m": 5.0,
        "raw_structural_evidence_score": 36.6023,
        "elder_tree_confidence_pct": 99,
        "confidence_pct": 99,
        "confidence_definition": "Earthline Elder Tree Confidence is a local percentile: how strongly this structure ranks against other detected tree/canopy structures in the same analyzed source tile/AOI. It is not the probability that the tree is ancient, veteran, or a mycorrhizal hub.",
        "height_m": 26.0,
        "emergent_height_m": 8.0,
        "crown_area_proxy_m2": 1088.4,
        "open_context_fraction": 0.008,
        "evidence_limit": "Candidate only; modeled canopy structure is not proof of age or mycorrhizal hub status."
      }
    },
    {
      "type": "Feature",
      "geometry": {
        "type": "Point",
        "coordinates": [
          -111.71091020107269,
          35.29669034412831
        ]
      },
      "properties": {
        "record_class": "ELDER_TREE_CANDIDATE",
        "verification_status": "modeled remote-sensing candidate only",
        "source_class": "MODELED_CHMV2",
        "source_name": "WRI/Meta CHMv2",
        "source_url": "https://dataforgood-fb-data.s3.amazonaws.com/forests/v2/global/dinov3_global_chm_v2_ml3/chm/0231020210.tif",
        "source_license": "CC BY 4.0",
        "quadkey": "0231020210",
        "method_version": "earthline-elder-tree-aoi-chmv2-v0.3-local-relative",
        "screen_rank": 24,
        "screen_reference_peak_count": 2284,
        "local_canopy_floor_m": 5.0,
        "raw_structural_evidence_score": 38.5934,
        "elder_tree_confidence_pct": 99,
        "confidence_pct": 99,
        "confidence_definition": "Earthline Elder Tree Confidence is a local percentile: how strongly this structure ranks against other detected tree/canopy structures in the same analyzed source tile/AOI. It is not the probability that the tree is ancient, veteran, or a mycorrhizal hub.",
        "height_m": 26.0,
        "emergent_height_m": 10.0,
        "crown_area_proxy_m2": 823.0,
        "open_context_fraction": 0.274,
        "evidence_limit": "Candidate only; modeled canopy structure is not proof of age or mycorrhizal hub status."
      }
    },
    {
      "type": "Feature",
      "geometry": {
        "type": "Point",
        "coordinates": [
          -111.72263681888579,
          35.338710937480876
        ]
      },
      "properties": {
        "record_class": "ELDER_TREE_CANDIDATE",
        "verification_status": "modeled remote-sensing candidate only",
        "source_class": "MODELED_CHMV2",
        "source_name": "WRI/Meta CHMv2",
        "source_url": "https://dataforgood-fb-data.s3.amazonaws.com/forests/v2/global/dinov3_global_chm_v2_ml3/chm/0231020210.tif",
        "source_license": "CC BY 4.0",
        "quadkey": "0231020210",
        "method_version": "earthline-elder-tree-aoi-chmv2-v0.3-local-relative",
        "screen_rank": 3,
        "screen_reference_peak_count": 2284,
        "local_canopy_floor_m": 5.0,
        "raw_structural_evidence_score": 33.4336,
        "elder_tree_confidence_pct": 100,
        "confidence_pct": 100,
        "confidence_definition": "Earthline Elder Tree Confidence is a local percentile: how strongly this structure ranks against other detected tree/canopy structures in the same analyzed source tile/AOI. It is not the probability that the tree is ancient, veteran, or a mycorrhizal hub.",
        "height_m": 25.0,
        "emergent_height_m": 4.0,
        "crown_area_proxy_m2": 1149.7,
        "open_context_fraction": 0.118,
        "evidence_limit": "Candidate only; modeled canopy structure is not proof of age or mycorrhizal hub status."
      }
    },
    {
      "type": "Feature",
      "geometry": {
        "type": "Point",
        "coordinates": [
          -111.70383989810942,
          35.329538304537934
        ]
      },
      "properties": {
        "record_class": "ELDER_TREE_CANDIDATE",
        "verification_status": "modeled remote-sensing candidate only",
        "source_class": "MODELED_CHMV2",
        "source_name": "WRI/Meta CHMv2",
        "source_url": "https://dataforgood-fb-data.s3.amazonaws.com/forests/v2/global/dinov3_global_chm_v2_ml3/chm/0231020210.tif",
        "source_license": "CC BY 4.0",
        "quadkey": "0231020210",
        "method_version": "earthline-elder-tree-aoi-chmv2-v0.3-local-relative",
        "screen_rank": 9,
        "screen_reference_peak_count": 2284,
        "local_canopy_floor_m": 5.0,
        "raw_structural_evidence_score": 34.6875,
        "elder_tree_confidence_pct": 100,
        "confidence_pct": 100,
        "confidence_definition": "Earthline Elder Tree Confidence is a local percentile: how strongly this structure ranks against other detected tree/canopy structures in the same analyzed source tile/AOI. It is not the probability that the tree is ancient, veteran, or a mycorrhizal hub.",
        "height_m": 25.0,
        "emergent_height_m": 6.0,
        "crown_area_proxy_m2": 1235.3,
        "open_context_fraction": 0.008,
        "evidence_limit": "Candidate only; modeled canopy structure is not proof of age or mycorrhizal hub status."
      }
    },
    {
      "type": "Feature",
      "geometry": {
        "type": "Point",
        "coordinates": [
          -111.72902047634125,
          35.387838559239924
        ]
      },
      "properties": {
        "record_class": "ELDER_TREE_CANDIDATE",
        "verification_status": "modeled remote-sensing candidate only",
        "source_class": "MODELED_CHMV2",
        "source_name": "WRI/Meta CHMv2",
        "source_url": "https://dataforgood-fb-data.s3.amazonaws.com/forests/v2/global/dinov3_global_chm_v2_ml3/chm/0231020210.tif",
        "source_license": "CC BY 4.0",
        "quadkey": "0231020210",
        "method_version": "earthline-elder-tree-aoi-chmv2-v0.3-local-relative",
        "screen_rank": 20,
        "screen_reference_peak_count": 2284,
        "local_canopy_floor_m": 5.0,
        "raw_structural_evidence_score": 35.7356,
        "elder_tree_confidence_pct": 99,
        "confidence_pct": 99,
        "confidence_definition": "Earthline Elder Tree Confidence is a local percentile: how strongly this structure ranks against other detected tree/canopy structures in the same analyzed source tile/AOI. It is not the probability that the tree is ancient, veteran, or a mycorrhizal hub.",
        "height_m": 25.0,
        "emergent_height_m": 7.0,
        "crown_area_proxy_m2": 1031.3,
        "open_context_fraction": 0.102,
        "evidence_limit": "Candidate only; modeled canopy structure is not proof of age or mycorrhizal hub status."
      }
    },
    {
      "type": "Feature",
      "geometry": {
        "type": "Point",
        "coordinates": [
          -111.71230494976044,
          35.38358755517149
        ]
      },
      "properties": {
        "record_class": "ELDER_TREE_CANDIDATE",
        "verification_status": "modeled remote-sensing candidate only",
        "source_class": "MODELED_CHMV2",
        "source_name": "WRI/Meta CHMv2",
        "source_url": "https://dataforgood-fb-data.s3.amazonaws.com/forests/v2/global/dinov3_global_chm_v2_ml3/chm/0231020210.tif",
        "source_license": "CC BY 4.0",
        "quadkey": "0231020210",
        "method_version": "earthline-elder-tree-aoi-chmv2-v0.3-local-relative",
        "screen_rank": 22,
        "screen_reference_peak_count": 2284,
        "local_canopy_floor_m": 5.0,
        "raw_structural_evidence_score": 39.4896,
        "elder_tree_confidence_pct": 99,
        "confidence_pct": 99,
        "confidence_definition": "Earthline Elder Tree Confidence is a local percentile: how strongly this structure ranks against other detected tree/canopy structures in the same analyzed source tile/AOI. It is not the probability that the tree is ancient, veteran, or a mycorrhizal hub.",
        "height_m": 24.0,
        "emergent_height_m": 21.0,
        "crown_area_proxy_m2": 556.3,
        "open_context_fraction": 0.502,
        "evidence_limit": "Candidate only; modeled canopy structure is not proof of age or mycorrhizal hub status."
      }
    },
    {
      "type": "Feature",
      "geometry": {
        "type": "Point",
        "coordinates": [
          -111.70851767063141,
          35.33146394358599
        ]
      },
      "properties": {
        "record_class": "ELDER_TREE_CANDIDATE",
        "verification_status": "modeled remote-sensing candidate only",
        "source_class": "MODELED_CHMV2",
        "source_name": "WRI/Meta CHMv2",
        "source_url": "https://dataforgood-fb-data.s3.amazonaws.com/forests/v2/global/dinov3_global_chm_v2_ml3/chm/0231020210.tif",
        "source_license": "CC BY 4.0",
        "quadkey": "0231020210",
        "method_version": "earthline-elder-tree-aoi-chmv2-v0.3-local-relative",
        "screen_rank": 2,
        "screen_reference_peak_count": 2284,
        "local_canopy_floor_m": 5.0,
        "raw_structural_evidence_score": 33.9962,
        "elder_tree_confidence_pct": 100,
        "confidence_pct": 100,
        "confidence_definition": "Earthline Elder Tree Confidence is a local percentile: how strongly this structure ranks against other detected tree/canopy structures in the same analyzed source tile/AOI. It is not the probability that the tree is ancient, veteran, or a mycorrhizal hub.",
        "height_m": 23.0,
        "emergent_height_m": 7.0,
        "crown_area_proxy_m2": 867.3,
        "open_context_fraction": 0.06,
        "evidence_limit": "Candidate only; modeled canopy structure is not proof of age or mycorrhizal hub status."
      }
    },
    {
      "type": "Feature",
      "geometry": {
        "type": "Point",
        "coordinates": [
          -111.72156393527983,
          35.34792628441534
        ]
      },
      "properties": {
        "record_class": "ELDER_TREE_CANDIDATE",
        "verification_status": "modeled remote-sensing candidate only",
        "source_class": "MODELED_CHMV2",
        "source_name": "WRI/Meta CHMv2",
        "source_url": "https://dataforgood-fb-data.s3.amazonaws.com/forests/v2/global/dinov3_global_chm_v2_ml3/chm/0231020210.tif",
        "source_license": "CC BY 4.0",
        "quadkey": "0231020210",
        "method_version": "earthline-elder-tree-aoi-chmv2-v0.3-local-relative",
        "screen_rank": 5,
        "screen_reference_peak_count": 2284,
        "local_canopy_floor_m": 5.0,
        "raw_structural_evidence_score": 35.8174,
        "elder_tree_confidence_pct": 100,
        "confidence_pct": 100,
        "confidence_definition": "Earthline Elder Tree Confidence is a local percentile: how strongly this structure ranks against other detected tree/canopy structures in the same analyzed source tile/AOI. It is not the probability that the tree is ancient, veteran, or a mycorrhizal hub.",
        "height_m": 23.0,
        "emergent_height_m": 8.0,
        "crown_area_proxy_m2": 797.4,
        "open_context_fraction": 0.334,
        "evidence_limit": "Candidate only; modeled canopy structure is not proof of age or mycorrhizal hub status."
      }
    },
    {
      "type": "Feature",
      "geometry": {
        "type": "Point",
        "coordinates": [
          -111.73102676868437,
          35.2803927370397
        ]
      },
      "properties": {
        "record_class": "ELDER_TREE_CANDIDATE",
        "verification_status": "modeled remote-sensing candidate only",
        "source_class": "MODELED_CHMV2",
        "source_name": "WRI/Meta CHMv2",
        "source_url": "https://dataforgood-fb-data.s3.amazonaws.com/forests/v2/global/dinov3_global_chm_v2_ml3/chm/0231020210.tif",
        "source_license": "CC BY 4.0",
        "quadkey": "0231020210",
        "method_version": "earthline-elder-tree-aoi-chmv2-v0.3-local-relative",
        "screen_rank": 11,
        "screen_reference_peak_count": 2284,
        "local_canopy_floor_m": 5.0,
        "raw_structural_evidence_score": 36.7066,
        "elder_tree_confidence_pct": 100,
        "confidence_pct": 100,
        "confidence_definition": "Earthline Elder Tree Confidence is a local percentile: how strongly this structure ranks against other detected tree/canopy structures in the same analyzed source tile/AOI. It is not the probability that the tree is ancient, veteran, or a mycorrhizal hub.",
        "height_m": 23.0,
        "emergent_height_m": 10.0,
        "crown_area_proxy_m2": 786.0,
        "open_context_fraction": 0.201,
        "evidence_limit": "Candidate only; modeled canopy structure is not proof of age or mycorrhizal hub status."
      }
    },
    {
      "type": "Feature",
      "geometry": {
        "type": "Point",
        "coordinates": [
          -111.74143373966217,
          35.3426930064814
        ]
      },
      "properties": {
        "record_class": "ELDER_TREE_CANDIDATE",
        "verification_status": "modeled remote-sensing candidate only",
        "source_class": "MODELED_CHMV2",
        "source_name": "WRI/Meta CHMv2",
        "source_url": "https://dataforgood-fb-data.s3.amazonaws.com/forests/v2/global/dinov3_global_chm_v2_ml3/chm/0231020210.tif",
        "source_license": "CC BY 4.0",
        "quadkey": "0231020210",
        "method_version": "earthline-elder-tree-aoi-chmv2-v0.3-local-relative",
        "screen_rank": 12,
        "screen_reference_peak_count": 2284,
        "local_canopy_floor_m": 5.0,
        "raw_structural_evidence_score": 36.5162,
        "elder_tree_confidence_pct": 100,
        "confidence_pct": 100,
        "confidence_definition": "Earthline Elder Tree Confidence is a local percentile: how strongly this structure ranks against other detected tree/canopy structures in the same analyzed source tile/AOI. It is not the probability that the tree is ancient, veteran, or a mycorrhizal hub.",
        "height_m": 23.0,
        "emergent_height_m": 10.0,
        "crown_area_proxy_m2": 757.4,
        "open_context_fraction": 0.339,
        "evidence_limit": "Candidate only; modeled canopy structure is not proof of age or mycorrhizal hub status."
      }
    },
    {
      "type": "Feature",
      "geometry": {
        "type": "Point",
        "coordinates": [
          -111.69684469699858,
          35.384969593416436
        ]
      },
      "properties": {
        "record_class": "ELDER_TREE_CANDIDATE",
        "verification_status": "modeled remote-sensing candidate only",
        "source_class": "MODELED_CHMV2",
        "source_name": "WRI/Meta CHMv2",
        "source_url": "https://dataforgood-fb-data.s3.amazonaws.com/forests/v2/global/dinov3_global_chm_v2_ml3/chm/0231020210.tif",
        "source_license": "CC BY 4.0",
        "quadkey": "0231020210",
        "method_version": "earthline-elder-tree-aoi-chmv2-v0.3-local-relative",
        "screen_rank": 4,
        "screen_reference_peak_count": 2284,
        "local_canopy_floor_m": 5.0,
        "raw_structural_evidence_score": 34.4569,
        "elder_tree_confidence_pct": 100,
        "confidence_pct": 100,
        "confidence_definition": "Earthline Elder Tree Confidence is a local percentile: how strongly this structure ranks against other detected tree/canopy structures in the same analyzed source tile/AOI. It is not the probability that the tree is ancient, veteran, or a mycorrhizal hub.",
        "height_m": 22.0,
        "emergent_height_m": 15.0,
        "crown_area_proxy_m2": 559.2,
        "open_context_fraction": 0.462,
        "evidence_limit": "Candidate only; modeled canopy structure is not proof of age or mycorrhizal hub status."
      }
    },
    {
      "type": "Feature",
      "geometry": {
        "type": "Point",
        "coordinates": [
          -111.72363460063934,
          35.34673613727642
        ]
      },
      "properties": {
        "record_class": "ELDER_TREE_CANDIDATE",
        "verification_status": "modeled remote-sensing candidate only",
        "source_class": "MODELED_CHMV2",
        "source_name": "WRI/Meta CHMv2",
        "source_url": "https://dataforgood-fb-data.s3.amazonaws.com/forests/v2/global/dinov3_global_chm_v2_ml3/chm/0231020210.tif",
        "source_license": "CC BY 4.0",
        "quadkey": "0231020210",
        "method_version": "earthline-elder-tree-aoi-chmv2-v0.3-local-relative",
        "screen_rank": 6,
        "screen_reference_peak_count": 2284,
        "local_canopy_floor_m": 5.0,
        "raw_structural_evidence_score": 36.6315,
        "elder_tree_confidence_pct": 100,
        "confidence_pct": 100,
        "confidence_definition": "Earthline Elder Tree Confidence is a local percentile: how strongly this structure ranks against other detected tree/canopy structures in the same analyzed source tile/AOI. It is not the probability that the tree is ancient, veteran, or a mycorrhizal hub.",
        "height_m": 22.0,
        "emergent_height_m": 10.0,
        "crown_area_proxy_m2": 780.3,
        "open_context_fraction": 0.275,
        "evidence_limit": "Candidate only; modeled canopy structure is not proof of age or mycorrhizal hub status."
      }
    },
    {
      "type": "Feature",
      "geometry": {
        "type": "Point",
        "coordinates": [
          -111.70112550258636,
          35.33287313218236
        ]
      },
      "properties": {
        "record_class": "ELDER_TREE_CANDIDATE",
        "verification_status": "modeled remote-sensing candidate only",
        "source_class": "MODELED_CHMV2",
        "source_name": "WRI/Meta CHMv2",
        "source_url": "https://dataforgood-fb-data.s3.amazonaws.com/forests/v2/global/dinov3_global_chm_v2_ml3/chm/0231020210.tif",
        "source_license": "CC BY 4.0",
        "quadkey": "0231020210",
        "method_version": "earthline-elder-tree-aoi-chmv2-v0.3-local-relative",
        "screen_rank": 8,
        "screen_reference_peak_count": 2284,
        "local_canopy_floor_m": 5.0,
        "raw_structural_evidence_score": 34.7213,
        "elder_tree_confidence_pct": 100,
        "confidence_pct": 100,
        "confidence_definition": "Earthline Elder Tree Confidence is a local percentile: how strongly this structure ranks against other detected tree/canopy structures in the same analyzed source tile/AOI. It is not the probability that the tree is ancient, veteran, or a mycorrhizal hub.",
        "height_m": 22.0,
        "emergent_height_m": 7.0,
        "crown_area_proxy_m2": 847.3,
        "open_context_fraction": 0.306,
        "evidence_limit": "Candidate only; modeled canopy structure is not proof of age or mycorrhizal hub status."
      }
    },
    {
      "type": "Feature",
      "geometry": {
        "type": "Point",
        "coordinates": [
          -111.67799413204192,
          35.3117764983638
        ]
      },
      "properties": {
        "record_class": "ELDER_TREE_CANDIDATE",
        "verification_status": "modeled remote-sensing candidate only",
        "source_class": "MODELED_CHMV2",
        "source_name": "WRI/Meta CHMv2",
        "source_url": "https://dataforgood-fb-data.s3.amazonaws.com/forests/v2/global/dinov3_global_chm_v2_ml3/chm/0231020210.tif",
        "source_license": "CC BY 4.0",
        "quadkey": "0231020210",
        "method_version": "earthline-elder-tree-aoi-chmv2-v0.3-local-relative",
        "screen_rank": 10,
        "screen_reference_peak_count": 2284,
        "local_canopy_floor_m": 5.0,
        "raw_structural_evidence_score": 33.7688,
        "elder_tree_confidence_pct": 100,
        "confidence_pct": 100,
        "confidence_definition": "Earthline Elder Tree Confidence is a local percentile: how strongly this structure ranks against other detected tree/canopy structures in the same analyzed source tile/AOI. It is not the probability that the tree is ancient, veteran, or a mycorrhizal hub.",
        "height_m": 22.0,
        "emergent_height_m": 7.0,
        "crown_area_proxy_m2": 1126.9,
        "open_context_fraction": 0.056,
        "evidence_limit": "Candidate only; modeled canopy structure is not proof of age or mycorrhizal hub status."
      }
    },
    {
      "type": "Feature",
      "geometry": {
        "type": "Point",
        "coordinates": [
          -111.7327970266342,
          35.3507353121694
        ]
      },
      "properties": {
        "record_class": "ELDER_TREE_CANDIDATE",
        "verification_status": "modeled remote-sensing candidate only",
        "source_class": "MODELED_CHMV2",
        "source_name": "WRI/Meta CHMv2",
        "source_url": "https://dataforgood-fb-data.s3.amazonaws.com/forests/v2/global/dinov3_global_chm_v2_ml3/chm/0231020210.tif",
        "source_license": "CC BY 4.0",
        "quadkey": "0231020210",
        "method_version": "earthline-elder-tree-aoi-chmv2-v0.3-local-relative",
        "screen_rank": 15,
        "screen_reference_peak_count": 2284,
        "local_canopy_floor_m": 5.0,
        "raw_structural_evidence_score": 32.7672,
        "elder_tree_confidence_pct": 99,
        "confidence_pct": 99,
        "confidence_definition": "Earthline Elder Tree Confidence is a local percentile: how strongly this structure ranks against other detected tree/canopy structures in the same analyzed source tile/AOI. It is not the probability that the tree is ancient, veteran, or a mycorrhizal hub.",
        "height_m": 22.0,
        "emergent_height_m": 5.0,
        "crown_area_proxy_m2": 1323.7,
        "open_context_fraction": 0.01,
        "evidence_limit": "Candidate only; modeled canopy structure is not proof of age or mycorrhizal hub status."
      }
    },
    {
      "type": "Feature",
      "geometry": {
        "type": "Point",
        "coordinates": [
          -111.74995243549347,
          35.329170677322914
        ]
      },
      "properties": {
        "record_class": "ELDER_TREE_CANDIDATE",
        "verification_status": "modeled remote-sensing candidate only",
        "source_class": "MODELED_CHMV2",
        "source_name": "WRI/Meta CHMv2",
        "source_url": "https://dataforgood-fb-data.s3.amazonaws.com/forests/v2/global/dinov3_global_chm_v2_ml3/chm/0231020210.tif",
        "source_license": "CC BY 4.0",
        "quadkey": "0231020210",
        "method_version": "earthline-elder-tree-aoi-chmv2-v0.3-local-relative",
        "screen_rank": 23,
        "screen_reference_peak_count": 2284,
        "local_canopy_floor_m": 5.0,
        "raw_structural_evidence_score": 34.8617,
        "elder_tree_confidence_pct": 99,
        "confidence_pct": 99,
        "confidence_definition": "Earthline Elder Tree Confidence is a local percentile: how strongly this structure ranks against other detected tree/canopy structures in the same analyzed source tile/AOI. It is not the probability that the tree is ancient, veteran, or a mycorrhizal hub.",
        "height_m": 22.0,
        "emergent_height_m": 8.0,
        "crown_area_proxy_m2": 781.7,
        "open_context_fraction": 0.276,
        "evidence_limit": "Candidate only; modeled canopy structure is not proof of age or mycorrhizal hub status."
      }
    },
    {
      "type": "Feature",
      "geometry": {
        "type": "Point",
        "coordinates": [
          -111.6982179880142,
          35.38383247506765
        ]
      },
      "properties": {
        "record_class": "ELDER_TREE_CANDIDATE",
        "verification_status": "modeled remote-sensing candidate only",
        "source_class": "MODELED_CHMV2",
        "source_name": "WRI/Meta CHMv2",
        "source_url": "https://dataforgood-fb-data.s3.amazonaws.com/forests/v2/global/dinov3_global_chm_v2_ml3/chm/0231020210.tif",
        "source_license": "CC BY 4.0",
        "quadkey": "0231020210",
        "method_version": "earthline-elder-tree-aoi-chmv2-v0.3-local-relative",
        "screen_rank": 7,
        "screen_reference_peak_count": 2284,
        "local_canopy_floor_m": 5.0,
        "raw_structural_evidence_score": 32.5011,
        "elder_tree_confidence_pct": 100,
        "confidence_pct": 100,
        "confidence_definition": "Earthline Elder Tree Confidence is a local percentile: how strongly this structure ranks against other detected tree/canopy structures in the same analyzed source tile/AOI. It is not the probability that the tree is ancient, veteran, or a mycorrhizal hub.",
        "height_m": 21.0,
        "emergent_height_m": 6.0,
        "crown_area_proxy_m2": 817.3,
        "open_context_fraction": 0.135,
        "evidence_limit": "Candidate only; modeled canopy structure is not proof of age or mycorrhizal hub status."
      }
    },
    {
      "type": "Feature",
      "geometry": {
        "type": "Point",
        "coordinates": [
          -111.6697758436203,
          35.305428923673766
        ]
      },
      "properties": {
        "record_class": "ELDER_TREE_CANDIDATE",
        "verification_status": "modeled remote-sensing candidate only",
        "source_class": "MODELED_CHMV2",
        "source_name": "WRI/Meta CHMv2",
        "source_url": "https://dataforgood-fb-data.s3.amazonaws.com/forests/v2/global/dinov3_global_chm_v2_ml3/chm/0231020210.tif",
        "source_license": "CC BY 4.0",
        "quadkey": "0231020210",
        "method_version": "earthline-elder-tree-aoi-chmv2-v0.3-local-relative",
        "screen_rank": 13,
        "screen_reference_peak_count": 2284,
        "local_canopy_floor_m": 5.0,
        "raw_structural_evidence_score": 35.378,
        "elder_tree_confidence_pct": 99,
        "confidence_pct": 99,
        "confidence_definition": "Earthline Elder Tree Confidence is a local percentile: how strongly this structure ranks against other detected tree/canopy structures in the same analyzed source tile/AOI. It is not the probability that the tree is ancient, veteran, or a mycorrhizal hub.",
        "height_m": 21.0,
        "emergent_height_m": 8.0,
        "crown_area_proxy_m2": 807.4,
        "open_context_fraction": 0.322,
        "evidence_limit": "Candidate only; modeled canopy structure is not proof of age or mycorrhizal hub status."
      }
    },
    {
      "type": "Feature",
      "geometry": {
        "type": "Point",
        "coordinates": [
          -111.70024573802945,
          35.290332828611525
        ]
      },
      "properties": {
        "record_class": "ELDER_TREE_CANDIDATE",
        "verification_status": "modeled remote-sensing candidate only",
        "source_class": "MODELED_CHMV2",
        "source_name": "WRI/Meta CHMv2",
        "source_url": "https://dataforgood-fb-data.s3.amazonaws.com/forests/v2/global/dinov3_global_chm_v2_ml3/chm/0231020210.tif",
        "source_license": "CC BY 4.0",
        "quadkey": "0231020210",
        "method_version": "earthline-elder-tree-aoi-chmv2-v0.3-local-relative",
        "screen_rank": 14,
        "screen_reference_peak_count": 2284,
        "local_canopy_floor_m": 5.0,
        "raw_structural_evidence_score": 34.1354,
        "elder_tree_confidence_pct": 99,
        "confidence_pct": 99,
        "confidence_definition": "Earthline Elder Tree Confidence is a local percentile: how strongly this structure ranks against other detected tree/canopy structures in the same analyzed source tile/AOI. It is not the probability that the tree is ancient, veteran, or a mycorrhizal hub.",
        "height_m": 21.0,
        "emergent_height_m": 9.0,
        "crown_area_proxy_m2": 724.6,
        "open_context_fraction": 0.38,
        "evidence_limit": "Candidate only; modeled canopy structure is not proof of age or mycorrhizal hub status."
      }
    },
    {
      "type": "Feature",
      "geometry": {
        "type": "Point",
        "coordinates": [
          -111.68316543102264,
          35.29826651039259
        ]
      },
      "properties": {
        "record_class": "ELDER_TREE_CANDIDATE",
        "verification_status": "modeled remote-sensing candidate only",
        "source_class": "MODELED_CHMV2",
        "source_name": "WRI/Meta CHMv2",
        "source_url": "https://dataforgood-fb-data.s3.amazonaws.com/forests/v2/global/dinov3_global_chm_v2_ml3/chm/0231020210.tif",
        "source_license": "CC BY 4.0",
        "quadkey": "0231020210",
        "method_version": "earthline-elder-tree-aoi-chmv2-v0.3-local-relative",
        "screen_rank": 17,
        "screen_reference_peak_count": 2284,
        "local_canopy_floor_m": 5.0,
        "raw_structural_evidence_score": 33.7667,
        "elder_tree_confidence_pct": 99,
        "confidence_pct": 99,
        "confidence_definition": "Earthline Elder Tree Confidence is a local percentile: how strongly this structure ranks against other detected tree/canopy structures in the same analyzed source tile/AOI. It is not the probability that the tree is ancient, veteran, or a mycorrhizal hub.",
        "height_m": 21.0,
        "emergent_height_m": 14.0,
        "crown_area_proxy_m2": 574.8,
        "open_context_fraction": 0.455,
        "evidence_limit": "Candidate only; modeled canopy structure is not proof of age or mycorrhizal hub status."
      }
    },
    {
      "type": "Feature",
      "geometry": {
        "type": "Point",
        "coordinates": [
          -111.68037593364716,
          35.30020165032378
        ]
      },
      "properties": {
        "record_class": "ELDER_TREE_CANDIDATE",
        "verification_status": "modeled remote-sensing candidate only",
        "source_class": "MODELED_CHMV2",
        "source_name": "WRI/Meta CHMv2",
        "source_url": "https://dataforgood-fb-data.s3.amazonaws.com/forests/v2/global/dinov3_global_chm_v2_ml3/chm/0231020210.tif",
        "source_license": "CC BY 4.0",
        "quadkey": "0231020210",
        "method_version": "earthline-elder-tree-aoi-chmv2-v0.3-local-relative",
        "screen_rank": 1,
        "screen_reference_peak_count": 2284,
        "local_canopy_floor_m": 5.0,
        "raw_structural_evidence_score": 32.5563,
        "elder_tree_confidence_pct": 100,
        "confidence_pct": 100,
        "confidence_definition": "Earthline Elder Tree Confidence is a local percentile: how strongly this structure ranks against other detected tree/canopy structures in the same analyzed source tile/AOI. It is not the probability that the tree is ancient, veteran, or a mycorrhizal hub.",
        "height_m": 19.0,
        "emergent_height_m": 8.0,
        "crown_area_proxy_m2": 714.6,
        "open_context_fraction": 0.407,
        "evidence_limit": "Candidate only; modeled canopy structure is not proof of age or mycorrhizal hub status."
      }
    },
    {
      "type": "Feature",
      "geometry": {
        "type": "Point",
        "coordinates": [
          -111.68407738208771,
          35.29711065813361
        ]
      },
      "properties": {
        "record_class": "ELDER_TREE_CANDIDATE",
        "verification_status": "modeled remote-sensing candidate only",
        "source_class": "MODELED_CHMV2",
        "source_name": "WRI/Meta CHMv2",
        "source_url": "https://dataforgood-fb-data.s3.amazonaws.com/forests/v2/global/dinov3_global_chm_v2_ml3/chm/0231020210.tif",
        "source_license": "CC BY 4.0",
        "quadkey": "0231020210",
        "method_version": "earthline-elder-tree-aoi-chmv2-v0.3-local-relative",
        "screen_rank": 16,
        "screen_reference_peak_count": 2284,
        "local_canopy_floor_m": 5.0,
        "raw_structural_evidence_score": 31.0853,
        "elder_tree_confidence_pct": 99,
        "confidence_pct": 99,
        "confidence_definition": "Earthline Elder Tree Confidence is a local percentile: how strongly this structure ranks against other detected tree/canopy structures in the same analyzed source tile/AOI. It is not the probability that the tree is ancient, veteran, or a mycorrhizal hub.",
        "height_m": 19.0,
        "emergent_height_m": 4.0,
        "crown_area_proxy_m2": 880.1,
        "open_context_fraction": 0.284,
        "evidence_limit": "Candidate only; modeled canopy structure is not proof of age or mycorrhizal hub status."
      }
    },
    {
      "type": "Feature",
      "geometry": {
        "type": "Point",
        "coordinates": [
          -111.74170196056366,
          35.31917407752985
        ]
      },
      "properties": {
        "record_class": "ELDER_TREE_CANDIDATE",
        "verification_status": "modeled remote-sensing candidate only",
        "source_class": "MODELED_CHMV2",
        "source_name": "WRI/Meta CHMv2",
        "source_url": "https://dataforgood-fb-data.s3.amazonaws.com/forests/v2/global/dinov3_global_chm_v2_ml3/chm/0231020210.tif",
        "source_license": "CC BY 4.0",
        "quadkey": "0231020210",
        "method_version": "earthline-elder-tree-aoi-chmv2-v0.3-local-relative",
        "screen_rank": 21,
        "screen_reference_peak_count": 2284,
        "local_canopy_floor_m": 5.0,
        "raw_structural_evidence_score": 28.9536,
        "elder_tree_confidence_pct": 99,
        "confidence_pct": 99,
        "confidence_definition": "Earthline Elder Tree Confidence is a local percentile: how strongly this structure ranks against other detected tree/canopy structures in the same analyzed source tile/AOI. It is not the probability that the tree is ancient, veteran, or a mycorrhizal hub.",
        "height_m": 13.0,
        "emergent_height_m": 4.0,
        "crown_area_proxy_m2": 887.2,
        "open_context_fraction": 0.277,
        "evidence_limit": "Candidate only; modeled canopy structure is not proof of age or mycorrhizal hub status."
      }
    }
  ]
}