{
  "type": "FeatureCollection",
  "features": [
    {
      "type": "Feature",
      "geometry": {
        "type": "Point",
        "coordinates": [
          -111.66348874568939,
          35.30549021298304
        ]
      },
      "properties": {
        "record_class": "ELDER_TREE_CANDIDATE",
        "verification_status": "modeled remote-sensing candidate only",
        "source_class": "MODELED_CHMV2",
        "source_name": "WRI/Meta CHMv2",
        "source_url": "https://dataforgood-fb-data.s3.amazonaws.com/forests/v2/global/dinov3_global_chm_v2_ml3/chm/0231020210.tif",
        "source_license": "CC BY 4.0",
        "quadkey": "0231020210",
        "method_version": "earthline-elder-tree-aoi-chmv2-v0.1",
        "screen_rank": 7,
        "raw_structural_evidence_score": 37.3867,
        "confidence_pct": 91,
        "confidence_definition": "Earthline relative structural-evidence confidence within the analyzed candidate set; modeled candidates are capped at 95 and the value is not a probability of tree age or ancient/veteran status.",
        "height_m": 29.0,
        "emergent_height_m": 7.0,
        "crown_area_proxy_m2": 1370.8,
        "open_context_fraction": 0.0,
        "evidence_limit": "Candidate only; modeled canopy structure is not proof of age or mycorrhizal hub status."
      }
    },
    {
      "type": "Feature",
      "geometry": {
        "type": "Point",
        "coordinates": [
          -111.67517244815826,
          35.30317869831835
        ]
      },
      "properties": {
        "record_class": "ELDER_TREE_CANDIDATE",
        "verification_status": "modeled remote-sensing candidate only",
        "source_class": "MODELED_CHMV2",
        "source_name": "WRI/Meta CHMv2",
        "source_url": "https://dataforgood-fb-data.s3.amazonaws.com/forests/v2/global/dinov3_global_chm_v2_ml3/chm/0231020210.tif",
        "source_license": "CC BY 4.0",
        "quadkey": "0231020210",
        "method_version": "earthline-elder-tree-aoi-chmv2-v0.1",
        "screen_rank": 23,
        "raw_structural_evidence_score": 38.5977,
        "confidence_pct": 95,
        "confidence_definition": "Earthline relative structural-evidence confidence within the analyzed candidate set; modeled candidates are capped at 95 and the value is not a probability of tree age or ancient/veteran status.",
        "height_m": 29.0,
        "emergent_height_m": 10.0,
        "crown_area_proxy_m2": 992.8,
        "open_context_fraction": 0.0,
        "evidence_limit": "Candidate only; modeled canopy structure is not proof of age or mycorrhizal hub status."
      }
    },
    {
      "type": "Feature",
      "geometry": {
        "type": "Point",
        "coordinates": [
          -111.71524465084075,
          35.287320277758624
        ]
      },
      "properties": {
        "record_class": "ELDER_TREE_CANDIDATE",
        "verification_status": "modeled remote-sensing candidate only",
        "source_class": "MODELED_CHMV2",
        "source_name": "WRI/Meta CHMv2",
        "source_url": "https://dataforgood-fb-data.s3.amazonaws.com/forests/v2/global/dinov3_global_chm_v2_ml3/chm/0231020210.tif",
        "source_license": "CC BY 4.0",
        "quadkey": "0231020210",
        "method_version": "earthline-elder-tree-aoi-chmv2-v0.1",
        "screen_rank": 15,
        "raw_structural_evidence_score": 36.5337,
        "confidence_pct": 86,
        "confidence_definition": "Earthline relative structural-evidence confidence within the analyzed candidate set; modeled candidates are capped at 95 and the value is not a probability of tree age or ancient/veteran status.",
        "height_m": 28.0,
        "emergent_height_m": 7.0,
        "crown_area_proxy_m2": 1289.5,
        "open_context_fraction": 0.005,
        "evidence_limit": "Candidate only; modeled canopy structure is not proof of age or mycorrhizal hub status."
      }
    },
    {
      "type": "Feature",
      "geometry": {
        "type": "Point",
        "coordinates": [
          -111.64425194263457,
          35.309316325078385
        ]
      },
      "properties": {
        "record_class": "ELDER_TREE_CANDIDATE",
        "verification_status": "modeled remote-sensing candidate only",
        "source_class": "MODELED_CHMV2",
        "source_name": "WRI/Meta CHMv2",
        "source_url": "https://dataforgood-fb-data.s3.amazonaws.com/forests/v2/global/dinov3_global_chm_v2_ml3/chm/0231020210.tif",
        "source_license": "CC BY 4.0",
        "quadkey": "0231020210",
        "method_version": "earthline-elder-tree-aoi-chmv2-v0.1",
        "screen_rank": 19,
        "raw_structural_evidence_score": 36.2722,
        "confidence_pct": 85,
        "confidence_definition": "Earthline relative structural-evidence confidence within the analyzed candidate set; modeled candidates are capped at 95 and the value is not a probability of tree age or ancient/veteran status.",
        "height_m": 27.0,
        "emergent_height_m": 8.0,
        "crown_area_proxy_m2": 823.0,
        "open_context_fraction": 0.072,
        "evidence_limit": "Candidate only; modeled canopy structure is not proof of age or mycorrhizal hub status."
      }
    },
    {
      "type": "Feature",
      "geometry": {
        "type": "Point",
        "coordinates": [
          -111.67168557643889,
          35.30286348665657
        ]
      },
      "properties": {
        "record_class": "ELDER_TREE_CANDIDATE",
        "verification_status": "modeled remote-sensing candidate only",
        "source_class": "MODELED_CHMV2",
        "source_name": "WRI/Meta CHMv2",
        "source_url": "https://dataforgood-fb-data.s3.amazonaws.com/forests/v2/global/dinov3_global_chm_v2_ml3/chm/0231020210.tif",
        "source_license": "CC BY 4.0",
        "quadkey": "0231020210",
        "method_version": "earthline-elder-tree-aoi-chmv2-v0.1",
        "screen_rank": 21,
        "raw_structural_evidence_score": 37.442,
        "confidence_pct": 92,
        "confidence_definition": "Earthline relative structural-evidence confidence within the analyzed candidate set; modeled candidates are capped at 95 and the value is not a probability of tree age or ancient/veteran status.",
        "height_m": 27.0,
        "emergent_height_m": 9.0,
        "crown_area_proxy_m2": 854.4,
        "open_context_fraction": 0.051,
        "evidence_limit": "Candidate only; modeled canopy structure is not proof of age or mycorrhizal hub status."
      }
    },
    {
      "type": "Feature",
      "geometry": {
        "type": "Point",
        "coordinates": [
          -111.67299449443816,
          35.30574412534108
        ]
      },
      "properties": {
        "record_class": "ELDER_TREE_CANDIDATE",
        "verification_status": "modeled remote-sensing candidate only",
        "source_class": "MODELED_CHMV2",
        "source_name": "WRI/Meta CHMv2",
        "source_url": "https://dataforgood-fb-data.s3.amazonaws.com/forests/v2/global/dinov3_global_chm_v2_ml3/chm/0231020210.tif",
        "source_license": "CC BY 4.0",
        "quadkey": "0231020210",
        "method_version": "earthline-elder-tree-aoi-chmv2-v0.1",
        "screen_rank": 5,
        "raw_structural_evidence_score": 34.3634,
        "confidence_pct": 76,
        "confidence_definition": "Earthline relative structural-evidence confidence within the analyzed candidate set; modeled candidates are capped at 95 and the value is not a probability of tree age or ancient/veteran status.",
        "height_m": 26.0,
        "emergent_height_m": 5.0,
        "crown_area_proxy_m2": 1265.2,
        "open_context_fraction": 0.03,
        "evidence_limit": "Candidate only; modeled canopy structure is not proof of age or mycorrhizal hub status."
      }
    },
    {
      "type": "Feature",
      "geometry": {
        "type": "Point",
        "coordinates": [
          -111.72263681888579,
          35.338710937480876
        ]
      },
      "properties": {
        "record_class": "ELDER_TREE_CANDIDATE",
        "verification_status": "modeled remote-sensing candidate only",
        "source_class": "MODELED_CHMV2",
        "source_name": "WRI/Meta CHMv2",
        "source_url": "https://dataforgood-fb-data.s3.amazonaws.com/forests/v2/global/dinov3_global_chm_v2_ml3/chm/0231020210.tif",
        "source_license": "CC BY 4.0",
        "quadkey": "0231020210",
        "method_version": "earthline-elder-tree-aoi-chmv2-v0.1",
        "screen_rank": 1,
        "raw_structural_evidence_score": 33.4336,
        "confidence_pct": 70,
        "confidence_definition": "Earthline relative structural-evidence confidence within the analyzed candidate set; modeled candidates are capped at 95 and the value is not a probability of tree age or ancient/veteran status.",
        "height_m": 25.0,
        "emergent_height_m": 4.0,
        "crown_area_proxy_m2": 1149.7,
        "open_context_fraction": 0.118,
        "evidence_limit": "Candidate only; modeled canopy structure is not proof of age or mycorrhizal hub status."
      }
    },
    {
      "type": "Feature",
      "geometry": {
        "type": "Point",
        "coordinates": [
          -111.6862553358078,
          35.37920511277767
        ]
      },
      "properties": {
        "record_class": "ELDER_TREE_CANDIDATE",
        "verification_status": "modeled remote-sensing candidate only",
        "source_class": "MODELED_CHMV2",
        "source_name": "WRI/Meta CHMv2",
        "source_url": "https://dataforgood-fb-data.s3.amazonaws.com/forests/v2/global/dinov3_global_chm_v2_ml3/chm/0231020210.tif",
        "source_license": "CC BY 4.0",
        "quadkey": "0231020210",
        "method_version": "earthline-elder-tree-aoi-chmv2-v0.1",
        "screen_rank": 13,
        "raw_structural_evidence_score": 35.1043,
        "confidence_pct": 82,
        "confidence_definition": "Earthline relative structural-evidence confidence within the analyzed candidate set; modeled candidates are capped at 95 and the value is not a probability of tree age or ancient/veteran status.",
        "height_m": 25.0,
        "emergent_height_m": 6.0,
        "crown_area_proxy_m2": 818.8,
        "open_context_fraction": 0.15,
        "evidence_limit": "Candidate only; modeled canopy structure is not proof of age or mycorrhizal hub status."
      }
    },
    {
      "type": "Feature",
      "geometry": {
        "type": "Point",
        "coordinates": [
          -111.70383989810942,
          35.329538304537934
        ]
      },
      "properties": {
        "record_class": "ELDER_TREE_CANDIDATE",
        "verification_status": "modeled remote-sensing candidate only",
        "source_class": "MODELED_CHMV2",
        "source_name": "WRI/Meta CHMv2",
        "source_url": "https://dataforgood-fb-data.s3.amazonaws.com/forests/v2/global/dinov3_global_chm_v2_ml3/chm/0231020210.tif",
        "source_license": "CC BY 4.0",
        "quadkey": "0231020210",
        "method_version": "earthline-elder-tree-aoi-chmv2-v0.1",
        "screen_rank": 18,
        "raw_structural_evidence_score": 34.6875,
        "confidence_pct": 79,
        "confidence_definition": "Earthline relative structural-evidence confidence within the analyzed candidate set; modeled candidates are capped at 95 and the value is not a probability of tree age or ancient/veteran status.",
        "height_m": 25.0,
        "emergent_height_m": 6.0,
        "crown_area_proxy_m2": 1235.3,
        "open_context_fraction": 0.008,
        "evidence_limit": "Candidate only; modeled canopy structure is not proof of age or mycorrhizal hub status."
      }
    },
    {
      "type": "Feature",
      "geometry": {
        "type": "Point",
        "coordinates": [
          -111.66930377483366,
          35.305306344915955
        ]
      },
      "properties": {
        "record_class": "ELDER_TREE_CANDIDATE",
        "verification_status": "modeled remote-sensing candidate only",
        "source_class": "MODELED_CHMV2",
        "source_name": "WRI/Meta CHMv2",
        "source_url": "https://dataforgood-fb-data.s3.amazonaws.com/forests/v2/global/dinov3_global_chm_v2_ml3/chm/0231020210.tif",
        "source_license": "CC BY 4.0",
        "quadkey": "0231020210",
        "method_version": "earthline-elder-tree-aoi-chmv2-v0.1",
        "screen_rank": 4,
        "raw_structural_evidence_score": 32.3153,
        "confidence_pct": 66,
        "confidence_definition": "Earthline relative structural-evidence confidence within the analyzed candidate set; modeled candidates are capped at 95 and the value is not a probability of tree age or ancient/veteran status.",
        "height_m": 24.0,
        "emergent_height_m": 3.0,
        "crown_area_proxy_m2": 1225.3,
        "open_context_fraction": 0.033,
        "evidence_limit": "Candidate only; modeled canopy structure is not proof of age or mycorrhizal hub status."
      }
    },
    {
      "type": "Feature",
      "geometry": {
        "type": "Point",
        "coordinates": [
          -111.72156393527983,
          35.34792628441534
        ]
      },
      "properties": {
        "record_class": "ELDER_TREE_CANDIDATE",
        "verification_status": "modeled remote-sensing candidate only",
        "source_class": "MODELED_CHMV2",
        "source_name": "WRI/Meta CHMv2",
        "source_url": "https://dataforgood-fb-data.s3.amazonaws.com/forests/v2/global/dinov3_global_chm_v2_ml3/chm/0231020210.tif",
        "source_license": "CC BY 4.0",
        "quadkey": "0231020210",
        "method_version": "earthline-elder-tree-aoi-chmv2-v0.1",
        "screen_rank": 2,
        "raw_structural_evidence_score": 35.8174,
        "confidence_pct": 83,
        "confidence_definition": "Earthline relative structural-evidence confidence within the analyzed candidate set; modeled candidates are capped at 95 and the value is not a probability of tree age or ancient/veteran status.",
        "height_m": 23.0,
        "emergent_height_m": 8.0,
        "crown_area_proxy_m2": 797.4,
        "open_context_fraction": 0.334,
        "evidence_limit": "Candidate only; modeled canopy structure is not proof of age or mycorrhizal hub status."
      }
    },
    {
      "type": "Feature",
      "geometry": {
        "type": "Point",
        "coordinates": [
          -111.70851767063141,
          35.33146394358599
        ]
      },
      "properties": {
        "record_class": "ELDER_TREE_CANDIDATE",
        "verification_status": "modeled remote-sensing candidate only",
        "source_class": "MODELED_CHMV2",
        "source_name": "WRI/Meta CHMv2",
        "source_url": "https://dataforgood-fb-data.s3.amazonaws.com/forests/v2/global/dinov3_global_chm_v2_ml3/chm/0231020210.tif",
        "source_license": "CC BY 4.0",
        "quadkey": "0231020210",
        "method_version": "earthline-elder-tree-aoi-chmv2-v0.1",
        "screen_rank": 11,
        "raw_structural_evidence_score": 33.9962,
        "confidence_pct": 75,
        "confidence_definition": "Earthline relative structural-evidence confidence within the analyzed candidate set; modeled candidates are capped at 95 and the value is not a probability of tree age or ancient/veteran status.",
        "height_m": 23.0,
        "emergent_height_m": 7.0,
        "crown_area_proxy_m2": 867.3,
        "open_context_fraction": 0.06,
        "evidence_limit": "Candidate only; modeled canopy structure is not proof of age or mycorrhizal hub status."
      }
    },
    {
      "type": "Feature",
      "geometry": {
        "type": "Point",
        "coordinates": [
          -111.73102676868437,
          35.2803927370397
        ]
      },
      "properties": {
        "record_class": "ELDER_TREE_CANDIDATE",
        "verification_status": "modeled remote-sensing candidate only",
        "source_class": "MODELED_CHMV2",
        "source_name": "WRI/Meta CHMv2",
        "source_url": "https://dataforgood-fb-data.s3.amazonaws.com/forests/v2/global/dinov3_global_chm_v2_ml3/chm/0231020210.tif",
        "source_license": "CC BY 4.0",
        "quadkey": "0231020210",
        "method_version": "earthline-elder-tree-aoi-chmv2-v0.1",
        "screen_rank": 17,
        "raw_structural_evidence_score": 36.7066,
        "confidence_pct": 89,
        "confidence_definition": "Earthline relative structural-evidence confidence within the analyzed candidate set; modeled candidates are capped at 95 and the value is not a probability of tree age or ancient/veteran status.",
        "height_m": 23.0,
        "emergent_height_m": 10.0,
        "crown_area_proxy_m2": 786.0,
        "open_context_fraction": 0.201,
        "evidence_limit": "Candidate only; modeled canopy structure is not proof of age or mycorrhizal hub status."
      }
    },
    {
      "type": "Feature",
      "geometry": {
        "type": "Point",
        "coordinates": [
          -111.72363460063934,
          35.34673613727642
        ]
      },
      "properties": {
        "record_class": "ELDER_TREE_CANDIDATE",
        "verification_status": "modeled remote-sensing candidate only",
        "source_class": "MODELED_CHMV2",
        "source_name": "WRI/Meta CHMv2",
        "source_url": "https://dataforgood-fb-data.s3.amazonaws.com/forests/v2/global/dinov3_global_chm_v2_ml3/chm/0231020210.tif",
        "source_license": "CC BY 4.0",
        "quadkey": "0231020210",
        "method_version": "earthline-elder-tree-aoi-chmv2-v0.1",
        "screen_rank": 3,
        "raw_structural_evidence_score": 36.6315,
        "confidence_pct": 88,
        "confidence_definition": "Earthline relative structural-evidence confidence within the analyzed candidate set; modeled candidates are capped at 95 and the value is not a probability of tree age or ancient/veteran status.",
        "height_m": 22.0,
        "emergent_height_m": 10.0,
        "crown_area_proxy_m2": 780.3,
        "open_context_fraction": 0.275,
        "evidence_limit": "Candidate only; modeled canopy structure is not proof of age or mycorrhizal hub status."
      }
    },
    {
      "type": "Feature",
      "geometry": {
        "type": "Point",
        "coordinates": [
          -111.70112550258636,
          35.33287313218236
        ]
      },
      "properties": {
        "record_class": "ELDER_TREE_CANDIDATE",
        "verification_status": "modeled remote-sensing candidate only",
        "source_class": "MODELED_CHMV2",
        "source_name": "WRI/Meta CHMv2",
        "source_url": "https://dataforgood-fb-data.s3.amazonaws.com/forests/v2/global/dinov3_global_chm_v2_ml3/chm/0231020210.tif",
        "source_license": "CC BY 4.0",
        "quadkey": "0231020210",
        "method_version": "earthline-elder-tree-aoi-chmv2-v0.1",
        "screen_rank": 12,
        "raw_structural_evidence_score": 34.7213,
        "confidence_pct": 80,
        "confidence_definition": "Earthline relative structural-evidence confidence within the analyzed candidate set; modeled candidates are capped at 95 and the value is not a probability of tree age or ancient/veteran status.",
        "height_m": 22.0,
        "emergent_height_m": 7.0,
        "crown_area_proxy_m2": 847.3,
        "open_context_fraction": 0.306,
        "evidence_limit": "Candidate only; modeled canopy structure is not proof of age or mycorrhizal hub status."
      }
    },
    {
      "type": "Feature",
      "geometry": {
        "type": "Point",
        "coordinates": [
          -111.69684469699858,
          35.384969593416436
        ]
      },
      "properties": {
        "record_class": "ELDER_TREE_CANDIDATE",
        "verification_status": "modeled remote-sensing candidate only",
        "source_class": "MODELED_CHMV2",
        "source_name": "WRI/Meta CHMv2",
        "source_url": "https://dataforgood-fb-data.s3.amazonaws.com/forests/v2/global/dinov3_global_chm_v2_ml3/chm/0231020210.tif",
        "source_license": "CC BY 4.0",
        "quadkey": "0231020210",
        "method_version": "earthline-elder-tree-aoi-chmv2-v0.1",
        "screen_rank": 14,
        "raw_structural_evidence_score": 34.4569,
        "confidence_pct": 78,
        "confidence_definition": "Earthline relative structural-evidence confidence within the analyzed candidate set; modeled candidates are capped at 95 and the value is not a probability of tree age or ancient/veteran status.",
        "height_m": 22.0,
        "emergent_height_m": 15.0,
        "crown_area_proxy_m2": 559.2,
        "open_context_fraction": 0.462,
        "evidence_limit": "Candidate only; modeled canopy structure is not proof of age or mycorrhizal hub status."
      }
    },
    {
      "type": "Feature",
      "geometry": {
        "type": "Point",
        "coordinates": [
          -111.67043030261992,
          35.310078023736445
        ]
      },
      "properties": {
        "record_class": "ELDER_TREE_CANDIDATE",
        "verification_status": "modeled remote-sensing candidate only",
        "source_class": "MODELED_CHMV2",
        "source_name": "WRI/Meta CHMv2",
        "source_url": "https://dataforgood-fb-data.s3.amazonaws.com/forests/v2/global/dinov3_global_chm_v2_ml3/chm/0231020210.tif",
        "source_license": "CC BY 4.0",
        "quadkey": "0231020210",
        "method_version": "earthline-elder-tree-aoi-chmv2-v0.1",
        "screen_rank": 22,
        "raw_structural_evidence_score": 33.6167,
        "confidence_pct": 72,
        "confidence_definition": "Earthline relative structural-evidence confidence within the analyzed candidate set; modeled candidates are capped at 95 and the value is not a probability of tree age or ancient/veteran status.",
        "height_m": 22.0,
        "emergent_height_m": 6.0,
        "crown_area_proxy_m2": 1001.3,
        "open_context_fraction": 0.142,
        "evidence_limit": "Candidate only; modeled canopy structure is not proof of age or mycorrhizal hub status."
      }
    },
    {
      "type": "Feature",
      "geometry": {
        "type": "Point",
        "coordinates": [
          -111.70924723148345,
          35.32779643697492
        ]
      },
      "properties": {
        "record_class": "ELDER_TREE_CANDIDATE",
        "verification_status": "modeled remote-sensing candidate only",
        "source_class": "MODELED_CHMV2",
        "source_name": "WRI/Meta CHMv2",
        "source_url": "https://dataforgood-fb-data.s3.amazonaws.com/forests/v2/global/dinov3_global_chm_v2_ml3/chm/0231020210.tif",
        "source_license": "CC BY 4.0",
        "quadkey": "0231020210",
        "method_version": "earthline-elder-tree-aoi-chmv2-v0.1",
        "screen_rank": 24,
        "raw_structural_evidence_score": 38.5011,
        "confidence_pct": 94,
        "confidence_definition": "Earthline relative structural-evidence confidence within the analyzed candidate set; modeled candidates are capped at 95 and the value is not a probability of tree age or ancient/veteran status.",
        "height_m": 22.0,
        "emergent_height_m": 21.0,
        "crown_area_proxy_m2": 527.8,
        "open_context_fraction": 0.548,
        "evidence_limit": "Candidate only; modeled canopy structure is not proof of age or mycorrhizal hub status."
      }
    },
    {
      "type": "Feature",
      "geometry": {
        "type": "Point",
        "coordinates": [
          -111.68213546276091,
          35.305936747977675
        ]
      },
      "properties": {
        "record_class": "ELDER_TREE_CANDIDATE",
        "verification_status": "modeled remote-sensing candidate only",
        "source_class": "MODELED_CHMV2",
        "source_name": "WRI/Meta CHMv2",
        "source_url": "https://dataforgood-fb-data.s3.amazonaws.com/forests/v2/global/dinov3_global_chm_v2_ml3/chm/0231020210.tif",
        "source_license": "CC BY 4.0",
        "quadkey": "0231020210",
        "method_version": "earthline-elder-tree-aoi-chmv2-v0.1",
        "screen_rank": 6,
        "raw_structural_evidence_score": 32.6056,
        "confidence_pct": 69,
        "confidence_definition": "Earthline relative structural-evidence confidence within the analyzed candidate set; modeled candidates are capped at 95 and the value is not a probability of tree age or ancient/veteran status.",
        "height_m": 21.0,
        "emergent_height_m": 6.0,
        "crown_area_proxy_m2": 1074.1,
        "open_context_fraction": 0.037,
        "evidence_limit": "Candidate only; modeled canopy structure is not proof of age or mycorrhizal hub status."
      }
    },
    {
      "type": "Feature",
      "geometry": {
        "type": "Point",
        "coordinates": [
          -111.68020427227019,
          35.30056065309545
        ]
      },
      "properties": {
        "record_class": "ELDER_TREE_CANDIDATE",
        "verification_status": "modeled remote-sensing candidate only",
        "source_class": "MODELED_CHMV2",
        "source_name": "WRI/Meta CHMv2",
        "source_url": "https://dataforgood-fb-data.s3.amazonaws.com/forests/v2/global/dinov3_global_chm_v2_ml3/chm/0231020210.tif",
        "source_license": "CC BY 4.0",
        "quadkey": "0231020210",
        "method_version": "earthline-elder-tree-aoi-chmv2-v0.1",
        "screen_rank": 10,
        "raw_structural_evidence_score": 31.7949,
        "confidence_pct": 63,
        "confidence_definition": "Earthline relative structural-evidence confidence within the analyzed candidate set; modeled candidates are capped at 95 and the value is not a probability of tree age or ancient/veteran status.",
        "height_m": 21.0,
        "emergent_height_m": 4.0,
        "crown_area_proxy_m2": 1265.2,
        "open_context_fraction": 0.037,
        "evidence_limit": "Candidate only; modeled canopy structure is not proof of age or mycorrhizal hub status."
      }
    },
    {
      "type": "Feature",
      "geometry": {
        "type": "Point",
        "coordinates": [
          -111.67340219020842,
          35.301383726609004
        ]
      },
      "properties": {
        "record_class": "ELDER_TREE_CANDIDATE",
        "verification_status": "modeled remote-sensing candidate only",
        "source_class": "MODELED_CHMV2",
        "source_name": "WRI/Meta CHMv2",
        "source_url": "https://dataforgood-fb-data.s3.amazonaws.com/forests/v2/global/dinov3_global_chm_v2_ml3/chm/0231020210.tif",
        "source_license": "CC BY 4.0",
        "quadkey": "0231020210",
        "method_version": "earthline-elder-tree-aoi-chmv2-v0.1",
        "screen_rank": 20,
        "raw_structural_evidence_score": 33.9098,
        "confidence_pct": 73,
        "confidence_definition": "Earthline relative structural-evidence confidence within the analyzed candidate set; modeled candidates are capped at 95 and the value is not a probability of tree age or ancient/veteran status.",
        "height_m": 21.0,
        "emergent_height_m": 7.0,
        "crown_area_proxy_m2": 818.8,
        "open_context_fraction": 0.208,
        "evidence_limit": "Candidate only; modeled canopy structure is not proof of age or mycorrhizal hub status."
      }
    },
    {
      "type": "Feature",
      "geometry": {
        "type": "Point",
        "coordinates": [
          -111.67963564395903,
          35.30072701969349
        ]
      },
      "properties": {
        "record_class": "ELDER_TREE_CANDIDATE",
        "verification_status": "modeled remote-sensing candidate only",
        "source_class": "MODELED_CHMV2",
        "source_name": "WRI/Meta CHMv2",
        "source_url": "https://dataforgood-fb-data.s3.amazonaws.com/forests/v2/global/dinov3_global_chm_v2_ml3/chm/0231020210.tif",
        "source_license": "CC BY 4.0",
        "quadkey": "0231020210",
        "method_version": "earthline-elder-tree-aoi-chmv2-v0.1",
        "screen_rank": 9,
        "raw_structural_evidence_score": 32.1633,
        "confidence_pct": 64,
        "confidence_definition": "Earthline relative structural-evidence confidence within the analyzed candidate set; modeled candidates are capped at 95 and the value is not a probability of tree age or ancient/veteran status.",
        "height_m": 20.0,
        "emergent_height_m": 5.0,
        "crown_area_proxy_m2": 1015.6,
        "open_context_fraction": 0.17,
        "evidence_limit": "Candidate only; modeled canopy structure is not proof of age or mycorrhizal hub status."
      }
    },
    {
      "type": "Feature",
      "geometry": {
        "type": "Point",
        "coordinates": [
          -111.68037593364716,
          35.30020165032378
        ]
      },
      "properties": {
        "record_class": "ELDER_TREE_CANDIDATE",
        "verification_status": "modeled remote-sensing candidate only",
        "source_class": "MODELED_CHMV2",
        "source_name": "WRI/Meta CHMv2",
        "source_url": "https://dataforgood-fb-data.s3.amazonaws.com/forests/v2/global/dinov3_global_chm_v2_ml3/chm/0231020210.tif",
        "source_license": "CC BY 4.0",
        "quadkey": "0231020210",
        "method_version": "earthline-elder-tree-aoi-chmv2-v0.1",
        "screen_rank": 8,
        "raw_structural_evidence_score": 32.5563,
        "confidence_pct": 67,
        "confidence_definition": "Earthline relative structural-evidence confidence within the analyzed candidate set; modeled candidates are capped at 95 and the value is not a probability of tree age or ancient/veteran status.",
        "height_m": 19.0,
        "emergent_height_m": 8.0,
        "crown_area_proxy_m2": 714.6,
        "open_context_fraction": 0.407,
        "evidence_limit": "Candidate only; modeled canopy structure is not proof of age or mycorrhizal hub status."
      }
    },
    {
      "type": "Feature",
      "geometry": {
        "type": "Point",
        "coordinates": [
          -111.7319494485855,
          35.35189914862854
        ]
      },
      "properties": {
        "record_class": "ELDER_TREE_CANDIDATE",
        "verification_status": "modeled remote-sensing candidate only",
        "source_class": "MODELED_CHMV2",
        "source_name": "WRI/Meta CHMv2",
        "source_url": "https://dataforgood-fb-data.s3.amazonaws.com/forests/v2/global/dinov3_global_chm_v2_ml3/chm/0231020210.tif",
        "source_license": "CC BY 4.0",
        "quadkey": "0231020210",
        "method_version": "earthline-elder-tree-aoi-chmv2-v0.1",
        "screen_rank": 16,
        "raw_structural_evidence_score": 30.1469,
        "confidence_pct": 61,
        "confidence_definition": "Earthline relative structural-evidence confidence within the analyzed candidate set; modeled candidates are capped at 95 and the value is not a probability of tree age or ancient/veteran status.",
        "height_m": 19.0,
        "emergent_height_m": 3.0,
        "crown_area_proxy_m2": 1182.5,
        "open_context_fraction": 0.066,
        "evidence_limit": "Candidate only; modeled canopy structure is not proof of age or mycorrhizal hub status."
      }
    }
  ]
}